name,address,state,zip,phone,url
Anchorage Golf Course,"3651 OMalley Rd Anchorage, AK 99516",AK,99516,907-522-3363,https://www.golfalaska.com/golfcourses/anchorage-golf-course
Bear Valley Golf Course,"2 8 Mile Anton Larson Bay Rd Kodiak, AK 99615",AK,99615,414617180,https://www.golfalaska.com/golfcourses/bear-valley-golf-course
Birch Ridge Golf Course,"42223 Sterling Hwy Soldotna, AK 99669",AK,99669,907-262-5270,https://www.golfalaska.com/golfcourses/birch-ridge-golf-course
Black Diamond Golf Course,"Mile 247 George Park Hwy Otto Lake Rd Healy, AK 99743",AK,99743,907-683-4653,https://www.golfalaska.com/golfcourses/black-diamond-golf-course
Chena Bend Golf Course,"Bldg 2092 AFVR-FW-PAD Fort Wainwright, AK 99703",AK,99703,907-353-6223,https://www.golfalaska.com/golfcourses/chena-bend-golf-course
Eagleglen Golf Course,"MWRS/MWBG Bldg 23-100 Elmendorf AFB, AK 99506",AK,99506,907-552-3821,https://www.golfalaska.com/golfcourses/eagleglen-golf-course
Fairbanks Golf & Country Club,"1735 Farmers Loop Rd Fairbanks, AK 99709",AK,99709,907-479-6555,https://www.golfalaska.com/golfcourses/fairbanks-golf-country-club
Fireweed Meadows Golf Course,"72749 Milo Fritz Ave Anchor Point, AK 99556",AK,99556,907-226-2582,https://www.golfalaska.com/golfcourses/fireweed-meadows-golf-course
Kachemak Bay Lynx Golf,"56910 E Rd Homer, AK 99603",AK,99603,907-235-0606,https://www.golfalaska.com/golfcourses/kachemak-bay-lynx-golf
Kenai Golf Course,"1420 Lawton Dr Kenai, AK 99611",AK,99611,907-283-7500,https://www.golfalaska.com/golfcourses/kenai-golf-course
Mendenhall Golf Course,"2101 Industrial Blvd Juneau, AK 99801",AK,99801,907-789-1221,https://www.golfalaska.com/golfcourses/mendenhall-golf-course
Moose Run Golf Course - Creek,"27000 Artic Valley Rd Fort Richardson, AK 99505",AK,99505,907-428-0056,https://www.golfalaska.com/golfcourses/moose-run-golf-course-creek
Moose Run Golf Course - Hill,"27000 Artic Valley Rd Fort Richardson, AK 99505",AK,99505,907-428-0056,https://www.golfalaska.com/golfcourses/moose-run-golf-course-hill
Muskeg Meadows Golf Course,"1/2 Mile Wrangell E Rd Wrangell, AK 99929",AK,99929,907-874-2538,https://www.golfalaska.com/golfcourses/muskeg-meadows-golf-course
North Star Golf Club,"330 Golf Club Dr Fairbanks, AK 99712",AK,99712,907-457-4653,https://www.golfalaska.com/golfcourses/north-star-golf-club
Palmer Golf Course,"1000 Lepak Ave Palmer, AK 99645",AK,99645,907-745-4653,https://www.golfalaska.com/golfcourses/palmer-golf-course
Par T Golf Course,"1307 E 74th Ave Anchorage, AK 99518",AK,99518,907-344-5717,https://www.golfalaska.com/golfcourses/par-t-golf-course
Russian Jack Springs Golf Course,"5300 Debarr Road Anchorage, AK 99508",AK,99508,907-333-8338,https://www.golfalaska.com/golfcourses/russian-jack-springs-golf-course
Settlers Bay Golf Course,"Mile 8 Knik Rd Wasilla, AK 99687",AK,99687,907-376-5466,https://www.golfalaska.com/golfcourses/settlers-bay-golf-course
Sleepy Hollow Golf Course,"Mile 3/5 Schrock Rd Wasilla, AK 99654",AK,99654,907-376-5948,https://www.golfalaska.com/golfcourses/sleepy-hollow-golf-course
Tanglewood Lakes Golf Club,"11701 Brayton Drive Anchorage, AK 99516",AK,99516,907-345-4600,https://www.golfalaska.com/golfcourses/tanglewood-lakes-golf-club
Albertville Golf & Country Club,"Country Club Rd Albertville, AL 35950",AL,35950,256-878-4403,https://www.golfalabama.com/golfcourses/albertville-golf-country-club
Alpine Bay Golf Club,"9855 Renfroe Rd Alpine, AL 35014",AL,35014,256-268-2920,https://www.golfalabama.com/golfcourses/alpine-bay-golf-club
Altadena Valley Country Club,"2651 Alta Vista Dr Birmingham, AL 35243",AL,35243,205-967-5324,https://www.golfalabama.com/golfcourses/altadena-valley-country-club
Andalusia Country Club,"210 Country Club Dr Andalusia, AL 36420",AL,36420,334-222-5282,https://www.golfalabama.com/golfcourses/andalusia-country-club
Anderson Creek Golf Course,"2831 County Rd 156 Anderson, AL 35610",AL,35610,256-247-5913,https://www.golfalabama.com/golfcourses/anderson-creek-golf-course
Anniston Country Club,"601 Highland Ave Anniston, AL 36207",AL,36207,256-237-4615,https://www.golfalabama.com/golfcourses/anniston-country-club
Anniston Municipal Golf Course,"1341 Johnston Drive Anniston, AL 36207",AL,36207,256-231-7631,https://www.golfalabama.com/golfcourses/anniston-municipal-golf-course
Arrowhead Country Club,"50 Ocala Dr Montgomery, AL 36117",AL,36117,334-272-7180,https://www.golfalabama.com/golfcourses/arrowhead-country-club
Athens Golf & Country Club,"518 Hatfield Rd Athens, AL 35611",AL,35611,256-232-0809,https://www.golfalabama.com/golfcourses/athens-golf-country-club
Atmore Country Club,"4474 Hwy 31 S Atmore, AL 36502",AL,36502,334-368-4486,https://www.golfalabama.com/golfcourses/atmore-country-club
Auburn Links at Mill Creek,"826 Shelltoomer Pkwy Auburn, AL 36831",AL,36831,334-887-5151,https://www.golfalabama.com/golfcourses/auburn-links-at-mill-creek
Auburn University Club,"1650 Yarbrough Farms Blvd Auburn, AL 36832",AL,36832,334-821-8381,https://www.golfalabama.com/golfcourses/auburn-university-club
Azalea City Golf Course,"1000 Galliard Dr Mobile, AL 36608",AL,36608,251-208-5150,https://www.golfalabama.com/golfcourses/azalea-city-golf-course
B & J Golf Center,"Recreational Dr Oxford, AL 36203",AL,36203,256-835-9940,https://www.golfalabama.com/golfcourses/b-j-golf-center
Ballantrae Golf Club,"1300 Ballantrae Club Drive Pelham, AL 35124",AL,35124,205-620-4653,https://www.golfalabama.com/golfcourses/ballantrae-golf-club
Bay Oaks Golf Club,"7960 Edgar Roberts Rd Irvington, AL 36544",AL,36544,334-824-2429,https://www.golfalabama.com/golfcourses/bay-oaks-golf-club
Becky Pierce Municipal Golf Course,"2151 Airport Rd SW Huntsville, AL 35801",AL,35801,256-880-1151,https://www.golfalabama.com/golfcourses/becky-pierce-municipal-golf-course
Bent Brook Golf Course,"7900 Dickey Springs Rd Bessemer, AL 35022",AL,35022,205-424-2368,https://www.golfalabama.com/golfcourses/bent-brook-golf-course
Blackberry Trail Golf Course,"112 Club House Drive Florence, AL 35634",AL,35634,256-740-8825,https://www.golfalabama.com/golfcourses/blackberry-trail-golf-course
Boaz Golf Club,"1715 Alabama Hwy 205 S Boaz, AL 35957",AL,35957,256-593-5501,https://www.golfalabama.com/golfcourses/boaz-golf-club
Bonnie Crest Country Club,"1410 Federal Dr Montgomery, AL 36107",AL,36107,334-272-9316,https://www.golfalabama.com/golfcourses/bonnie-crest-country-club
Briarmeade Golf Club,"505 Ralph Ave Glencoe, AL 35905",AL,35905,256-492-1150,https://www.golfalabama.com/golfcourses/briarmeade-golf-club
Broken Arrow Golf Course,"399 Broken Arrow Dr Scottsboro, AL 35769",AL,35769,256-582-9888,https://www.golfalabama.com/golfcourses/broken-arrow-golf-course
Brookside Golf Course,"1620 Country Club Dr Arab, AL 35016",AL,35016,256-586-5765,https://www.golfalabama.com/golfcourses/brookside-golf-course
Brundidge Country Club,"Springhill Hwy Brundidge, AL 36010",AL,36010,334-735-3680,https://www.golfalabama.com/golfcourses/brundidge-country-club
Burningtree Country Club,"2521 Burningtree Dr SE Decatur, AL 35603",AL,35603,256-355-5982,https://www.golfalabama.com/golfcourses/burningtree-country-club
Cahaba Shoals Country Club,"530 2nd Street North Centreville, AL 35042",AL,35042,205-926-9323,https://www.golfalabama.com/golfcourses/cahaba-shoals-country-club
Cambrian Ridge,"101 Sunbelt Pkwy Greenville, AL 36037",AL,36037,334-382-9787,https://www.golfalabama.com/golfcourses/cambrian-ridge
Cane Creek Golf Course,"2247 Galloway Gate Rd Fort McClellan, AL 36205",AL,36205,256-820-9174,https://www.golfalabama.com/golfcourses/cane-creek-golf-course
Canebrake Golf Club,"23015 Founders Cr Athens, AL 35613",AL,35613,256-232-2412,https://www.golfalabama.com/golfcourses/canebrake-golf-club
Capitol Hill Golf Club,"2600 Constitution Ave Prattville, AL 36066",AL,36066,334-285-1114,https://www.golfalabama.com/golfcourses/capitol-hill-golf-club
Capstone Club,"16000 Capstone Blvd Brookwood, AL 35444",AL,35444,205-462-0590,https://www.golfalabama.com/golfcourses/capstone-club
Castle Pines Country Club,"1600 Quail Ridge Drive Gardendale, AL 35071",AL,35071,205-631-3140,https://www.golfalabama.com/golfcourses/castle-pines-country-club
Cedar Ridge Golf Course,"3030 Moadus Rd SW Decatur, AL 35603",AL,35603,256-353-4653,https://www.golfalabama.com/golfcourses/2676
Chace Lake Country Club,"1850 Montgomery Hwy S Birmingham, AL 35244",AL,35244,205-988-5219,https://www.golfalabama.com/golfcourses/chace-lake-country-club
Cherokee Country Club,"270 Country Road 382 Centre, AL 35960",AL,35960,256-927-5070,https://www.golfalabama.com/golfcourses/2859
Cherokee Ridge Country Club,"4000 Cherokee Ridge Dr Union Grove, AL 35175",AL,35175,256-498-5300,https://www.golfalabama.com/golfcourses/cherokee-ridge-country-club
Chesley Oaks Golf Course,"1035 County Rd 1583 Fairview, AL 35058",AL,35058,256-796-9808,https://www.golfalabama.com/golfcourses/chesley-oaks-golf-course
Choctaw Country Club,"Country Club Dr Butler, AL 36904",AL,36904,205-459-4000,https://www.golfalabama.com/golfcourses/choctaw-country-club
Chriswood Golf Course,"26181 Nick Davis Rd Athens, AL 35613",AL,35613,256-232-9759,https://www.golfalabama.com/golfcourses/chriswood-golf-course
Cider Ridge Golf Club,"200 Apple Blossom Way Oxford, AL 36203",AL,36203,256-831-2739,https://www.golfalabama.com/golfcourses/cider-ridge-golf-club
Clanton Country Club,"1 Country Club Rd Clanton, AL 35046",AL,35046,205-755-0415,https://www.golfalabama.com/golfcourses/clanton-country-club
Clay County Public Golf Course,"120 Country Club Rd Ashland, AL 36251",AL,36251,256-354-2814,https://www.golfalabama.com/golfcourses/clay-county-public-golf-course
Colonial Golf Course,"400 Colonial Dr Meridianville, AL 35759",AL,35759,256-828-0431,https://www.golfalabama.com/golfcourses/colonial-golf-course
Coosa Pines Golf Club,"16615 Plant Rd Coosa Pines, AL 35044",AL,35044,256-378-5529,https://www.golfalabama.com/golfcourses/coosa-pines-golf-club
Country Club of Birmingham,"1 New Country Club Rd Birmingham, AL 35213",AL,35213,205-879-4611,https://www.golfalabama.com/golfcourses/country-club-of-birmingham
Country Club of Brewton,"700 Clubhouse road Brewton, AL 36426",AL,36426,251-867-4100,https://www.golfalabama.com/golfcourses/country-club-of-brewton
Country Club of Mobile,"4101 Wimbledon Dr Mobile, AL 36608",AL,36608,251-342-5138,https://www.golfalabama.com/golfcourses/country-club-of-mobile
Country Club of Tuscaloosa,"3700 6th St Tuscaloosa, AL 35401",AL,35401,205-759-5535,https://www.golfalabama.com/golfcourses/country-club-of-tuscaloosa
Covered Bridge Golf Club,"350 County Rd 42 Oneonta, AL 35121",AL,35121,205-625-5240,https://www.golfalabama.com/golfcourses/covered-bridge-gc
Craft Farms - Cotton Creek Club,"3840 Cotton Creek Blvd Gulf Shores, AL 36542",AL,36542,251-968-7500,https://www.golfalabama.com/golfcourses/craft-farms-cotton-creek-golf-club
Craft Farms - Cypress Bend Club,"3840 Cotton Creek Blvd Gulf Shores, AL 36542",AL,36542,251-968-7500,https://www.golfalabama.com/golfcourses/craft-farms-cypress-bend-golf-club
Craig Golf Course,"Craig AFB Selma, AL 36702",AL,36702,334-872-4451,https://www.golfalabama.com/golfcourses/craig-golf-course
Cullman Golf Course,"2321 County Rd 490 Hanceville, AL 35077",AL,35077,256-739-2386,https://www.golfalabama.com/golfcourses/cullman-golf-course
Cumberland Lake Golf Club,"2150 Cumberland Lake Drive Pinson, AL 35126",AL,35126,205-680-4650,https://www.golfalabama.com/golfcourses/cumberland-lake-golf-club
Cypress Lakes Golf & Country Club,"1311 E 6th St Muscle Shoals, AL 35661",AL,35661,256-386-7783,https://www.golfalabama.com/golfcourses/cypress-lakes-golf-country-club
Cypress Tree Golf Course,"1461 March Rd Bldg1461 Maxwell AFB, AL 36112",AL,36112,334-263-7587,https://www.golfalabama.com/golfcourses/cypress-tree-golf-course
Decatur Country Club,"2401 Country Club Rd SE Decatur, AL 35601",AL,35601,256-353-3039,https://www.golfalabama.com/golfcourses/decatur-country-club
Deer Run Golf Course,"1175 County Rd 100 Moulton, AL 35650",AL,35650,256-974-7384,https://www.golfalabama.com/golfcourses/3997
Deerfield Golf Club,"Hwy 56 E Chatom, AL 36518",AL,36518,334-847-2056,https://www.golfalabama.com/golfcourses/deerfield-golf-club
Demopolis Country Club,"1620 Country Club Dr Demopolis, AL 36732",AL,36732,334-289-0880,https://www.golfalabama.com/golfcourses/demopolis-country-club
Desoto Country Club,"502 Crystal Lake Rd Fort Payne, AL 35967",AL,35967,256-845-2571,https://www.golfalabama.com/golfcourses/desoto-country-club
Dogwood Hills Golf Resort & Gardens,"26460 Alabama Hwy 71 Flat Rock, AL 35966",AL,35966,256-632-3634,https://www.golfalabama.com/golfcourses/dogwood-hills-golf-resort-gardens
Dothan Country Club,"200 S Cherokee Ave Dothan, AL 36301",AL,36301,334-792-8255,https://www.golfalabama.com/golfcourses/dothan-country-club
Dothan National Golf Club & Hotel,"7410 US Hwy 231 S Dothan, AL 36301",AL,36301,334-677-3321,https://www.golfalabama.com/golfcourses/dothan-national-golf-club-hotel
Eagle Point Golf Club,"4500 Eagle Point Dr Birmingham, AL 35242",AL,35242,205-991-9070,https://www.golfalabama.com/golfcourses/eagle-point-gc
Eagles Nest Golf Course at Lake Guntersville State Park,"7966 Alabama Hwy. 227 Guntersville, AL 35976",AL,35976,256-582-0379,https://www.golfalabama.com/golfcourses/eagles-nest-golf-course-at-lake-guntersville-state-park
Elba Country Club,"Taylor Mill Rd Elba, AL 36323",AL,36323,334-897-6600,https://www.golfalabama.com/golfcourses/elba-country-club
Emerald Mountain Golf Club,"245 Mountain View Drive Wetumpka, AL 36093",AL,36093,334-514-8082,https://www.golfalabama.com/golfcourses/emerald-mountain-golf-club
Enterprise Country Club,"3000 Ozark Hwy 27 N Enterprise, AL 36330",AL,36330,334-347-2726,https://www.golfalabama.com/golfcourses/enterprise-country-club
Eufaula Country Club,"2650 Country Club Rd Eufaula, AL 36027",AL,36027,334-687-2007,https://www.golfalabama.com/golfcourses/eufaula-country-club
Evans Barnes Golf Course,"Hwy 84 at LBW College Andalusia, AL 36420",AL,36420,334-222-8400,https://www.golfalabama.com/golfcourses/evans-barnes-golf-course
Evergreen Golf Club,"Hwy 31 N Evergreen, AL 36401",AL,36401,251-578-5214,https://www.golfalabama.com/golfcourses/evergreen-golf-club
FarmLinks Golf Club at Pursell Farms,"386 Talladega Springs Road Sylacauga, AL 35151",AL,35151,256-208-7640,https://www.golfalabama.com/golfcourses/farmlinks-golf-club-pursell-farms
Fayette Country Club,"Country Club Rd Fayette, AL 35555",AL,35555,205-932-4079,https://www.golfalabama.com/golfcourses/fayette-country-club
Florence Golf & Country Club,"450 Country Club Dr Florence, AL 35630",AL,35630,256-764-8592,https://www.golfalabama.com/golfcourses/florence-golf-country-club
Fox Ridge Golf Course,"815 Country Club Dr Ozark, AL 36360",AL,36360,334-774-2615,https://www.golfalabama.com/golfcourses/fox-ridge-gc
Fox Run Golf Course,"870 McCollum Rd Meridianville, AL 35759",AL,35759,256-828-7564,https://www.golfalabama.com/golfcourses/5327
Frank House Golf Course,"801 Golf Course Rd Bessemer, AL 35022",AL,35022,205-424-9540,https://www.golfalabama.com/golfcourses/frank-house-golf-course
Gadsden Country Club,"1884 Rainbow Dr Gadsden, AL 35901",AL,35901,256-546-0451,https://www.golfalabama.com/golfcourses/gadsden-country-club
Gateway Golf Course,"3800 Davenport Parkway Montgomery, AL 36057",AL,36057,334-284-7920,https://www.golfalabama.com/golfcourses/12233
Glenlakes Golf Club,"9530 Clubhouse Dr Foley, AL 36535",AL,36535,251-955-1220,https://www.golfalabama.com/golfcourses/glenlakes-golf-club
Goose Pond Colony Golf Course,"417 Ed Hembree Dr Scottsboro, AL 35769",AL,35769,256-574-5353,https://www.golfalabama.com/golfcourses/goose-pond-colony-golf-course
Grand National Golf Course,"3000 Robert Trent Jones Trail Opelika, AL 36801",AL,36801,334-749-9042,https://www.golfalabama.com/golfcourses/grand-national
Grayson Valley Country Club,"2201 Grayson Valley Dr Birmingham, AL 35235",AL,35235,205-854-2382,https://www.golfalabama.com/golfcourses/grayson-valley-country-club
Green Briar Golf Course,"1130 Morris Majestic Rd Morris, AL 35116",AL,35116,205-647-2680,https://www.golfalabama.com/golfcourses/green-briar-golf-course
Green Hill Golf Course,"2600 Old Campbellton Hwy Dothan, AL 36301",AL,36301,334-792-3597,https://www.golfalabama.com/golfcourses/green-hill-golf-course
Greenville Country Club,"902 Fort Dale Rd Greenville, AL 36037",AL,36037,334-382-8312,https://www.golfalabama.com/golfcourses/greenville-country-club
Greystone Valley Country Club,"4100 Greystone Dr Birmingham, AL 35242",AL,35242,205-980-5200,https://www.golfalabama.com/golfcourses/greystone-valley-country-club
Gulf Links Golf Course,"3901 S McKenzie St Foley, AL 36535",AL,36535,334-970-1444,https://www.golfalabama.com/golfcourses/gulf-links-golf-course
Gulf Pines Golf Course,"167 Old Bay Front Dr Mobile, AL 36615",AL,36615,251-431-6413,https://www.golfalabama.com/golfcourses/gulf-pines-golf-course
Gulf Shores Golf Club,"520 Clubhouse Dr Gulf Shores, AL 36547",AL,36547,334-968-4502,https://www.golfalabama.com/golfcourses/gulf-shores-golf-club
Gulf State Park Golf Course,"20115 State Hwy 135 Gulf Shores, AL 36542",AL,36542,334-948-4653,https://www.golfalabama.com/golfcourses/gulf-state-park-golf-course
Gunters Landing Golf Club,"1000 Gunters Landing Rd Guntersville, AL 35976",AL,35976,256-582-3000,https://www.golfalabama.com/golfcourses/gunters-landing-golf-club
Haleyville Country Club,"1331 Airport Rd Haleyville, AL 35565",AL,35565,205-486-3906,https://www.golfalabama.com/golfcourses/haleyville-country-club
Hampton Cove Golf Course,"450 Old Hwy 431S Owens Cross Roads, AL 35763",AL,35763,256-551-1818,https://www.golfalabama.com/golfcourses/hampton-cove-golf-course
Harvest Hills Golf Course,"791 Harvest Rd Harvest, AL 35749",AL,35749,256-890-0705,https://www.golfalabama.com/golfcourses/harvest-hills-golf-course
Hatchet Creek Golf Club,"Mount Olive Rd Goodwater, AL 35072",AL,35072,256-839-5612,https://www.golfalabama.com/golfcourses/hatchet-creek-golf-club
Headland Country Club,"Hwy 134 E Headland, AL 36345",AL,36345,334-693-2324,https://www.golfalabama.com/golfcourses/headland-country-club
Heatherwood Country Club,"400 Saint Annes Dr Birmingham, AL 35244",AL,35244,205-991-7474,https://www.golfalabama.com/golfcourses/heatherwood-country-club
Heron Lakes Country Club,"3851 Government Blvd Mobile, AL 36693",AL,36693,251-666-7070,https://www.golfalabama.com/golfcourses/heron-lakes-country-club
Hidden Meadows Golf Course,"13000 Old Cove Rd Northport, AL 35473",AL,35473,205-339-3673,https://www.golfalabama.com/golfcourses/hidden-meadows-golf-course
Hidden Valley Golf Course,"607 County Rd 393 Bryant, AL 35958",AL,35958,256-495-9608,https://www.golfalabama.com/golfcourses/hidden-valley-golf-course
High Point Golf Club,"4603 Golf way Dr Eight Mile, AL 36613",AL,36613,334-452-6531,https://www.golfalabama.com/golfcourses/high-point-golf-club
Highland Oaks Golf Course,"904 Royal Pkwy Dothan, AL 36305",AL,36305,334-712-2820,https://www.golfalabama.com/golfcourses/highland-oaks-golf-course
Highland Park Golf Course,"3300 Highland Ave S Birmingham, AL 35205",AL,35205,205-322-1902,https://www.golfalabama.com/golfcourses/highland-park-golf-course
Holly Hills Municipal Golf Course,"Hwy 31 S Bay Minette, AL 36507",AL,36507,251-580-2553,https://www.golfalabama.com/golfcourses/holly-hills-municipal-golf-course
Hoover Country Club,"3140 Club Dr Birmingham, AL 35226",AL,35226,205-822-5707,https://www.golfalabama.com/golfcourses/hoover-country-club
Horse Creek Golf Course,"1745 Hwy 78 Dora, AL 35062",AL,35062,205-648-1499,https://www.golfalabama.com/golfcourses/horse-creek-golf-course
Huntsville Country Club,"2601 Oakwood Ave NW Huntsville, AL 35810",AL,35810,256-859-3110,https://www.golfalabama.com/golfcourses/huntsville-country-club
Indian Hills Country Club,"1650 Hwy 82 Tuscaloosa, AL 35406",AL,35406,205-349-1504,https://www.golfalabama.com/golfcourses/indian-hills-country-club
Indian Hills Golf Course,"127 Par Private Dr Decatur, AL 35603",AL,35603,256-773-9939,https://www.golfalabama.com/golfcourses/indian-hills-golf-course
Indian Oaks Golf Club,"201 Cherokee Trail Anniston, AL 36206",AL,36206,256-820-4030,https://www.golfalabama.com/golfcourses/indian-oaks-golf-club
Indian Pines Golf Course,"900 Country Club Ln Auburn, AL 36830",AL,36830,334-821-0880,https://www.golfalabama.com/golfcourses/indian-pines-golf-course
Inverness Country Club,"1 Country Club Dr Birmingham, AL 35242",AL,35242,205-991-8608,https://www.golfalabama.com/golfcourses/inverness-country-club
Isle Dauphine Golf Club,"100 Orleans Dr Dauphin Island, AL 36528",AL,36528,334-861-2433,https://www.golfalabama.com/golfcourses/isle-dauphine-golf-club
Joe Wheeler State Park Golf Course,"Rural Route 4 Rogersville, AL 35652",AL,35652,256-247-9308,https://www.golfalabama.com/golfcourses/joe-wheeler-state-park-golf-course
Kiva Dunes Golf Course,"815 Plantation Drive Gulf Shores, AL 36542",AL,36542,888-833-5482,https://www.golfalabama.com/golfcourses/kiva-dunes-golf-club
Knolls Country Club,"Old Hwy 82 Reform, AL 35481",AL,35481,205-375-6207,https://www.golfalabama.com/golfcourses/knolls-country-club
Lagoon Park Golf Course,"2855 Lagoon Park Dr Montgomery, AL 36109",AL,36109,334-271-7000,https://www.golfalabama.com/golfcourses/lagoon-park-golf-course
Lake Forest Country Club,"1 Golf Terrace Daphne, AL 36526",AL,36526,334-626-9324,https://www.golfalabama.com/golfcourses/7919
Lakepoint Resort Golf Course,"Route 2 Eufaula, AL 36027",AL,36027,334-687-6676,https://www.golfalabama.com/golfcourses/lakepoint-resort-golf-course
Lakeside Golf & Country Club,"5881 Cherokee Rd Tallassee, AL 36078",AL,36078,334-283-4090,https://www.golfalabama.com/golfcourses/lakeside-golf-country-club
Lakeside Golf Course,"365 Lakeside Rd Oakman, AL 35579",AL,35579,205-686-7985,https://www.golfalabama.com/golfcourses/lakeside-golf-course
Lakeview Country Club,"Millwood Rd Greensboro, AL 36744",AL,36744,334-624-8654,https://www.golfalabama.com/golfcourses/lakeview-country-club
Lakewinds Golf Course,"95 County Rd 40 Alexander City, AL 35010",AL,35010,256-825-9860,https://www.golfalabama.com/golfcourses/lakewinds-golf-course
Lakewood Golf Club,"1 Grand Blvd Point Clear, AL 36564",AL,36564,334-990-6312,https://www.golfalabama.com/golfcourses/lakewood-golf-club
Lakewood Golf Course,"2800 Lakewood Dr Phenix City, AL 36867",AL,36867,334-291-4726,https://www.golfalabama.com/golfcourses/lakewood-gc
Limestone Springs Golf Club,"3000 Colonial Dr Oneonta, AL 35121",AL,35121,205-274-4653,https://www.golfalabama.com/golfcourses/limestone-springs-golf-club
Linden Country Club,"Hwy 28 E Linden, AL 36748",AL,36748,334-295-8678,https://www.golfalabama.com/golfcourses/linden-country-club
Linksman Golf Club,"3700 Saint Andrews Dr Mobile, AL 36693",AL,36693,251-661-0018,https://www.golfalabama.com/golfcourses/linksman-golf-club
Livingston Country Club,"Country Club Rd Livingston, AL 35470",AL,35470,205-652-9931,https://www.golfalabama.com/golfcourses/livingston-country-club
Magnolia Golf Club,"3346 Elsberry Rd Montgomery, AL 36116",AL,36116,334-288-3310,https://www.golfalabama.com/golfcourses/magnolia-golf-club
Magnolia Grove Golf Course,"7001 Magnolia Grove Pkwy Mobile, AL 36618",AL,36618,251-645-0075,https://www.golfalabama.com/golfcourses/magnolia-grove-golf-course
Marion Military Institute Golf Course,"Fairway Dr Marion, AL 36756",AL,36756,334-683-9726,https://www.golfalabama.com/golfcourses/marion-military-institute-golf-course
McFarland Park Golf Course,"200 James M Spain Dr Florence, AL 35630",AL,35630,256-760-6428,https://www.golfalabama.com/golfcourses/mcfarland-park-golf-course
Mill Creek Golf Course,"18350 Lakeview Dr Citronelle, AL 36522",AL,36522,251-866-7881,https://www.golfalabama.com/golfcourses/mill-creek-golf-course
Mimosa Park Golf Course,"5700 18th Ave Tuscaloosa, AL 35405",AL,35405,205-752-8112,https://www.golfalabama.com/golfcourses/mimosa-park-golf-course
Monrovia Golf Course,"7130B Hwy 72 W Huntsville, AL 35806",AL,35806,256-837-9469,https://www.golfalabama.com/golfcourses/monrovia-golf-course
Montevallo Golf Club,"1481 Shelby County Hwy 204 Montevallo, AL 35115",AL,35115,205-665-8057,https://www.golfalabama.com/golfcourses/montevallo-golf-club
Montgomery Country Club,"3001 Narrow Lane Rd Montgomery, AL 36106",AL,36106,334-240-6545,https://www.golfalabama.com/golfcourses/montgomery-country-club
Montgomery Golf Center,"4507 Mobile Hwy Montgomery, AL 36108",AL,36108,334-288-9662,https://www.golfalabama.com/golfcourses/montgomery-golf-center
Montgomery National Golf Club,"7160 Byron Nelson Blvd Montgomery, AL 36116",AL,36116,334-281-3344,https://www.golfalabama.com/golfcourses/9582
Moores Mill Golf Club,"1957 Fairway Dr Auburn, AL 36830",AL,36830,334-826-8989,https://www.golfalabama.com/golfcourses/moores-mill-golf-club
Mountain Brook Club,"19 Beachwood Rd Birmingham, AL 35213",AL,35213,205-871-2116,https://www.golfalabama.com/golfcourses/mountain-brook-club
Mountain View Golf Course,"3200 Mountain View Dr Graysville, AL 35073",AL,35073,205-674-8362,https://www.golfalabama.com/golfcourses/9737
Musgrove Country Club,"916 Country Club Rd Jasper, AL 35503",AL,35503,205-221-7902,https://www.golfalabama.com/golfcourses/musgrove-country-club
NorthRiver Yacht Club,"New Watermelon Rd Tuscaloosa, AL 35404",AL,35404,205-345-0202,https://www.golfalabama.com/golfcourses/northriver-yacht-club
Oak Hill Country Club,"Country Club Rd Vernon, AL 35592",AL,35592,205-698-9918,https://www.golfalabama.com/golfcourses/oak-hill-country-club
Oak Mountain State Park Golf Course,"Finley Dr Pelham, AL 35124",AL,35124,205-620-2522,https://www.golfalabama.com/golfcourses/oak-mountain-state-park-golf-course
Ocumulgee Golf Course,"1009 Warrior Dr Selma, AL 36701",AL,36701,334-872-8301,https://www.golfalabama.com/golfcourses/ocumulgee-golf-course
Ol Colony Golf Complex,"401 Old Colony Road Tuscaloosa, AL 35406",AL,35406,205-562-3201,https://www.golfalabama.com/golfcourses/ol-colony-golf-complex
Old Overton Club,"7251 Old Overton Club Dr Vestavia Hills, AL 35242",AL,35242,205-972-9001,https://www.golfalabama.com/golfcourses/old-overton-club
Olympia Spa Golf Resort,"7410 Hwy 231 S Dothan, AL 36301",AL,36301,334-677-3326,https://www.golfalabama.com/golfcourses/olympia-spa-golf-resort
Opp Country Club,"Andalusia Hwy Opp, AL 36467",AL,36467,334-493-4342,https://www.golfalabama.com/golfcourses/opp-country-club
Orange Beach Golf Center,"24401 Canal Rd Orange Beach, AL 36561",AL,36561,334-974-5660,https://www.golfalabama.com/golfcourses/orange-beach-golf-center
Oxmoor Valley Golf Course,"100 Sunbelt Pkwy Birmingham, AL 35211",AL,35211,205-942-1177,https://www.golfalabama.com/golfcourses/oxmoor-valley-golf-course
Palisades Golf Course,"1364 Heritage Rd Oneonta, AL 35121",AL,35121,205-274-2390,https://www.golfalabama.com/golfcourses/palisades-golf-course
Pell City Country Club,"2021 Golf Course Rd Pell City, AL 35128",AL,35128,205-338-2066,https://www.golfalabama.com/golfcourses/pell-city-country-club
Peninsula Golf Club,"20 Peninsula Blvd Gulf Shores, AL 36547",AL,36547,251-968-8009,https://www.golfalabama.com/golfcourses/peninsula-golf-club
Percy Marcum Golf Course,"9621 Bagley Rd Empire, AL 35063",AL,35063,205-647-3377,https://www.golfalabama.com/golfcourses/percy-marcum-golf-course
Pikeville Country Club,"1310 Country Club Rd Guin, AL 35563",AL,35563,205-921-9577,https://www.golfalabama.com/golfcourses/pikeville-country-club
Pine Harbor Golf Club,"5800 Pine Harbor Rd Pell City, AL 35125",AL,35125,205-338-4354,https://www.golfalabama.com/golfcourses/pine-harbor-golf-club
Pine Hill Country Club,"175 Pine Hill Dr Anniston, AL 36207",AL,36207,256-237-2633,https://www.golfalabama.com/golfcourses/pine-hill-country-club
Pine Tree Country Club,"5100 Pine Whispers Dr Birmingham, AL 35210",AL,35210,205-956-1555,https://www.golfalabama.com/golfcourses/pine-tree-country-club
Pines Golf Club,"307 Deatsville Hwy Millbrook, AL 36054",AL,36054,334-285-7529,https://www.golfalabama.com/golfcourses/pines-golf-club
Pineview Country Club,"Linwood Dr Thomasville, AL 36784",AL,36784,334-636-5938,https://www.golfalabama.com/golfcourses/pineview-country-club
Point Mallard Golf Course,"2600-A Point Mallard Dr Decatur, AL 35601",AL,35601,256-341-4925,https://www.golfalabama.com/golfcourses/point-mallard-golf-course
Prattville Country Club,"Hwy 82 Bypass Prattville, AL 36067",AL,36067,334-365-4497,https://www.golfalabama.com/golfcourses/prattville-country-club
Quail Creek Golf Course,"19841 Quail Creek Dr Fairhope, AL 36532",AL,36532,251-990-0241,https://www.golfalabama.com/golfcourses/quail-creek-golf-course
Quail Creek Golf Resort,"233 Quail Creek Dr Hartselle, AL 35640",AL,35640,256-784-5033,https://www.golfalabama.com/golfcourses/quail-creek-golf-resort
Quail Ridge Country Club,"1600 Quail Ridge Dr Gardendale, AL 35071",AL,35071,205-631-3140,https://www.golfalabama.com/golfcourses/quail-ridge-country-club
Quail Walk Country Club,"2110 Holtville Hwy Wetumpka, AL 36092",AL,36092,334-567-5014,https://www.golfalabama.com/golfcourses/quail-walk-country-club
Rainsville Golf & Country Club,"Hwy 35 Rainsville, AL 35986",AL,35986,256-638-8846,https://www.golfalabama.com/golfcourses/rainsville-golf-country-club
Red Eagle Golf Course,"101 Merion Dr Eufaula, AL 36027",AL,36027,334-687-8003,https://www.golfalabama.com/golfcourses/red-eagle-golf-course
Redmont Country Club,"1400 Redmont Dr NW Red Bay, AL 35582",AL,35582,256-356-8070,https://www.golfalabama.com/golfcourses/redmont-country-club
Redstone Golf Course,"Building 4140 Goss Rd. Redstone Arsenal, AL 35898",AL,35898,256-883-7977,https://www.golfalabama.com/golfcourses/redstone-golf-course
River Oaks Golf Course,"1 Westville Ave Geneva, AL 36340",AL,36340,334-684-6190,https://www.golfalabama.com/golfcourses/river-oaks-golf-course
River Run 1 Golf Course,"1501 Dozier Rd Montgomery, AL 36117",AL,36117,334-647-4653,https://www.golfalabama.com/golfcourses/river-run-golf
River Trace Golf Club,"464 Goodyear Ave Gadsden, AL 35903",AL,35903,256-546-8821,https://www.golfalabama.com/golfcourses/river-trace-golf-club
Riverchase Country Club,"2000 Club Rd Birmingham, AL 35244",AL,35244,205-988-8111,https://www.golfalabama.com/golfcourses/riverchase-country-club
Riverside Country Club,"2001Cherry Dr Lanett, AL 36863",AL,36863,334-644-4503,https://www.golfalabama.com/golfcourses/riverside-country-club
Roanoke Country Club,"Country Club Rd Roanoke, AL 36274",AL,36274,334-863-6416,https://www.golfalabama.com/golfcourses/roanoke-country-club
Rock Creek Golf Club,"140 Clubhouse Dr Fairhope, AL 36532",AL,36532,334-928-4223,https://www.golfalabama.com/golfcourses/rock-creek-golf-club
Roebuck Municipal Golf Course,"8920 Roebuck Blvd Birmingham, AL 35206",AL,35206,205-836-7318,https://www.golfalabama.com/golfcourses/roebuck-municipal-golf-course
Roland Cooper State Park Golf Course,"285 Deer Run Rd Camden, AL 36726",AL,36726,334-682-4838,https://www.golfalabama.com/golfcourses/roland-cooper-state-park-golf-course
Ross Bridge,"4000 Grand Avenue Birmingham, AL 35226",AL,35226,205-949-3085,https://www.golfalabama.com/golfcourses/ross-bridge
Saddle Rock Golf Course at Cloudmont Resort,"721 County Road 614 Mentone, AL 35984",AL,35984,256-634-4344,https://www.golfalabama.com/golfcourses/saddle-rock-golf-course-at-cloudmont-resort
Saugahatchee Country Club,"3800 Bent Creek Rd Opelika, AL 36804",AL,36804,334-749-4342,https://www.golfalabama.com/golfcourses/saugahatchee-country-club
Scottsboro Golf & Country Club,"Guntersville Hwy Scottsboro, AL 35768",AL,35768,256-574-1356,https://www.golfalabama.com/golfcourses/scottsboro-golf-country-club
Sehoya Golf Club,"716 Sehoya Dr Clanton, AL 35046",AL,35046,256-245-6208,https://www.golfalabama.com/golfcourses/sehoya-golf-club
Selma Country Club,"103 W Dallas Ave Selma, AL 36701",AL,36701,334-874-6907,https://www.golfalabama.com/golfcourses/selma-country-club
Shoal Creek Golf Club,"100 New Williamsburg Dr Birmingham, AL 35242",AL,35242,205-991-9001,https://www.golfalabama.com/golfcourses/shoal-creek-golf-club
Silver Lakes Golf Course,"1 Sunbelt Pkwy Glencoe, AL 35905",AL,35905,256-892-3268,https://www.golfalabama.com/golfcourses/silver-lakes-golf-course
Silver Ridge Golf Club,"195 Golf Club Dr Horton, AL 35980",AL,35980,256-593-4055,https://www.golfalabama.com/golfcourses/silver-ridge-golf-club
Silver Wings Golf Course,"Bldg 20067 Fort Rucker, AL 36362",AL,36362,334-598-2449,https://www.golfalabama.com/golfcourses/silver-wings-golf-course
Skypark Golf Course,"1300 Skypark Rd Florence, AL 35634",AL,35634,256-757-4911,https://www.golfalabama.com/golfcourses/skypark-golf-course
Soldiers Creek Golf Club At The Preserve,"12096 County Rd 95 Elberta, AL 36530",AL,36530,251-986-8633,https://www.golfalabama.com/golfcourses/soldiers-creek-golf-club-at-the-preserve
Southern Gales Golf Club,"22045 Mooresville Rd Athens, AL 35613",AL,35613,256-232-9888,https://www.golfalabama.com/golfcourses/southern-gales-golf-club
Spring Creek Golf Course,"Woodmont Dr Tuscumbia, AL 35674",AL,35674,256-386-5670,https://www.golfalabama.com/golfcourses/spring-creek-golf-course
Spring Hill College Golf Course,"4000 Dauphin St Mobile, AL 36608",AL,36608,251-380-4655,https://www.golfalabama.com/golfcourses/spring-hill-college-golf-course
Steelwood,"Truck Trl 17323 Loxley, AL 36551",AL,36551,334-964-4502,https://www.golfalabama.com/golfcourses/steelwood
Stillwaters Golf Club,"797 Moonbrook Drive Dadeville, AL 36853",AL,36853,256-825-1353,https://www.golfalabama.com/golfcourses/stillwaters-golf-club
Stoney Mountain Golf Club,"5200 Georgia Mountain Rd Guntersville, AL 35976",AL,35976,256-582-2598,https://www.golfalabama.com/golfcourses/stoney-mountain-golf-club
Stoneybrook Golf Course,"1505 Country Club Dr SW Jacksonville, AL 36265",AL,36265,256-435-3114,https://www.golfalabama.com/golfcourses/stoneybrook-golf-course
Sumter Country Club,"51880 Country Club Rd York, AL 36925",AL,36925,205-392-9911,https://www.golfalabama.com/golfcourses/sumter-country-club
Sunset Landing Golf Course,"346 James Record Rd SW Huntsville, AL 35824",AL,35824,256-464-5050,https://www.golfalabama.com/golfcourses/sunset-landing-golf-course
Sylacauga Country Club,"1 Fairway Dr Sylacauga, AL 35150",AL,35150,256-249-8084,https://www.golfalabama.com/golfcourses/sylacauga-country-club
Talladega Municipal Golf,"65130 Al Highway 77 Talladega, AL 35160",AL,35160,256-362-8151,https://www.golfalabama.com/golfcourses/talladega-municipal-golf
Tannehill National Golf Course,"12863 Tannehill Pkwy McCalla, AL 35111",AL,35111,205-477-4653,https://www.golfalabama.com/golfcourses/tannehill-national-golf-course
Tartan Pines Golf Club,"423 Tartan Way Enterprise, AL 36330",AL,36330,334-393-8000,https://www.golfalabama.com/golfcourses/tartan-pines-golf-club
Tennessee Valley Country Club,"101 W Maple St Tuscumbia, AL 35674",AL,35674,256-383-3689,https://www.golfalabama.com/golfcourses/tennessee-valley-country-club
Terrapin Hills Country Club,"5501 Club Dr Fort Payne, AL 35967",AL,35967,256-845-4624,https://www.golfalabama.com/golfcourses/terrapin-hills-country-club
Terri Pines Country Club,"700 Pine Hill Dr Cullman, AL 35057",AL,35057,256-739-0720,https://www.golfalabama.com/golfcourses/terri-pines-country-club
Terry Walker Country Club,"2196 Zeigler Rd Leeds, AL 35094",AL,35094,205-699-4851,https://www.golfalabama.com/golfcourses/terry-walker-country-club
The Ledges,"32 Castle Down Drive Huntsville, AL 35802",AL,35802,256-883-4191,https://www.golfalabama.com/golfcourses/the-ledges
The Meadows,"1 Plantation Dr Harpersville, AL 35078",AL,35078,205-672-9909,https://www.golfalabama.com/golfcourses/the-meadows
The Ravine,"748 Sportsplex Dr Demopolis, AL 36732",AL,36732,334-289-1414,https://www.golfalabama.com/golfcourses/the-ravine
The Shoals Golf Course,"990 Sunbelt Pkwy Muscle Shoals, AL 35661",AL,35661,256-446-5111,https://www.golfalabama.com/golfcourses/the-shoals-golf-course
Timber Ridge Golf Club,"101 Ironaton Rd Talladega, AL 35160",AL,35160,256-362-0346,https://www.golfalabama.com/golfcourses/14643
TimberCreek Golf Club,"9650 Timbercreek Blvd Daphne, AL 36527",AL,36527,334-621-9900,https://www.golfalabama.com/golfcourses/timbercreek-golf-club
Trojan Oaks Golf Course,"Troy State University Troy, AL 36082",AL,36082,334-670-3377,https://www.golfalabama.com/golfcourses/trojan-oaks-golf-course
Troy Country Club,"1 Club Rd Troy, AL 36081",AL,36081,334-566-1169,https://www.golfalabama.com/golfcourses/troy-country-club
Trussville Country Club,"7905 Roper Rd Trussville, AL 35173",AL,35173,205-655-2095,https://www.golfalabama.com/golfcourses/trussville-country-club
Turtle Point Yacht & Country Club,"1000 Club Dr Killen, AL 35645",AL,35645,256-757-2155,https://www.golfalabama.com/golfcourses/turtle-point-yacht-country-club
Twin Bridges Golf Club,"901 Riverbend Drive Gadsden, AL 35901",AL,35901,256-549-4866,https://www.golfalabama.com/golfcourses/twin-bridges-golf-club
Twin Lakes Golf Club,"211 Golfview Dr NE Arab, AL 35016",AL,35016,256-586-3269,https://www.golfalabama.com/golfcourses/twin-lakes-golf-club
Twin Pines Country Club,"Route 7 Russellville, AL 35654",AL,35654,256-331-0270,https://www.golfalabama.com/golfcourses/twin-pines-country-club
Union Chapel Golf Course,"752 Golf Course Rd Jasper, AL 35504",AL,35504,205-483-8300,https://www.golfalabama.com/golfcourses/union-chapel-golf-course
Union Springs Country Club,"Hill & Dale Dr Union Springs, AL 36089",AL,36089,334-738-5015,https://www.golfalabama.com/golfcourses/union-springs-country-club
Valley Hill Country Club,"8300 Valley Hill Dr SE Huntsville, AL 35802",AL,35802,256-883-7620,https://www.golfalabama.com/golfcourses/valley-hill-country-club
Valley Landing Golf Course,"985 County Rd 585 Courtland, AL 35618",AL,35618,256-637-8735,https://www.golfalabama.com/golfcourses/valley-landing-golf-course
Vanity Fair Golf & Tennis Club,"613 Golf Dr Monroeville, AL 36460",AL,36460,334-575-4700,https://www.golfalabama.com/golfcourses/vanity-fair-golf-tennis-club
Vestavia Country Club,"400 Beaumont Dr Birmingham, AL 35216",AL,35216,205-822-8300,https://www.golfalabama.com/golfcourses/vestavia-country-club
Warrior Point Golf Club,"634 Rivers Edge Tr Cordova, AL 35550",AL,35550,205-648-7544,https://www.golfalabama.com/golfcourses/warrior-point-golf-club
West Side Golf,"3501 Cleburn Ave SW Birmingham, AL 35221",AL,35221,205-923-2979,https://www.golfalabama.com/golfcourses/west-side-golf
Whipporwhill Golf Course,"2920 County Hwy 14 Altoona, AL 35952",AL,35952,205-466-7003,https://www.golfalabama.com/golfcourses/whipporwhill-golf-course
Willow Brook Golf Course,"134 Par Dr Albertville, AL 35951",AL,35951,256-878-6766,https://www.golfalabama.com/golfcourses/15975
Willow Oaks Golf Club,"Willow Oaks Dr Ozark, AL 36361",AL,36361,334-774-7388,https://www.golfalabama.com/golfcourses/willow-oaks-golf-club
Willow Point Country Club,"3054 Willow Point Rd Alexander City, AL 35010",AL,35010,256-212-1407,https://www.golfalabama.com/golfcourses/willow-point-country-club
Wills Creek Country Club,"216 Country Club Rd Attalla, AL 35954",AL,35954,256-538-8781,https://www.golfalabama.com/golfcourses/wills-creek-country-club
Woodland Forrest Country Club,"5604 Woodland Forrest Dr Tuscaloosa, AL 35405",AL,35405,205-556-1232,https://www.golfalabama.com/golfcourses/woodland-forrest-country-club
Woodland Golf Course,"Route 7 2341Hine St Athens, AL 35611",AL,35611,256-233-5847,https://www.golfalabama.com/golfcourses/woodland-golf-course
Woodward Golf Club,"2141 Wheel Dr Bessemer, AL 35020",AL,35020,205-424-5500,https://www.golfalabama.com/golfcourses/woodward-golf-club
Wynlakes Golf & Country Club,"7900 Wynlakes Blvd Montgomery, AL 36117",AL,36117,334-279-0297,https://www.golfalabama.com/golfcourses/wynlakes-golf-country-club
Yuchi Reservation,"Hwy 431 S Seale, AL 36875",AL,36875,334-855-3695,https://www.golfalabama.com/golfcourses/yuchi-reservation
Arkadelphia Country Club,"182 Club Dr Arkadelphia, AR 71923",AR,71923,870-246-6642,https://www.arkansasgolf.com/golfcourses/arkadelphia-country-club
Ashdown Golf Club,"Buckwright Rd Ashdown, AR 71822",AR,71822,870-898-5649,https://www.arkansasgolf.com/golfcourses/ashdown-golf-club
Balboa Golf Course,"111 Balboa Way Hot Springs Village, AR 71909",AR,71909,501-922-1540,https://www.arkansasgolf.com/golfcourses/balboa-golf-course
Bald Knob Country Club,"216 Country Club Ln Bald Knob, AR 72010",AR,72010,501-724-3537,https://www.arkansasgolf.com/golfcourses/bald-knob-country-club
Batesville Country Club,"1100 24th St Batesville, AR 72501",AR,72501,870-793-7698,https://www.arkansasgolf.com/golfcourses/batesville-country-club
Batesville Municipal Golf Course,"1850 Chaney Dr Batesville, AR 72501",AR,72501,870-793-9947,https://www.arkansasgolf.com/golfcourses/batesville-municipal-golf-course
Bella Vista - Berksdale,"4 Kingsdale Lane Bella Vista, AR 72714",AR,72714,479-855-5079,https://www.arkansasgolf.com/golfcourses/bella-vista-berksdale
Bella Vista - Brittany,"1 Euston Road Bella Vista, AR 72714",AR,72714,479-855-5079,https://www.arkansasgolf.com/golfcourses/bella-vista-brittany
Bella Vista - Dogwood,"1 Euston Road Bella Vista, AR 72714",AR,72714,479-855-8160,https://www.arkansasgolf.com/golfcourses/bella-vista-dogwood
Bella Vista - Highlands,"1 Pamona Drive Bella Vista, AR 72714",AR,72714,479-855-8150,https://www.arkansasgolf.com/golfcourses/bella-vista-highlands
Bella Vista - Kingswood,"4 Kingsdale Lane Bella Vista, AR 72714",AR,72714,479-855-8123,https://www.arkansasgolf.com/golfcourses/bella-vista-kingswood
Bella Vista - Scotsdale,"10 Scotsdale Lane Bella Vista, AR 72714",AR,72714,479-855-8140,https://www.arkansasgolf.com/golfcourses/bella-vista-scotsdale
Bella Vista Country Club,"98 Clubhouse Drive Bella Vista, AR 72714",AR,72714,479-855-5079,https://www.arkansasgolf.com/golfcourses/1376
Belvedere Country Club,"385 Belvedere Dr Hot Springs National Park, AR 71901",AR,71901,501-623-2305,https://www.arkansasgolf.com/golfcourses/belvedere-country-club
Ben Geren Regional Park Golf Course,"7200 S Zero St Fort Smith, AR 72903",AR,72903,501-646-5301,https://www.arkansasgolf.com/golfcourses/ben-geren-regional-park-golf-course
Beverly Hills Golf Course,"224 County Road 942 Brookland, AR 72417",AR,72417,870-932-3253,https://www.arkansasgolf.com/golfcourses/beverly-hills-golf-course
Big Creek Golf and Country Club,"452 Country Club Dr. Mountain Home, AR 72653",AR,72653,870-425-8815,https://www.arkansasgolf.com/golfcourses/big-creek-golf-cc
Big Lake Country Club,"Hwy 77 N Manila, AR 72442",AR,72442,870-561-9988,https://www.arkansasgolf.com/golfcourses/big-lake-country-club
Big Sugar Golf Club,"12122 E Sugar Creek Rd 4 Pea Ridge, AR 72751",AR,72751,(479),https://www.arkansasgolf.com/golfcourses/big-sugar-golf-club
Blytheville Country Club,"Hwy 61 N Blytheville, AR 72315",AR,72315,870-763-7821,https://www.arkansasgolf.com/golfcourses/blytheville-country-club
Brinkley Country Club,"Hwy 70 W Brinkley, AR 72021",AR,72021,870-734-2967,https://www.arkansasgolf.com/golfcourses/brinkley-country-club
Brush Creek Golf Course,"6220 Har Ber Ave Springdale, AR 72762",AR,72762,501-750-0606,https://www.arkansasgolf.com/golfcourses/brush-creek-golf-course
Bunker Hill Golf Course,"Route 2 Houston, AR 72070",AR,72070,501-759-2714,https://www.arkansasgolf.com/golfcourses/bunker-hill-golf-course
Burns Park Golf Course,"Burns Park North Little Rock, AR 72118",AR,72118,501-758-5800,https://www.arkansasgolf.com/golfcourses/burns-park-golf-course
Cadron Valley Country Club,"3420 Irby Dr Conway, AR 72032",AR,72032,501-327-0013,https://www.arkansasgolf.com/golfcourses/cadron-valley-country-club
Camden Country Club,"1915 W Washington Ave Camden, AR 71701",AR,71701,870-836-8414,https://www.arkansasgolf.com/golfcourses/camden-country-club
Camp Robinson Duffers Club,"Camp Robinson Building 7500 North Little Rock, AR 72118",AR,72118,501-791-8592,https://www.arkansasgolf.com/golfcourses/camp-robinson-duffers-club
Carroll County Country Club,"Hwy 62 W Berryville, AR 72616",AR,72616,870-423-3280,https://www.arkansasgolf.com/golfcourses/carroll-county-country-club
Cedar Ridge Golf Course,"791 Hwy 278 West Monticello, AR 71655",AR,71655,870-460-0300,https://www.arkansasgolf.com/golfcourses/2677
Cedars Country Club,"1301 City Park Rd Van Buren, AR 72957",AR,72957,501-474-2412,https://www.arkansasgolf.com/golfcourses/cedars-country-club
Centennial Valley Golf & Athletic Club,"1600 Centennial Club Dr Conway, AR 72032",AR,72032,501-513-2522,https://www.arkansasgolf.com/golfcourses/centennial-valley-golf-athletic-club
Chamberlyne Country Club,"Hwy 27 Intersection 154 Danville, AR 72833",AR,72833,501-495-4110,https://www.arkansasgolf.com/golfcourses/chamberlyne-country-club
Chenal Country Club,"10 Chenal Club Blvd Little Rock, AR 72223",AR,72223,501-821-4141,https://www.arkansasgolf.com/golfcourses/chenal-country-club
Cherokee Creek Golf Club,"2310 Hwy 10 E Booneville, AR 72927",AR,72927,501-675-5858,https://www.arkansasgolf.com/golfcourses/cherokee-creek-golf-club
Cherokee Village,"5 Laguna Drive Cherokee Village, AR 72525",AR,72525,870-257-3430,https://www.arkansasgolf.com/golfcourses/cherokee-village
Clarksville Country Club,"497 Country Club Rd Clarksville, AR 72830",AR,72830,501-754-3026,https://www.arkansasgolf.com/golfcourses/clarksville-country-club
Conway Country Club,"555 Country Club Rd Conway, AR 23568",AR,23568,501-450-9159,https://www.arkansasgolf.com/golfcourses/conway-country-club
Coronado Golf Course,"199 Surtidor Way Hot Springs Village, AR 71909",AR,71909,501-922-2355,https://www.arkansasgolf.com/golfcourses/16702
Cortez Golf Course,"299 Cortez Road Hot Springs Village, AR 71909",AR,71909,501-922-1590,https://www.arkansasgolf.com/golfcourses/cortez-golf-course
Country Club of Little Rock,"4200 Country Club Blvd Little Rock, AR 72207",AR,72207,501-663-4189,https://www.arkansasgolf.com/golfcourses/country-club-of-little-rock
Cypress Creek Golf Club,"57 GreyStone Blvd Cabot, AR 72023",AR,72023,501-605-8000,https://www.arkansasgolf.com/golfcourses/cypress-creek-golf-club
Dawn Hill Golf & Racquet Club,"Dawn Hill Rd Siloam Springs, AR 72761",AR,72761,800-423-3786,https://www.arkansasgolf.com/golfcourses/dawn-hill-golf-racquet-club
DeGray State Park Golf Course,"Rural Route 3 Bismarck, AR 71929",AR,71929,501-865-2807,https://www.arkansasgolf.com/golfcourses/degray-state-park-golf-course
DeQueen Country Club,"Route 3 Hwy 70-71 De Queen, AR 71832",AR,71832,870-642-8800,https://www.arkansasgolf.com/golfcourses/dequeen-country-club
DeSoto Golf Course,"102 Clubhouse Drive Hot Springs Village, AR 71909",AR,71909,501-922-0001,https://www.arkansasgolf.com/golfcourses/desoto-golf-course
Deer Run Golf Course,"Building 1075 Jacksonville, AR 72099",AR,72099,501-987-6825,https://www.arkansasgolf.com/golfcourses/3998
Deer Trails Golf Course,"Building 3910 Barling, AR 72923",AR,72923,501-478-6971,https://www.arkansasgolf.com/golfcourses/deer-trails-golf-course
Delta Country Club,"Hwy 4 E McGehee, AR 71654",AR,71654,870-222-6622,https://www.arkansasgolf.com/golfcourses/delta-country-club
Diamante Golf Course,"2000 Country Club Dr Hot Springs Village, AR 71909",AR,71909,501-922-4191,https://www.arkansasgolf.com/golfcourses/diamante-golf-course
Diamond Hills Country Club,"Hwy 7 S Diamond City, AR 72630",AR,72630,870-422-7613,https://www.arkansasgolf.com/golfcourses/diamond-hills-country-club
Diamondhead Golf Club,"245 Indpendence Dr Hot Springs, AR 71913",AR,71913,501-262-3734,https://www.arkansasgolf.com/golfcourses/diamondhead-golf-club
Eagle Crest,"3926 Golf Course Dr Alma, AR 72921",AR,72921,479-632-8857,https://www.arkansasgolf.com/golfcourses/eagle-crest
El Dorado Golf & Country Club,"101 Shady Side Dr El Dorado, AR 71730",AR,71730,870-863-7380,https://www.arkansasgolf.com/golfcourses/el-dorado-golf-country-club
Essex Park Golf Course,"121 Essex Park Pl Hot Springs National Park, AR 71901",AR,71901,501-262-0050,https://www.arkansasgolf.com/golfcourses/essex-park-golf-course
Fayetteville Country Club,"3335 Country Club Dr Fayetteville, AR 72701",AR,72701,501-442-5112,https://www.arkansasgolf.com/golfcourses/fayetteville-country-club
Fianna Hills Country Club,"1 Essex Pl Fort Smith, AR 72908",AR,72908,501-646-7861,https://www.arkansasgolf.com/golfcourses/fianna-hills-country-club
Fordyce Country Club,"Route 2 Fordyce, AR 71742",AR,71742,870-352-2264,https://www.arkansasgolf.com/golfcourses/fordyce-country-club
Forrest City Country Club,"922 E Cross St Forrest City, AR 72335",AR,72335,870-633-3380,https://www.arkansasgolf.com/golfcourses/forrest-city-country-club
Fort Smith Country Club,"5500 Midland Blvd Fort Smith, AR 72904",AR,72904,501-783-9308,https://www.arkansasgolf.com/golfcourses/fort-smith-country-club
Fox Hills Country Club,"2005 Country Club Rd Paragould, AR 72450",AR,72450,870-236-7847,https://www.arkansasgolf.com/golfcourses/fox-hills-country-club
Foxwood Country Club,"701 Foxwood Dr Jacksonville, AR 72076",AR,72076,501-982-1254,https://www.arkansasgolf.com/golfcourses/foxwood-country-club
Galla Creek Golf Course,"Hwy 247 S Pottsville, AR 72858",AR,72858,501-890-6653,https://www.arkansasgolf.com/golfcourses/galla-creek-golf-course
Glenwood Country Club,"584 Highway 70E Glenwood, AR 71943",AR,71943,800-833-3110,https://www.arkansasgolf.com/golfcourses/glenwood-country-club
Golf Club at Valley View,"11520 Clubhouse Pkwy Farmington, AR 72730",AR,72730,479-267-1096,https://www.arkansasgolf.com/golfcourses/golf-club-at-valley-view
Golf North Hills,"94 County Road 776 Jonesboro, AR 72401",AR,72401,870-935-1880,https://www.arkansasgolf.com/golfcourses/golf-north-hills
Granada Golf Course,"250 Maderas Drive Hot Springs Village, AR 71909",AR,71909,501-922-3095,https://www.arkansasgolf.com/golfcourses/16695
Grand Prairie Country Club,"Route 1 Country Club Rd Hazen, AR 72064",AR,72064,870-255-3043,https://www.arkansasgolf.com/golfcourses/grand-prairie-country-club
Harbor Oaks Golf Club,"1 Harbor Oaks Dr Pine Bluff, AR 71601",AR,71601,870-541-9010,https://www.arkansasgolf.com/golfcourses/harbor-oaks-golf-club
Hardscrabble Country Club,"5211 S Cliff Dr Fort Smith, AR 72903",AR,72903,501-782-7211,https://www.arkansasgolf.com/golfcourses/hardscrabble-country-club
Harrison Country Club,"N Hwy 62-65 Harrison, AR 72601",AR,72601,870-741-4947,https://www.arkansasgolf.com/golfcourses/harrison-country-club
Hidden Valley Golf Course,"75 CR 3331 - Hasbrook Rd Jonesboro, AR 72401",AR,72401,870-931-5900,https://www.arkansasgolf.com/golfcourses/6696
"Hillhigh Hotel, Spa & Golf Resort","900 S 4th St Horseshoe Bend, AR 72512",AR,72512,870-670-5141,https://www.arkansasgolf.com/golfcourses/hillhigh-hotel-golf-resort
Holiday Island Country Club,"1 Country Club Drive Holiday Island, AR 72631",AR,72631,479-253-9511,https://www.arkansasgolf.com/golfcourses/holiday-island-country-club
Hope Country Club,"3605 Patmos Rd Hope, AR 71801",AR,71801,870-777-8182,https://www.arkansasgolf.com/golfcourses/hope-country-club
Hot Springs Golf & Country Club,"101 Country Club Dr Hot Springs, AR 71901",AR,71901,501-624-2661,https://www.arkansasgolf.com/golfcourses/hot-springs-golf-country-club
Indian Hills Golf Resort,"337 Snead Dr Fairfield Bay, AR 72088",AR,72088,501-884-6018,https://www.arkansasgolf.com/golfcourses/indian-hills-golf-resort
Isabella Golf Course,"110 Iniciador Way Hot Springs Village, AR 71909",AR,71909,501-922-5505,https://www.arkansasgolf.com/golfcourses/isabella-golf-course
Jaycee Golf Course,"Oakland Park Dr Pine Bluff, AR 71601",AR,71601,870-536-5241,https://www.arkansasgolf.com/golfcourses/jaycee-golf-course
Jonesboro Country Club,"1408 E Nettleton Jonesboro, AR 72401",AR,72401,870-932-2410,https://www.arkansasgolf.com/golfcourses/jonesboro-country-club
Lakeside Golf Club,"418 Wilsons Lake Rd Hot Springs National Park, AR 71901",AR,71901,501-262-4346,https://www.arkansasgolf.com/golfcourses/lakeside-golf-club
Lakeview Golf & Country Club,"8500 Castle Valley Rd Mabelvale, AR 72103",AR,72103,501-562-1814,https://www.arkansasgolf.com/golfcourses/lakeview-golf-country-club
Lil bit a Heaven Golf Club,"Route 1 Magazine, AR 72943",AR,72943,501-969-2203,https://www.arkansasgolf.com/golfcourses/lil-bit-a-heaven-golf-club
Links at Bentonville Golf & Country Club,"2101 SE Hilton Head Dr Bentonville, AR 72712",AR,72712,479-271-0163,https://www.arkansasgolf.com/golfcourses/links-at-bentonville-golf-country-club
Links at Jonesboro,"1424 Links Dr Jonesboro, AR 72404",AR,72404,870-932-2578,https://www.arkansasgolf.com/golfcourses/links-at-jonesboro
Links at Sherwood,"3434 E Kiehl Ave Sherwood, AR 72120",AR,72120,501-833-8010,https://www.arkansasgolf.com/golfcourses/links-at-sherwood
Links at Texarkana,"333 Links Dr Texarkana, AR 71854",AR,71854,870-773-6154,https://www.arkansasgolf.com/golfcourses/links-at-texarkana
Lions Club Golf Course,"E Nineteen & N Quaker El Dorado, AR 71730",AR,71730,870-639-3916,https://www.arkansasgolf.com/golfcourses/lions-club-golf-course
Lions Den Golf Club,"11044 Bay Ridge Rd Dardanelle, AR 72834",AR,72834,479-229-4162,https://www.arkansasgolf.com/golfcourses/lions-den-golf-club
Little Creek Recreation Club,"Hwy 22 W Ratcliff, AR 72951",AR,72951,501-635-5551,https://www.arkansasgolf.com/golfcourses/little-creek-recreation-club
Little Rocks Hindman Park Golf Course,"60 Brookview Dr Little Rock, AR 72209",AR,72209,501-565-6450,https://www.arkansasgolf.com/golfcourses/little-rocks-hindman-park-golf-course
Longhills Golf Course,"327 Hwy 5 N Benton, AR 72015",AR,72015,501-316-3000,https://www.arkansasgolf.com/golfcourses/longhills-golf-course
Lost Creek Golf Club,"1104 Industrial Park Rd Heber Springs, AR 72543",AR,72543,501-362-2582,https://www.arkansasgolf.com/golfcourses/lost-creek-golf-club
Lost Mine Golf Course,"County Rd 33 Silver Hill, AR 72650",AR,72650,870-448-3478,https://www.arkansasgolf.com/golfcourses/lost-mine-golf-course
Lost Springs Golf & Athletic Club,"3024 N 22nd St Rogers, AR 72756",AR,72756,501-631-9988,https://www.arkansasgolf.com/golfcourses/lost-springs-golf-athletic-club
Magellan Golf Course,"451 Ponce de Leon Drive Hot Springs Village, AR 71909",AR,71909,501-922-4497,https://www.arkansasgolf.com/golfcourses/magellan-golf-course
Magic Hills Golf Course,"1873 E Grand Ave Hot Springs National Park, AR 71901",AR,71901,501-624-7273,https://www.arkansasgolf.com/golfcourses/magic-hills-golf-course
Magnolia Country Club,"1711 Hwy 79 S Magnolia, AR 71753",AR,71753,870-234-2125,https://www.arkansasgolf.com/golfcourses/magnolia-country-club
Malvern Country Club,"Clear Creek Rd - Rural Route 1 Malvern, AR 72104",AR,72104,501-337-1482,https://www.arkansasgolf.com/golfcourses/malvern-country-club
Marianna Country Club,"Hwy 79 E Marianna, AR 72360",AR,72360,870-295-5270,https://www.arkansasgolf.com/golfcourses/marianna-country-club
Marion Lakes Golf & Athletic Club,"303 Club Circle Marion, AR 72364",AR,72364,870-739-6305,https://www.arkansasgolf.com/golfcourses/marion-lakes-golf-athletic-club
Maumelle Country Club,"100 Club Manor Dr Maumelle, AR 72113",AR,72113,501-851-3700,https://www.arkansasgolf.com/golfcourses/maumelle-country-club
Meadowbrook Country Club,"1250 W Broadway West Memphis, AR 72301",AR,72301,870-735-6767,https://www.arkansasgolf.com/golfcourses/meadowbrook-country-club
Millwood Landing Golf & RV Resort,"596 Hwy 317 Ashdown, AR 71822",AR,71822,870-898-6674,https://www.arkansasgolf.com/golfcourses/millwood-landing-golf-rv-resort
Monticello Country Club,"Hwy 35 Monticello, AR 71655",AR,71655,870-367-0384,https://www.arkansasgolf.com/golfcourses/monticello-country-club
Morrilton Country Club,"Hwy 64 W Morrilton, AR 72110",AR,72110,501-354-0324,https://www.arkansasgolf.com/golfcourses/morrilton-country-club
Mountain Ranch Golf Club,"820 Lost Creek Pkwy Fairfield Bay, AR 72088",AR,72088,501-884-3400,https://www.arkansasgolf.com/golfcourses/mountain-ranch-golf-club
Mystic Creek Golf Club,"191 Club House Drive El Dorado, AR 71730",AR,71730,870-312-0723,https://www.arkansasgolf.com/golfcourses/mystic-creek-golf-club-
Nashville Country Club,"283 Country Club Rd Nashville, AR 71852",AR,71852,870-845-9992,https://www.arkansasgolf.com/golfcourses/nashville-country-club
New Haven Golf Club,"2321 Line Ferry Road Texarkana, AR 71854",AR,71854,870-774-5771,https://www.arkansasgolf.com/golfcourses/new-haven-golf-club
Newport Country Club,"703 Walker Dr Newport, AR 72112",AR,72112,870-523-8904,https://www.arkansasgolf.com/golfcourses/newport-country-club
North Hills Country Club,"7400 Hwy 107 Little Rock, AR 72120",AR,72120,501-835-4959,https://www.arkansasgolf.com/golfcourses/north-hills-cc-ar
Oak Hills Country Club,"Route 1 De Witt, AR 72042",AR,72042,870-946-3891,https://www.arkansasgolf.com/golfcourses/oak-hills-country-club
Oakridge Golf Course,"W Hwy 74 Huntsville, AR 72740",AR,72740,501-738-6401,https://www.arkansasgolf.com/golfcourses/oakridge-golf-course
Ouachita Country Club,"123 Country Club Ln Mena, AR 71953",AR,71953,501-394-5382,https://www.arkansasgolf.com/golfcourses/ouachita-country-club
Paradise Valley,"3728 Old Missouri Rd Fayetteville, AR 72703",AR,72703,501-521-5841,https://www.arkansasgolf.com/golfcourses/paradise-valley
Paragould Country Club,"3300 Pruetts Chapel Rd Paragould, AR 72450",AR,72450,870-239-2328,https://www.arkansasgolf.com/golfcourses/paragould-country-club
Persimmon Ridge Golf Club,"1 Fairway Dr Greenbrier, AR 72058",AR,72058,501-679-5423,https://www.arkansasgolf.com/golfcourses/persimmon-ridge-golf-club
Pine Bluff Country Club,"1100 Country Club Ln Pine Bluff, AR 71603",AR,71603,870-535-3180,https://www.arkansasgolf.com/golfcourses/pine-bluff-country-club
Pine Hills Country Club,"3111 Ouachita #67 Smackover, AR 71762",AR,71762,870-725-2371,https://www.arkansasgolf.com/golfcourses/11133
Pine Hills Golf Course,"Hurple Rd Mountain View, AR 72560",AR,72560,870-269-5777,https://www.arkansasgolf.com/golfcourses/pine-hills-gc
Pine Valley Golf Course,"9311 Tom Box Rd North Little Rock, AR 72120",AR,72120,501-835-3424,https://www.arkansasgolf.com/golfcourses/11233
Pinnacle Country Club,"3 Clubhouse Dr Rogers, AR 72758",AR,72758,501-273-0555,https://www.arkansasgolf.com/golfcourses/pinnacle-country-club
Plantation Golf Club,"938 Hwy 365 Maumelle, AR 72106",AR,72106,501-851-6291,https://www.arkansasgolf.com/golfcourses/plantation-golf-club
Pleasant Valley Country Club,"1 Pleasant Valley Dr Little Rock, AR 72212",AR,72212,501-225-2234,https://www.arkansasgolf.com/golfcourses/11404
Ponce de Leon Golf Course,"300 Ponce de Leon Drive Hot Springs Village, AR 71909",AR,71909,501-922-4250,https://www.arkansasgolf.com/golfcourses/ponce-de-leon-golf-course
Prairie Country Club,"Hwy 52 N Crossett, AR 71635",AR,71635,870-364-2456,https://www.arkansasgolf.com/golfcourses/prairie-country-club
Prairie Creek Country Club,"Hwy 12 E & Country Club Rd Rogers, AR 72757",AR,72757,501-925-2414,https://www.arkansasgolf.com/golfcourses/prairie-creek-country-club
Prescott Country Club,"Hwy 67 N Prescott, AR 71857",AR,71857,870-887-5341,https://www.arkansasgolf.com/golfcourses/prescott-country-club
Razorback Park Golf Course,"2514 W Lori Dr Fayetteville, AR 72704",AR,72704,501-443-5862,https://www.arkansasgolf.com/golfcourses/razorback-park-golf-course
Rebsamen Park Golf Course,"3400 Rebsamen Park Rd Little Rock, AR 72202",AR,72202,501-666-7965,https://www.arkansasgolf.com/golfcourses/rebsamen-park-golf-course
Red Apple Inn & Country Club,"325 Club Dr Heber Springs, AR 72543",AR,72543,501-362-3131,https://www.arkansasgolf.com/golfcourses/red-apple-inn-country-club
Red River Golf Club,"Factory Rd Clinton, AR 72031",AR,72031,501-745-8774,https://www.arkansasgolf.com/golfcourses/red-river-golf-club
RidgePointe Country Club,"2510 RidgePointe Dr Jonesboro, AR 72404",AR,72404,870-931-4114,https://www.arkansasgolf.com/golfcourses/ridgepointe-country-club
River Valley Golf Course,"5829 E Hwy 64 Alma, AR 72921",AR,72921,479-997-1188,https://www.arkansasgolf.com/golfcourses/river-valley-golf-course
Rivercliff Golf Course,"1 Golf Course Dr Bull Shoals, AR 72619",AR,72619,870-445-4800,https://www.arkansasgolf.com/golfcourses/rivercliff-golf-course
Riverlawn Country Club,"Hwy 140 W & Country Club Rd Osceola, AR 72370",AR,72370,870-563-1221,https://www.arkansasgolf.com/golfcourses/riverlawn-country-club
Rock Springs Golf & Athletic Club,"1919 Club Cir Dr Harrison, AR 72601",AR,72601,870-365-3620,https://www.arkansasgolf.com/golfcourses/rock-springs-golf-athletic-club
Rolling Hills Country Club,"2365 Country Club Rd Pocahontas, AR 72455",AR,72455,870-892-3323,https://www.arkansasgolf.com/golfcourses/rolling-hills-country-club
Rosswood Country Club,"7619 Rosswood Rd Pine Bluff, AR 71603",AR,71603,870-535-4100,https://www.arkansasgolf.com/golfcourses/rosswood-country-club
Russellville Country Club,"Hwy 7 N Russellville, AR 72801",AR,72801,501-968-2660,https://www.arkansasgolf.com/golfcourses/russellville-country-club
Sage Meadows Golf Course,"4406 Club House Dr Jonesboro, AR 72401",AR,72401,870-932-4420,https://www.arkansasgolf.com/golfcourses/sage-meadows-golf-course
Searcy Country Club,"Country Club Rd Searcy, AR 72143",AR,72143,501-268-8577,https://www.arkansasgolf.com/golfcourses/searcy-country-club
Sheridan Golf & Country Club,"Rural Route 2 Sheridan, AR 72150",AR,72150,870-942-2688,https://www.arkansasgolf.com/golfcourses/sheridan-golf-country-club
Siloam Springs Country Club,"801 N Country Club Rd Siloam Springs, AR 72761",AR,72761,501-524-4269,https://www.arkansasgolf.com/golfcourses/siloam-springs-country-club
Silver Springs Country Club,"3601 Trace Creek Rd Benton, AR 72015",AR,72015,501-315-1843,https://www.arkansasgolf.com/golfcourses/silver-springs-country-club
Springdale Country Club,"4705 S Thompson Springdale, AR 72764",AR,72764,501-751-5185,https://www.arkansasgolf.com/golfcourses/springdale-country-club
StoneLinks Golf Course,"110 Hwy 391N North Little Rock, AR 72117",AR,72117,501-945-0945,https://www.arkansasgolf.com/golfcourses/stonelinks-golf-course
Stonebridge Meadows Golf Club,"3495 E Goff Farms Rd Fayetteville, AR 72701",AR,72701,479-571-3673,https://www.arkansasgolf.com/golfcourses/stonebridge-meadows-golf-club
Stuttgart Country Club,"Hwy 130 E Stuttgart, AR 72160",AR,72160,870-673-3041,https://www.arkansasgolf.com/golfcourses/stuttgart-country-club
Sugar Creek Country Club,"Country Club Rd Piggott, AR 72454",AR,72454,870-598-3546,https://www.arkansasgolf.com/golfcourses/sugar-creek-country-club
Tannenbaum Golf Club,"5 Kustin Drive Drasco, AR 72530",AR,72530,501-362-5577,https://www.arkansasgolf.com/golfcourses/tannenbaum-golf-club
Texarkana Country Club,"1 Country Club Ln Texarkana, AR 71854",AR,71854,870-772-8221,https://www.arkansasgolf.com/golfcourses/texarkana-country-club
The Alotian Club,"101 Alotian Dr Roland, AR 72135",AR,72135,501-379-2568,https://www.arkansasgolf.com/golfcourses/the-alotian-club
The Country Club of Arkansas,"3 Country Club Ln Maumelle, AR 72113",AR,72113,501-851-0095,https://www.arkansasgolf.com/golfcourses/the-country-club-of-arkansas
The Course at Eagle Mountain,"800 Gap Road Batesville, AR 72501",AR,72501,870-612-8000,https://www.arkansasgolf.com/golfcourses/the-course-at-eagle-mountain
The Course at River Oaks,"1 Golf Course Dr Searcy, AR 72143",AR,72143,501-279-4653,https://www.arkansasgolf.com/golfcourses/the-course-at-river-oaks
The Creeks Public Links,"190 S Hwy 112 Cave Springs, AR 72718",AR,72718,501-248-1000,https://www.arkansasgolf.com/golfcourses/the-creeks-public-links
The First Tee of Arkansas,"1 The First Tee Way Little Rock, AR 72204",AR,72204,501-562-4653,https://www.arkansasgolf.com/golfcourses/the-first-tee-of-arkansas
The Golf Center Texarkana,"3903 E Broad St (Hwy 67) Texarkana, AR 71854",AR,71854,870-774-4653,https://www.arkansasgolf.com/golfcourses/the-golf-center-texarkana
The Links,"5100 S Zero St Fort Smith, AR 72903",AR,72903,501-648-8080,https://www.arkansasgolf.com/golfcourses/the-links
The Links at Lowell,"105A N Dixieland St Lowell, AR 72745",AR,72745,501-770-2100,https://www.arkansasgolf.com/golfcourses/the-links-at-lowell
The Ridges at Village Creek,"4144 Arkansas 284 Wynne, AR 72396",AR,72396,870-238-5226,https://www.arkansasgolf.com/golfcourses/the-ridges-at-village-creek
Three Rivers Country Club,"34441Country Club Rd Marked Tree, AR 72365",AR,72365,870-358-3385,https://www.arkansasgolf.com/golfcourses/three-rivers-country-club
Thunder Bayou Golf Links,"1229 Perimeter Rd Blytheville, AR 72315",AR,72315,870-532-2621,https://www.arkansasgolf.com/golfcourses/thunder-bayou-golf-links
Thunderbird Country Club,"2909 Case Ford Rd Heber Springs, AR 72543",AR,72543,501-362-5200,https://www.arkansasgolf.com/golfcourses/thunderbird-country-club
Trumann Country Club,"30412 Country Club Rd Trumann, AR 72472",AR,72472,870-483-7627,https://www.arkansasgolf.com/golfcourses/trumann-country-club
Turkey Mountain Golf Course,"3 Club Rd Horseshoe Bend, AR 72512",AR,72512,870-670-5252,https://www.arkansasgolf.com/golfcourses/turkey-mountain-golf-course
Twin Lakes Golf Club,"70 Elk Way Mountain Home, AR 72653",AR,72653,870-425-2028,https://www.arkansasgolf.com/golfcourses/14999
Unity Road Golf,"Hwy 82 E Crossett, AR 71635",AR,71635,870-853-2113,https://www.arkansasgolf.com/golfcourses/unity-road-golf
Vache Grasse Country Club,"E Hwy 10 Country Club Rd Greenwood, AR 72936",AR,72936,501-996-4191,https://www.arkansasgolf.com/golfcourses/vache-grasse-country-club
Victory Lake Golf Course,"536 E Elm St Corning, AR 72422",AR,72422,870-857-6378,https://www.arkansasgolf.com/golfcourses/victory-lake-golf-course
Village Creek Golf Club,"Old Hwy 14 Newport, AR 72112",AR,72112,870-523-9676,https://www.arkansasgolf.com/golfcourses/village-creek-golf-club
Waldron Country Club,"City Lake Rd Waldron, AR 72958",AR,72958,501-637-4374,https://www.arkansasgolf.com/golfcourses/waldron-country-club
Walnut Lake Country Club,"1 Railroad Pickens, AR 71662",AR,71662,870-382-4388,https://www.arkansasgolf.com/golfcourses/walnut-lake-country-club
Walnut Ridge Golf & Country Club,"249 Lawrence 408 Walnut Ridge, AR 72476",AR,72476,870-886-9816,https://www.arkansasgolf.com/golfcourses/walnut-ridge-golf-country-club
War Memorial Park Golf Course,"5511 W Markham St Little Rock, AR 72205",AR,72205,501-663-0854,https://www.arkansasgolf.com/golfcourses/war-memorial-park-golf-course
West Helena Municipal Golf Course,"728 Beachwood Dr West Helena, AR 72390",AR,72390,870-572-2877,https://www.arkansasgolf.com/golfcourses/west-helena-municipal-golf-course
Western Hills Country Club,"5207 Western Hills Ave Little Rock, AR 72204",AR,72204,501-565-5830,https://www.arkansasgolf.com/golfcourses/western-hills-country-club
500 Club,"4707 W Pinnacle Peak Rd Phoenix, AZ 85310",AZ,85310,623-492-9500,https://www.arizonagolfer.com/golfcourses/500-club
ASU Karsten Golf Course,"1125 E Rio Salado Pkwy Tempe, AZ 85281",AZ,85281,480-921-8070,https://www.arizonagolfer.com/golfcourses/asu-karsten-golf-course
Adobe Dam Family Golf Center,"3847 W. Pinnacle Peak Rd. Glendale, AZ 85310",AZ,85310,623-581-2800,https://www.arizonagolfer.com/golfcourses/adobe-dam-family-golf-center
Aguila Golf Course,"8440 S 35th Ave Laveen, AZ 85339",AZ,85339,602-237-9601,https://www.arizonagolfer.com/golfcourses/aguila-golf-course
Ahwatukee Country Club,"12432 S 48th St Phoenix, AZ 85044",AZ,85044,480-893-1161,https://www.arizonagolfer.com/golfcourses/ahwatukee-country-club
Ahwatukee Lakes Golf Club,"13431 S 44th St Phoenix, AZ 85044",AZ,85044,480-893-3004,https://www.arizonagolfer.com/golfcourses/ahwatukee-lakes-golf-club
Ak-Chin Southern Dunes Golf Club,"48456 West Highway 238 Maricopa, AZ 85239",AZ,85239,480-367-8949,https://www.arizonagolfer.com/golfcourses/ak-chin-southern-dunes-golf-club
Alpine Country Club,"100 Country Club Lane Alpine, AZ 85920",AZ,85920,928-339-4944,https://www.arizonagolfer.com/golfcourses/alpine-country-club
Alta Mesa Golf Club,"1460 N Alta Mesa Dr Mesa, AZ 85205",AZ,85205,480-827-9411,https://www.arizonagolfer.com/golfcourses/alta-mesa-golf-club
Ancala Country Club,"11700 E Via Linda St Scottsdale, AZ 85259",AZ,85259,480-391-2777,https://www.arizonagolfer.com/golfcourses/ancala-country-club
Antelope Hills Golf Course,"1 Perkins Dr Prescott, AZ 86301",AZ,86301,520-776-7888,https://www.arizonagolfer.com/golfcourses/antelope-hills-golf-course
Anthem Golf & Country Club,"2708 W. Anthem Club Dr. Anthem, AZ 85086",AZ,85086,623-742-6202,https://www.arizonagolfer.com/golfcourses/anthem-golf-country-club
Apache Creek Golf Club,"3401 S Ironwood Drive Apache Junction, AZ 85220",AZ,85220,480-982-2677,https://www.arizonagolfer.com/golfcourses/apache-creek-golf-club
Apache Stronghold Golf Course,"Hwy 70, 5 miles east of Globe San Carlos, AZ 85550",AZ,85550,928-475-7664,https://www.arizonagolfer.com/golfcourses/apache-stronghold-golf-course
Apache Sun Golf Club,"919 E Pima Rd Queen Creek, AZ 85242",AZ,85242,480-987-9065,https://www.arizonagolfer.com/golfcourses/apache-sun-golf-club
Apache Wells Country Club,"5601 E Hermosa Vista Dr Mesa, AZ 85215",AZ,85215,480-830-4725,https://www.arizonagolfer.com/golfcourses/apache-wells-country-club
Arizona Biltmore Country Club,"2400 E Missouri Ave Phoenix, AZ 85016",AZ,85016,602-955-9655,https://www.arizonagolfer.com/golfcourses/arizona-biltmore-country-club
Arizona City Golf Club,"13939 E Cleator Rd Arizona City, AZ 85223",AZ,85223,520-466-5327,https://www.arizonagolfer.com/golfcourses/arizona-city-golf-club
Arizona Country Club,"5668 E Orange Blossom Ln Phoenix, AZ 85018",AZ,85018,480-946-4565,https://www.arizonagolfer.com/golfcourses/arizona-country-club
Arizona Golf Resort,"425 S Power Rd Mesa, AZ 85206",AZ,85206,480-832-1661,https://www.arizonagolfer.com/golfcourses/arizona-golf-resort
Arizona Grand Golf Course,"8000 S Pointe Pkwy Phoenix, AZ 85044",AZ,85044,602-431-6480,https://www.arizonagolfer.com/golfcourses/arizona-grand-golf-course
Arizona National Golf Club,"9777 E Sabino Greens Dr Tucson, AZ 85749",AZ,85749,520-749-3636,https://www.arizonagolfer.com/golfcourses/arizona-national-golf-club
Arizona Traditions Golf Club,"17225 N Citrus Dr Surprise, AZ 85374",AZ,85374,623-584-4000,https://www.arizonagolfer.com/golfcourses/arizona-traditions-golf-club
Arrowhead Country Club,"19888 N 73rd Ave Glendale, AZ 85308",AZ,85308,623-561-9625,https://www.arizonagolfer.com/golfcourses/878
Arroyo Dunes Golf Course,"1201 W 32nd St Yuma, AZ 85364",AZ,85364,928-726-8350,https://www.arizonagolfer.com/golfcourses/arroyo-dunes-golf-course
Aspen Valley Golf Club,"1855 Continental Dr Flagstaff, AZ 86004",AZ,86004,520-527-4653,https://www.arizonagolfer.com/golfcourses/aspen-valley-golf-club
Augusta Ranch Golf Club,"2401 South Lansing Mesa, AZ 85209",AZ,85209,480-354-1234,https://www.arizonagolfer.com/golfcourses/augusta-ranch-golf-club
Bear Creek Golf Complex,"500 E. Riggs Rd Chandler, AZ 85249",AZ,85249,480-883-8200,https://www.arizonagolfer.com/golfcourses/bear-creek-golf-complex
Beaver Creek Golf Resort,"4105 E Lake Shore Dr. Rimrock, AZ 86335",AZ,86335,520-567-4487,https://www.arizonagolfer.com/golfcourses/beaver-creek-golf-resort
Bellair Golf Course,"17233 N 45th Ave Glendale, AZ 85308",AZ,85308,602-978-0330,https://www.arizonagolfer.com/golfcourses/bellair-golf-course
Bison Golf Club,"860 N. 36th Drive Show Low, AZ 85901",AZ,85901,928-537-4564,https://www.arizonagolfer.com/golfcourses/bison-golf-club
Blackstone Country Club,"12026 W Lone Mountain Pkwy Peoria, AZ 85383",AZ,85383,623-707-8700,https://www.arizonagolfer.com/golfcourses/blackstone-country-club
Boulders Golf Club,"34636 N Tom Darlington Carefree, AZ 85377",AZ,85377,480-488-9028,https://www.arizonagolfer.com/golfcourses/boulders-golf-club
Briarwood Country Club,"20800 N 135th Ave Sun City West, AZ 85375",AZ,85375,623-584-5600,https://www.arizonagolfer.com/golfcourses/1998
Bridgewater Links Golf Course,"1477 Queens Bay Rd Lake Havasu City, AZ 86403",AZ,86403,520-855-4777,https://www.arizonagolfer.com/golfcourses/bridgewater-links-golf-course
Butterfield Golf Course,"10231 Dome St Wellton, AZ 85356",AZ,85356,928-785-4834,https://www.arizonagolfer.com/golfcourses/butterfield-golf-course
Canoa Hills Golf Course,"1401 W Calle Urbano Green Valley, AZ 85614",AZ,85614,520-648-1880,https://www.arizonagolfer.com/golfcourses/canoa-hills-golf-course
Canoa Ranch Golf Club,"5800 S Camino Del Sol Green Valley, AZ 85614",AZ,85614,520-393-1966,https://www.arizonagolfer.com/golfcourses/canoa-ranch-golf-club
Canyon Mesa Country Club,"500 Jacks Canyon Rd Sedona, AZ 86351",AZ,86351,520-284-0036,https://www.arizonagolfer.com/golfcourses/canyon-mesa-country-club
Cave Creek Golf Course,"15202 N 19th Ave Phoenix, AZ 85023",AZ,85023,602-866-8076,https://www.arizonagolfer.com/golfcourses/cave-creek-golf-course
Cerbat Cliffs Golf Course,"1001 Gates Ave. Kingman, AZ 86401",AZ,86401,928-753-6593,https://www.arizonagolfer.com/golfcourses/cerbat-cliffs-golf-course
Chaparral Country Club,"1260 E Mohave Dr Bullhead City, AZ 86442",AZ,86442,928-758-3939,https://www.arizonagolfer.com/golfcourses/chaparral-country-club
Club West Golf Club,"16400 S 14th Ave Phoenix, AZ 85045",AZ,85045,480-460-4400,https://www.arizonagolfer.com/golfcourses/club-west-golf-club
Cobre Valley Country Club,"Apache Trail & I-60 Globe, AZ 85501",AZ,85501,928-473-2542,https://www.arizonagolfer.com/golfcourses/cobre-valley-country-club
Cocopah Golf Resort,"6800 S Strand Ave Yuma, AZ 85364",AZ,85364,928-343-1663,https://www.arizonagolfer.com/golfcourses/cocopah-golf-resort
Coldwater Golf Club,"100 N Clubhouse Drive Avondale, AZ 85323",AZ,85323,623-932-9000,https://www.arizonagolfer.com/golfcourses/coldwater-golf-club
Concho Valley Country Club,"Hwy 61 Concho, AZ 85924",AZ,85924,928-337-4644,https://www.arizonagolfer.com/golfcourses/concho-valley-country-club
Continental Country Club,"2380 N Oakmont Dr Flagstaff, AZ 86004",AZ,86004,928-527-7997,https://www.arizonagolfer.com/golfcourses/4615
Continental Golf Course,"7920 E Osborn Rd Scottsdale, AZ 85251",AZ,85251,480-941-1585,https://www.arizonagolfer.com/golfcourses/continental-golf-course
Copper Canyon Golf Club,"26577 West Desert Vista Blvd. Buckeye, AZ 85396",AZ,85396,928-252-6783,https://www.arizonagolfer.com/golfcourses/copper-canyon-golf-club
Coronado Golf Course,"2829 N Miller Rd Scottsdale, AZ 85257",AZ,85257,480-947-8364,https://www.arizonagolfer.com/golfcourses/coronado-golf-course
Corte Bella Golf Club,"22129 N. Mission Drive Sun City West, AZ 85375",AZ,85375,623-556-8951,https://www.arizonagolfer.com/golfcourses/corte-bella-golf-club
Cottonwood Country Club,"25630 Brentwood Dr Sun Lakes, AZ 85248",AZ,85248,480-895-9660,https://www.arizonagolfer.com/golfcourses/cottonwood-country-club
Country Club at DC Ranch,"9290 E Thompson Peak Pkwy Scottsdale, AZ 85255",AZ,85255,480-342-7200,https://www.arizonagolfer.com/golfcourses/country-club-at-dc-ranch
Country Club of Green Valley,"77 E Paseo de Golf Green Valley, AZ 85614",AZ,85614,520-625-8831,https://www.arizonagolfer.com/golfcourses/country-club-of-green-valley
Coyote Lakes Golf Club,"18800 N Coyote Lakes Pkwy Surprise, AZ 85374",AZ,85374,623-566-2323,https://www.arizonagolfer.com/golfcourses/coyote-lakes-golf-club
Crooked Tree Golf Course,"9101 N Thornydale Rd Tucson, AZ 85742",AZ,85742,520-744-3322,https://www.arizonagolfer.com/golfcourses/crooked-tree-golf-course
Cypress Golf Course,"10801 E McDowell Rd Scottsdale, AZ 85256",AZ,85256,480-946-5155,https://www.arizonagolfer.com/golfcourses/cypress-golf-course-
Dave White Municipal Golf Course,"2121 N Thornton Rd Casa Grande, AZ 85222",AZ,85222,520-836-9216,https://www.arizonagolfer.com/golfcourses/dave-white-municipal-golf-course
Deer Valley Golf Course,"13975 W Deer Valley Dr Sun City West, AZ 85375",AZ,85375,623-544-6016,https://www.arizonagolfer.com/golfcourses/4020
Del Lago Golf Club,"14155 E Via Rancho del Lago Vail, AZ 85641",AZ,85641,520-647-1100,https://www.arizonagolfer.com/golfcourses/del-lago-golf-club
Dell Urich Golf Course,"600 S. Alvernon Way Tucson, AZ 85716",AZ,85716,520-791-4161,https://www.arizonagolfer.com/golfcourses/dell-urich-golf-course
Desert Canyon Golf Club,"10440 N. Indian Wells Drive Fountain Hills, AZ 85268",AZ,85268,480-837-1173,https://www.arizonagolfer.com/golfcourses/desert-canyon-golf-club
Desert Forest Golf Club,"37207 N Mule Train Rd Carefree, AZ 85377",AZ,85377,480-488-3527,https://www.arizonagolfer.com/golfcourses/desert-forest-golf-club
Desert Highlands Golf Club,"10040 E Happy Valley Rd Scottsdale, AZ 85255",AZ,85255,480-585-8521,https://www.arizonagolfer.com/golfcourses/desert-highlands-golf-club
Desert Hills Golf Club,"2500 S Circulo de Las Lomas Green Valley, AZ 85614",AZ,85614,520-648-1668,https://www.arizonagolfer.com/golfcourses/desert-hills-golf-club
Desert Hills Municipal Golf Course,"1245 W Desert Hills Dr Yuma, AZ 85365",AZ,85365,928-344-4653,https://www.arizonagolfer.com/golfcourses/desert-hills-municipal-golf-course
Desert Lakes Golf Club,"5835 Desert Lakes Dr Bullhead City, AZ 86426",AZ,86426,928-768-1000,https://www.arizonagolfer.com/golfcourses/desert-lakes-golf-club
Desert Mirage Golf Course,"8710 W Maryland Glendale, AZ 85305",AZ,85305,623-772-0110,https://www.arizonagolfer.com/golfcourses/desert-mirage-golf-course
Desert Mountain Golf Club,"10333 E Rockaway Hills Dr Scottsdale, AZ 85262",AZ,85262,480-488-1362,https://www.arizonagolfer.com/golfcourses/desert-mountain-golf-club
Desert Sands Golf Course,"1922 S 74th St Mesa, AZ 85209",AZ,85209,480-832-0210,https://www.arizonagolfer.com/golfcourses/desert-sands-golf-course
Desert Springs Golf Club,"19900 N Remington Surprise, AZ 85374",AZ,85374,623-546-7400,https://www.arizonagolfer.com/golfcourses/desert-springs-golf-club
Desert Trails Golf Course,"22525 N Executive Way Sun City West, AZ 85375",AZ,85375,623-546-2579,https://www.arizonagolfer.com/golfcourses/desert-trails-golf-course
Dobson Ranch Golf Course,"2155 S Dobson Rd Mesa, AZ 85202",AZ,85202,480-644-2291,https://www.arizonagolfer.com/golfcourses/dobson-ranch-golf-course
Dorado Country Club,"1200 N Dorado Club Dr Tucson, AZ 85715",AZ,85715,520-885-6751,https://www.arizonagolfer.com/golfcourses/dorado-country-club
Douglas Golf Course,"1372 East Fairway Drive Douglas, AZ 85607",AZ,85607,520-364-1588,https://www.arizonagolfer.com/golfcourses/douglas-golf-course
Dove Valley Ranch Golf Club,"33750 North Dove Lakes Drive Cave Creek, AZ 85331",AZ,85331,480-488-0009,https://www.arizonagolfer.com/golfcourses/dove-valley-ranch-golf-club
Eagle Mountain Golf Club,"14915 E Eagle Mountain Pkwy Fountain Hills, AZ 85268",AZ,85268,480-816-1234,https://www.arizonagolfer.com/golfcourses/eagle-mountain-golf-club
El Caro Golf Club,"2222 W. Royal Palm Road Phoenix, AZ 85021",AZ,85021,602,https://www.arizonagolfer.com/golfcourses/el-caro-golf-club
El Conquistador - Conquistador Course,"10555 N La Canada Dr Tucson, AZ 85737",AZ,85737,520-544-1800,https://www.arizonagolfer.com/golfcourses/el-conquistador-conquistador-course
El Rio Golf Course,"1400 W Speedway Blvd Tucson, AZ 85745",AZ,85745,520-791-4229,https://www.arizonagolfer.com/golfcourses/el-rio-golf-course
El Rio Golf and Country Club,"1 Paseo El Rio Mohave Valley, AZ 86440",AZ,86440,928-577-0123,https://www.arizonagolfer.com/golfcourses/el-rio-golf-and-country-club
Elephant Rocks Golf Course,"2200 Country Club Dr Williams, AZ 86046",AZ,86046,928-635-4935,https://www.arizonagolfer.com/golfcourses/elephant-rocks-golf-course
Emerald Canyon Golf Course,"7351 Riverside Dr. Parker, AZ 85344",AZ,85344,928-667-3366,https://www.arizonagolfer.com/golfcourses/emerald-canyon-golf-course
Encanterra Country Club,"36460 N. Encanterra Drive San Tan Valley, AZ 85140",AZ,85140,480-677-8148,https://www.arizonagolfer.com/golfcourses/encanterra-country-club
Encanto Golf Course,"2745 N. 15th Avenue Phoenix, AZ 85007",AZ,85007,602-253-3963,https://www.arizonagolfer.com/golfcourses/encanto-golf-course
Estrella Mountain Golf Course,"15205 W. Vineyard Ave Goodyear, AZ 85338",AZ,85338,623-932-3714,https://www.arizonagolfer.com/golfcourses/estrella-mountain-golf-course
Falcon Dunes Golf Course,"15100 W Nern Ave Waddell, AZ 85355",AZ,85355,623-535-8355,https://www.arizonagolfer.com/golfcourses/falcon-dunes-golf-course
Falcon Golf Club,"15152 W Camelback Rd Litchfield Park, AZ 85340",AZ,85340,623-935-7800,https://www.arizonagolfer.com/golfcourses/falcon-golf-club
Fiesta Lakes Golf Club,"1415 S Westwood Mesa, AZ 85210",AZ,85210,480-969-0377,https://www.arizonagolfer.com/golfcourses/fiesta-lakes-golf-club
FireRock Country Club,"16000 East FireRock Country Club Drive Fountain Hills, AZ 85268",AZ,85268,480-836-8100,https://www.arizonagolfer.com/golfcourses/firerock-country-club
Flagstaff Ranch Golf Club,"3605 South Flagstaff Ranch Rd Flagstaff, AZ 86001",AZ,86001,928-214-0677,https://www.arizonagolfer.com/golfcourses/flagstaff-ranch-golf-club
Foothills Golf Club,"2201 E Clubhouse Dr Phoenix, AZ 85048",AZ,85048,480-460-4653,https://www.arizonagolfer.com/golfcourses/5129
Foothills Golf Course,"14200 E. County 14th Street Yuma, AZ 85367",AZ,85367,928-305-6252,https://www.arizonagolfer.com/golfcourses/foothills-golf-course
Forest Highlands Golf Club,"657 Forest Highlands Flagstaff, AZ 86001",AZ,86001,928-525-9000,https://www.arizonagolfer.com/golfcourses/forest-highlands-golf-club
Fortuna Del Rey Golf Course,"13650 N Frontage Rd Yuma, AZ 85367",AZ,85367,928-342-4766,https://www.arizonagolfer.com/golfcourses/fortuna-del-rey-golf-course
Forty Niner Country Club,"12000 E Tanque Verde Rd Tucson, AZ 85749",AZ,85749,520-749-4925,https://www.arizonagolfer.com/golfcourses/forty-niner-country-club
Fountain of the Sun Country Club,"500 S 80th St Mesa, AZ 85208",AZ,85208,480-986-3128,https://www.arizonagolfer.com/golfcourses/fountain-of-the-sun-country-club
Francisco Grande Hotel & Golf Resort,"12684 W. Gila Bend Highway Casa Grande, AZ 85122",AZ,85122,520-836-6444,https://www.arizonagolfer.com/golfcourses/francisco-grande-hotel-golf-resort
Fred Enke Golf Course,"8251 E Irvington Rd Tucson, AZ 85730",AZ,85730,520-791-2539,https://www.arizonagolfer.com/golfcourses/fred-enke-golf-course
Gainey Ranch Golf Club,"7600 Gainey Club Dr Scottsdale, AZ 85258",AZ,85258,480-951-0022,https://www.arizonagolfer.com/golfcourses/gainey-ranch-golf-club
Glen Lakes Golf Course,"5450 W Northern Ave Glendale, AZ 85301",AZ,85301,623-939-7541,https://www.arizonagolfer.com/golfcourses/glen-lakes-golf-course
Gold Canyon Golf Resort,"6100 S Kings Ranch Rd Gold Canyon, AZ 85219",AZ,85219,480-982-9449,https://www.arizonagolfer.com/golfcourses/gold-canyon-golf-resort
Golf Club at Vistoso,"955 W Vistoso Highlands Dr Tucson, AZ 85737",AZ,85737,520-797-7900,https://www.arizonagolfer.com/golfcourses/golf-club-at-vistoso
Golf Club of Estrella,"11800 S Golf Club Dr Goodyear, AZ 85338",AZ,85338,623-386-2600,https://www.arizonagolfer.com/golfcourses/golf-club-of-estrella
Grand Canyon University Golf Course,"5902 W Indian School Rd Phoenix, AZ 85033",AZ,85033,623-846-4022,https://www.arizonagolfer.com/golfcourses/grand-canyon-university-golf-course
Grandview Golf Course,"14260 W Meeker Blvd Sun City West, AZ 85375",AZ,85375,623-544-6013,https://www.arizonagolfer.com/golfcourses/5937
Granite Falls Golf Club,"15949 W Clearview Blvd Surprise, AZ 85374",AZ,85374,623-546-7575,https://www.arizonagolfer.com/golfcourses/granite-falls-golf-club
Grayhawk Golf Club,"8620 E Thompson Peak Pkwy Scottsdale, AZ 85255",AZ,85255,480-502-1800,https://www.arizonagolfer.com/golfcourses/grayhawk-golf-club
Great Eagle Golf Club,"17200 W Bell Rd Surprise, AZ 85374",AZ,85374,623-584-6000,https://www.arizonagolfer.com/golfcourses/great-eagle-golf-club
Greenfield Lakes Golf Course,"2484 E Warner Rd Gilbert, AZ 85296",AZ,85296,480-503-0500,https://www.arizonagolfer.com/golfcourses/greenfield-lakes-golf-course
Greenlee Country Club,"Hwy 75 Duncan, AZ 85534",AZ,85534,928-687-1099,https://www.arizonagolfer.com/golfcourses/greenlee-country-club
Hamilton Ranch Golf Resort,"Hwy 91 Beaver Dam, AZ 86432",AZ,86432,520-347-5111,https://www.arizonagolfer.com/golfcourses/hamilton-ranch-golf-resort
Hassayampa Golf Club,"2060 Golf Club Lane Prescott, AZ 86303",AZ,86303,928-443-1958,https://www.arizonagolfer.com/golfcourses/hassayampa-golf-club
Haven Golf Course,"110 N Abrego Dr Green Valley, AZ 85614",AZ,85614,520-625-4281,https://www.arizonagolfer.com/golfcourses/haven-golf-course
Hayden Golf Club,"125 Golf Course Rd Hayden, AZ 85235",AZ,85235,520-356-7801,https://www.arizonagolfer.com/golfcourses/hayden-golf-club
Heritage Highlands at Dove Mountain,"4949 W Heritage Club Blvd. Marana, AZ 85658",AZ,85658,520-579-7000,https://www.arizonagolfer.com/golfcourses/heritage-highlands-at-dove-mountain
Hidden Cove Golf Course,"Golf Course Rd Holbrook, AZ 86025",AZ,86025,520-524-3097,https://www.arizonagolfer.com/golfcourses/hidden-cove-golf-course
Hillcrest Golf Club,"20002 N Star Ridge Dr Sun City West, AZ 85375",AZ,85375,623-584-1500,https://www.arizonagolfer.com/golfcourses/6854
Huukan Golf Club,"5835 Desert Lakes Drive Fort Mohave, AZ 86426",AZ,86426,928-768-1000,https://www.arizonagolfer.com/golfcourses/huukan-golf-club
Ironwood Country Club,"550 W Champagne Dr Chandler, AZ 85248",AZ,85248,480-895-0614,https://www.arizonagolfer.com/golfcourses/ironwood-country-club
Ironwood Golf Course,"2945 W 8th St Yuma, AZ 85364",AZ,85364,555-555-5555,https://www.arizonagolfer.com/golfcourses/7385
JW Marriott Phoenix Desert Ridge Resort & Spa - Wildfire,"5350 E Marriott Dr Phoenix, AZ 85054",AZ,85054,480-473-0205,https://www.arizonagolfer.com/golfcourses/desert-ridge
JW Marriott Scottsdale Camelback Inn Resort & Spa - Ambiente,"7847 N Mockingbird Lane Scottsdale, AZ 85253",AZ,85253,480-596-7050,https://www.arizonagolfer.com/golfcourses/camelback-inn-ambiente-course
JW Marriott Scottsdale Camelback Inn Resort & Spa - Padre,"7847 N Mockingbird Ln Scottsdale, AZ 85253",AZ,85253,480-596-7050,https://www.arizonagolfer.com/golfcourses/camelback-inn-padre-course
JW Marriott Tucson Starr Pass Resort & Spa,"3645 W Starr Pass Blvd Tucson, AZ 85745",AZ,85745,520-670-0400,https://www.arizonagolfer.com/golfcourses/tucson-starr-pass
Kearny Golf Course,"301 Airport Rd Kearny, AZ 85237",AZ,85237,520-363-7441,https://www.arizonagolfer.com/golfcourses/kearny-golf-course
Ken McDonald Golf Course,"800 E Divot Dr #A Tempe, AZ 85283",AZ,85283,480-350-5250,https://www.arizonagolfer.com/golfcourses/ken-mcdonald-golf-course
Kino Springs Golf Course,"187 Kino Springs Dr Nogales, AZ 85621",AZ,85621,520-287-8701,https://www.arizonagolfer.com/golfcourses/kino-springs-golf-course
Kokopelli Golf Club,"1800 W Guadalupe Road Gilbert, AZ 85233",AZ,85233,480-926-3589,https://www.arizonagolfer.com/golfcourses/kokopelli-golf-club
La Paloma Country Club,"3660 E Sunrise Dr Tucson, AZ 85718",AZ,85718,520-299-1500,https://www.arizonagolfer.com/golfcourses/la-paloma-country-club
Lake Havasu Golf Club,"400 Clubhouse Drive Lake Havasu City, AZ 86403",AZ,86403,928-855-2719,https://www.arizonagolfer.com/golfcourses/lake-havasu-golf-club
Lake Powell National Golf Course,"400 Clubhouse Dr Page, AZ 86040",AZ,86040,928-645-2023,https://www.arizonagolfer.com/golfcourses/lake-powell-national-golf-course
Las Barrancas Golf Course,"14076 E. 48th Street Yuma, AZ 85367",AZ,85367,928-342-7130,https://www.arizonagolfer.com/golfcourses/las-barrancas-golf-course
Las Colinas Golf Course,"21515 E Loop Rd Queen Creek, AZ 85242",AZ,85242,480-987-3633,https://www.arizonagolfer.com/golfcourses/las-colinas-golf-course
Las Sendas Golf Club,"7555 E Eagle Crest Dr Mesa, AZ 85207",AZ,85207,480-396-4000,https://www.arizonagolfer.com/golfcourses/las-sendas-golf-club
Laughlin Ranch Golf Club,"1360 William Hardy Bullhead City, AZ 86429",AZ,86429,928-754-1243,https://www.arizonagolfer.com/golfcourses/laughlin-ranch
Legacy Golf Club,"6808 S 32nd St Phoenix, AZ 85042",AZ,85042,602-305-5550,https://www.arizonagolfer.com/golfcourses/8328
Legend Trail Golf Club,"9462 Legendery Ln Scottsdale, AZ 85262",AZ,85262,480-488-7434,https://www.arizonagolfer.com/golfcourses/legend-trail-golf-club
Legend at Arrowhead,"21025 N 67th Ave Glendale, AZ 85308",AZ,85308,623-561-1902,https://www.arizonagolfer.com/golfcourses/legend-at-arrowhead
Leisure World Country Club,"908 S Power Rd Mesa, AZ 85206",AZ,85206,480-832-0003,https://www.arizonagolfer.com/golfcourses/leisure-world-country-club
Lone Tree Golf Club,"6262 S Mountain Blvd Chandler, AZ 85249",AZ,85249,480-219-0830,https://www.arizonagolfer.com/golfcourses/lone-tree-golf-club
Longbow Golf Club,"5601 East Longbow Parkway Mesa, AZ 85215",AZ,85215,480-807-5400,https://www.arizonagolfer.com/golfcourses/longbow-golf-club
Lookout Mountain Golf Club,"11111 N 7th St Phoenix, AZ 85020",AZ,85020,602-866-6356,https://www.arizonagolfer.com/golfcourses/lookout-mountain
Los Caballeros Golf Club,"1551 S Vulture Mine Rd Wickenburg, AZ 85390",AZ,85390,928-684-2704,https://www.arizonagolfer.com/golfcourses/los-caballeros-golf-club
Los Lagos Golf Club,"6365 S. Entrada Via Verdes Mohave Valley, AZ 86440",AZ,86440,928-768-7778,https://www.arizonagolfer.com/golfcourses/16500
McCormick Ranch Golf Club,"7505 E McCormick Pkwy Scottsdale, AZ 85258",AZ,85258,480-948-0260,https://www.arizonagolfer.com/golfcourses/mccormick-ranch-golf-club
McDowell Mountain Golf Club,"10690 East Sheena Drive Scottsdale, AZ 85260",AZ,85260,480-502-8200,https://www.arizonagolfer.com/golfcourses/mcdowell-mountain-golf-club
Mesa Country Club,"660 W Fairway Drive Mesa, AZ 85201",AZ,85201,480-397-9000,https://www.arizonagolfer.com/golfcourses/mesa-country-club
Mesa Family Golf Center,"3252 E McKellips Rd Mesa, AZ 85213",AZ,85213,480-924-1350,https://www.arizonagolfer.com/golfcourses/mesa-family-golf-center
Mesa View Golf Course,"4 Ash St Baghdad, AZ 86321",AZ,86321,520-633-2818,https://www.arizonagolfer.com/golfcourses/mesa-view-golf-course
Mesa del Sol Golf Club,"12213 Calle Del Cid Yuma, AZ 85367",AZ,85367,928-342-1283,https://www.arizonagolfer.com/golfcourses/mesa-del-sol-golf-club
Mirabel Golf Club,"37401 North Mirabel Club Drive Scottsdale, AZ 85262",AZ,85262,480-595-2545,https://www.arizonagolfer.com/golfcourses/mirabel-golf-club
Mission Royale Golf Club,"11 S. Mission Parkway Casa Grande, AZ 85194",AZ,85194,520-876-5335,https://www.arizonagolfer.com/golfcourses/Mission-royale-golf-club
Moon Valley Country Club,"151 W Moon Valley Dr Phoenix, AZ 85023",AZ,85023,602-942-1278,https://www.arizonagolfer.com/golfcourses/moon-valley-country-club
Mount Graham Golf Course,"4250 W. Golf Course Road Thatcher, AZ 85552",AZ,85552,928-348-3140,https://www.arizonagolfer.com/golfcourses/mount-graham-golf-course
Mountain Brook Golf Club,"5783 S MountainBrook Dr Gold Canyon, AZ 85219",AZ,85219,480-671-1000,https://www.arizonagolfer.com/golfcourses/mountain-brook-golf-club
Mountain Shadows Golf Club,"5517 E. Lincoln Drive Paradise Valley, AZ 85253",AZ,85253,480-905-8999,https://www.arizonagolfer.com/golfcourses/mountain-shadows-golf-club
Mountain View Golf Course,"15479 Wilcox St Fort Huachuca, AZ 85613",AZ,85613,520-533-7088,https://www.arizonagolfer.com/golfcourses/9728
MountainView Golf Club,"38759 S Mountain View Blvd Tuscon, AZ 85739",AZ,85739,520-818-1100,https://www.arizonagolfer.com/golfcourses/mountainview-golf-club
North Golf Course at Sun City,"12650 North 107th Avenue Sun City, AZ 85351",AZ,85351,623-876-3010,https://www.arizonagolfer.com/golfcourses/north-golf-course-at-sun-city
Oakcreek Country Club,"690 Bell Rock Blvd Sedona, AZ 86351",AZ,86351,928-284-1660,https://www.arizonagolfer.com/golfcourses/oakcreek-cc
Oakwood Country Club,"24215 S Oakwood Dr Sun Lakes, AZ 85248",AZ,85248,480-895-1159,https://www.arizonagolfer.com/golfcourses/oakwood-country-club
Oasis Golf Club,"5764 E Hunt Hwy Florence, AZ 85232",AZ,85232,800-980-1226,https://www.arizonagolfer.com/golfcourses/oasis-golf-club
Ocotillo Golf Resort,"3751 S Clubhouse Dr Chandler, AZ 85248",AZ,85248,480-917-6660,https://www.arizonagolfer.com/golfcourses/ocotillo-golf-resort
Omni Tucson National Resort,"2727 West Club Drive Tucson, AZ 85742",AZ,85742,520-297-2271,https://www.arizonagolfer.com/golfcourses/omni-tucson-national-resort
Orange Tree Golf Club,"10601 N 56th Street Scottsdale, AZ 85254",AZ,85254,480-948-3730,https://www.arizonagolfer.com/golfcourses/orange-tree-golf-club
Oro Valley Country Club,"300 West Greenock Drive Oro Valley, AZ 85737",AZ,85737,520-297-1121,https://www.arizonagolfer.com/golfcourses/oro-valley-country-club
Painted Mountain Golf Club,"6210 E McKellips Rd Mesa, AZ 85215",AZ,85215,480-832-0156,https://www.arizonagolfer.com/golfcourses/painted-mountain-golf-club
Palm Valley Golf Club,"2211 N Litchfield Rd Goodyear, AZ 85395",AZ,85395,623-935-2500,https://www.arizonagolfer.com/golfcourses/10714
Palmbrook Country Club,"9350 W Greenway Rd Sun City, AZ 85351",AZ,85351,623-977-8383,https://www.arizonagolfer.com/golfcourses/palmbrook-country-club
Palo Duro Creek Golf Course,"2690 N Country Club Dr Nogales, AZ 85621",AZ,85621,520-377-2708,https://www.arizonagolfer.com/golfcourses/palo-duro-creek-golf-course
Palo Verde Golf Course,"6215 N 15th Ave Phoenix, AZ 85015",AZ,85015,602-249-9930,https://www.arizonagolfer.com/golfcourses/palo-verde-golf-course
Papago Golf Course,"5595 E Moreland St Phoenix, AZ 85008",AZ,85008,602-275-8428,https://www.arizonagolfer.com/golfcourses/papago-golf-course
Paradise Peak West Golf Resort,"3901 E Pinnacle Peak Rd Phoenix, AZ 85050",AZ,85050,480-515-2043,https://www.arizonagolfer.com/golfcourses/paradise-peak-west-golf-resort
Paradise Valley Country Club,"7101 N Tatum Blvd Paradise Valley, AZ 85253",AZ,85253,602-840-8100,https://www.arizonagolfer.com/golfcourses/paradise-valley-country-club
Paradise Valley Park Golf Course,"3505 E Union Hills Dr Phoenix, AZ 85050",AZ,85050,602-992-7190,https://www.arizonagolfer.com/golfcourses/paradise-valley-park-golf-course
Pavilion Lakes Golf Club,"8870 E Indian Bend Rd Scottsdale, AZ 85250",AZ,85250,480-948-3370,https://www.arizonagolfer.com/golfcourses/pavilion-lakes-golf-club
Payson Golf Course,"1504 W Country Club Dr Payson, AZ 85541",AZ,85541,928-474-2273,https://www.arizonagolfer.com/golfcourses/payson-golf-course
Pebble Creek Golf Resort,"3639 Clubhouse Dr Goodyear, AZ 85395",AZ,85395,623-935-6700,https://www.arizonagolfer.com/golfcourses/pebble-creek-golf-resort
Pebblebrook Golf Course at Sun City West,"18836 N 128th Ave Sun City West, AZ 85375",AZ,85375,623-584-3100,https://www.arizonagolfer.com/golfcourses/pebblebrook-golf-course-at-sun-city-west
Peoria Pines Golf & Restaurant,"8411 N 107th Ave Peoria, AZ 85345",AZ,85345,623-972-1364,https://www.arizonagolfer.com/golfcourses/peoria-pines-golf-restaurant
Phoenix Country Club,"2901 N 7th St Phoenix, AZ 85014",AZ,85014,602-263-5208,https://www.arizonagolfer.com/golfcourses/phoenix-country-club
Pine Meadows Country Club,"2209 Country Club Drive Overgaard, AZ 85933",AZ,85933,928-535-4220,https://www.arizonagolfer.com/golfcourses/pine-meadows-country-club
Pine Shadows Golf Club,"1480 W Groseta Ranch Rd Cottonwood, AZ 86326",AZ,86326,928-634-1093,https://www.arizonagolfer.com/golfcourses/pine-shadows-golf-club
Pinetop Country Club,"6734 Country Club Dr Pinetop, AZ 85935",AZ,85935,928-369-4375,https://www.arizonagolfer.com/golfcourses/pinetop-country-club
Pinetop Lakes Golf & Country Club,"4643 Buck Springs Rd Pinetop, AZ 85935",AZ,85935,928-369-4531,https://www.arizonagolfer.com/golfcourses/pinetop-lakes-golf-country-club
Pinewood Country Club,"395 E Pinewood Blvd Munds Park, AZ 86017",AZ,86017,520-286-1110,https://www.arizonagolfer.com/golfcourses/pinewood-country-club
Pinnacle Peak Country Club,"8701 E Pinnacle Peak Rd Scottsdale, AZ 85255",AZ,85255,480-585-0385,https://www.arizonagolfer.com/golfcourses/pinnacle-peak-country-club
Poco Diablo Resort,"1752 S Hwy 179 Sedona, AZ 86336",AZ,86336,520-282-7333,https://www.arizonagolfer.com/golfcourses/poco-diablo-resort
Poston Butte Golf Club,"6100 Merrill Ranch Pkwy Florence, AZ 85232",AZ,85232,520-723-1880,https://www.arizonagolfer.com/golfcourses/poston-butte-golf-club
Prescott Golf and Country Club,"1030 Prescott Country Club Blvd Dewey, AZ 86327",AZ,86327,928-772-8984,https://www.arizonagolfer.com/golfcourses/prescott-golf-and-country-club
Prescott Lakes Golf & Country Club,"315 E Smoketree Lane Prescott, AZ 86301",AZ,86301,928-443-3500,https://www.arizonagolfer.com/golfcourses/prescott-lakes-golf-country-club
Preserve Golf Club,"66567 E Catalina Hills Dr Tucson, AZ 85739",AZ,85739,520-825-9022,https://www.arizonagolfer.com/golfcourses/preserve-golf-club
Pueblo El Mirage Country Club,"11201 N El Mirage Rd El Mirage, AZ 85335",AZ,85335,623-583-0425,https://www.arizonagolfer.com/golfcourses/pueblo-el-mirage-country-club
Pueblo del Sol Golf & Country Club,"2770 Saint Andrews Dr Sierra Vista, AZ 85650",AZ,85650,520-378-6444,https://www.arizonagolfer.com/golfcourses/pueblo-del-sol-golf-country-club
Pusch Ridge,"10000 N. Oracle Road Oro Valley, AZ 85737",AZ,85737,520-544-1801,https://www.arizonagolfer.com/golfcourses/pusch-ridge
Quail Canyon Golf Course,"5910 N Oracle Rd Tucson, AZ 85704",AZ,85704,520-887-6161,https://www.arizonagolfer.com/golfcourses/quail-canyon-golf-course
Quail Creek Country Club,"1490 N Quail View Loop Green Valley, AZ 85614",AZ,85614,520-393-5802,https://www.arizonagolfer.com/golfcourses/quail-creek-country-club
Quail Run Golf Course,"9774 Alabama Ave Sun City, AZ 85351",AZ,85351,623-876-3035,https://www.arizonagolfer.com/golfcourses/quail-run-golf-course
Quailwood Greens Golf Course,"12200 E State Route 69 Dewey, AZ 86327",AZ,86327,928-772-0130,https://www.arizonagolfer.com/golfcourses/quailwood-greens-golf-course
Quarry Pines Golf Club,"8480 N Continental Links Dr Marana, AZ 85743",AZ,85743,520-744-7443,https://www.arizonagolfer.com/golfcourses/quarry-pines-golf-club
Queen Valley Golf Course,"600 N Fairway Dr Queen Valley, AZ 85219",AZ,85219,520-463-2214,https://www.arizonagolfer.com/golfcourses/queen-valley-golf-course
Quintero Golf Club,"16752 W State Rte 74 Peoria, AZ 85383",AZ,85383,928-501-1500,https://www.arizonagolfer.com/golfcourses/quintero-golf-club
Rancho Manana Golf Club,"5734 E Rancho Manana Blvd Cave Creek, AZ 85331",AZ,85331,480-488-0398,https://www.arizonagolfer.com/golfcourses/rancho-manana-golf-club
Randolph Golf Course,"600 S Alvernon Way Tucson, AZ 85711",AZ,85711,520-791-4161,https://www.arizonagolfer.com/golfcourses/randolph-golf-course
Raven Golf Club - Phoenix,"3636 E Baseline Rd Phoenix, AZ 85042",AZ,85042,602-243-3636,https://www.arizonagolfer.com/golfcourses/raven-golf-club-phoenix
Raven Golf Club at Verrado,"4242 N Golf Dr Buckeye, AZ 85326",AZ,85326,623-388-3008,https://www.arizonagolfer.com/golfcourses/raven-golf-club-at-verrado
Red Mountain Ranch Country Club,"6425 E Teton Mesa, AZ 85215",AZ,85215,480-981-6501,https://www.arizonagolfer.com/golfcourses/red-mountain-ranch-country-club
Rio Rico Golf Club,"1123 pendleton Road Rio Rico, AZ 85648",AZ,85648,520-988-0797,https://www.arizonagolfer.com/golfcourses/rio-rico-golf-club
Rio Salado Golf Course,"1490 E Weber Dr Tempe, AZ 85281",AZ,85281,480-990-1233,https://www.arizonagolfer.com/golfcourses/rio-salado-golf-course
Rio Verde Country Club,"18731 East Four Peaks Blvd. Rio Verde, AZ 85263",AZ,85263,480-471-9420,https://www.arizonagolfer.com/golfcourses/rio-verde-country-club
Riverview Golf Course,"16401 N Del Webb Blvd Sun City, AZ 85351",AZ,85351,623-876-3025,https://www.arizonagolfer.com/golfcourses/riverview-golf-course
Riverview Resort Golf Course,"2020 E Ramar Rd Bullhead City, AZ 86442",AZ,86442,520-763-1818,https://www.arizonagolfer.com/golfcourses/riverview-resort-golf-course
Roadhaven Golf Course,"1000 S Idaho Rd Apache Junction, AZ 85219",AZ,85219,480-982-4811,https://www.arizonagolfer.com/golfcourses/roadhaven-golf-course
Robson Ranch Golf Club,"5750 N. Robson Blvd. Eloy, AZ 85231",AZ,85231,520-426-3333,https://www.arizonagolfer.com/golfcourses/robson-ranch-golf-club
Rolling Hills Golf Course,"1415 N Mill Ave Tempe, AZ 85281",AZ,85281,480-350-5275,https://www.arizonagolfer.com/golfcourses/rolling-hills-golf-course
Royal Palms Golf Course,"1415 E McKellips Rd Mesa, AZ 85203",AZ,85203,480-964-1709,https://www.arizonagolfer.com/golfcourses/royal-palms-golf-course
SaddleBrooke Golf Course,"64500 E Saddlebrooke Blvd Tucson, AZ 85739",AZ,85739,520-825-2505,https://www.arizonagolfer.com/golfcourses/saddlebrooke-golf-course
Saddlebrooke Ranch Golf Club,"62493 E. Robson Circle Oracle, AZ 85623",AZ,85623,800-980-1226,https://www.arizonagolfer.com/golfcourses/saddlebrooke-ranch-golf-club
San Ignacio Golf Club,"4201 S Camino Del Sol St Green Valley, AZ 85614",AZ,85614,520-648-3468,https://www.arizonagolfer.com/golfcourses/san-ignacio-golf-club
San Manuel Golf Club,"26950 N Reddington Rd San Manuel, AZ 85631",AZ,85631,520-385-2224,https://www.arizonagolfer.com/golfcourses/san-manuel-golf-club
San Marcos Golf & Country Club,"100 N Dakota St Chandler, AZ 85225",AZ,85225,480-963-3358,https://www.arizonagolfer.com/golfcourses/san-marcos-golf-country-club
San Miguel Golf Club,"1505 S Toltec Rd Grande Valley, AZ 85231",AZ,85231,520-466-7734,https://www.arizonagolfer.com/golfcourses/san-miguel-golf-club
San Pedro Golf Course,"926 N Madison Ave Benson, AZ 85602",AZ,85602,520-586-7888,https://www.arizonagolfer.com/golfcourses/san-pedro-golf-course
Santa Fe Station Golf Course,"100 N Rd Winslow, AZ 86047",AZ,86047,520-289-6737,https://www.arizonagolfer.com/golfcourses/santa-fe-station-golf-course
Scottsdale National Golf Club,"28265 North Scottsdale National Drive Scottsdale, AZ 85262",AZ,85262,480-443-8868,https://www.arizonagolfer.com/golfcourses/golf-club-scottsdale
Scottsdale Silverado Golf Club,"7605 E. Indian Bend Rd Scottsdale, AZ 85250",AZ,85250,480-778-0100,https://www.arizonagolfer.com/golfcourses/scottsdale-silverado-golf-club
Sedona Golf Resort,"35 Ridge Trail Dr Sedona, AZ 86351",AZ,86351,928-284-9355,https://www.arizonagolfer.com/golfcourses/sedona-golf-resort
Seven Canyons,"755 Golf Club Way Sedona, AZ 86336",AZ,86336,928-203-2001,https://www.arizonagolfer.com/golfcourses/seven-canyons
Seville Golf & Country Club,"6683 S. Clubhouse Drive Gilbert, AZ 85298",AZ,85298,480-722-8100,https://www.arizonagolfer.com/golfcourses/seville-golf-country-club
Sewailo Golf Course,"5655, West Valencia Rd Tucson, AZ 85757",AZ,85757,855-765-7829,https://www.arizonagolfer.com/golfcourses/sewailo-golf-course
Shadow Mountain Country Club,"1105 Irene St Pearce, AZ 85625",AZ,85625,520-826-3412,https://www.arizonagolfer.com/golfcourses/shadow-mountain-country-club
Shalimar Country Club,"2032 E Golf Ave Tempe, AZ 85282",AZ,85282,480-838-0488,https://www.arizonagolfer.com/golfcourses/shalimar-country-club
Silver Creek Golf Club,"2051 Silver Lake Blvd White Mountain Lake, AZ 85901",AZ,85901,928-537-2744,https://www.arizonagolfer.com/golfcourses/silver-creek-golf-club
Silverbell Golf Course,"3600 N Silverbell Rd Tucson, AZ 85745",AZ,85745,520-791-5235,https://www.arizonagolfer.com/golfcourses/silverbell-golf-course
Skyline Country Club,"5200 E Saint Andrews Dr Tucson, AZ 85718",AZ,85718,520-299-0464,https://www.arizonagolfer.com/golfcourses/skyline-country-club
Snowflake Municipal Golf Course,"90 N Country Club Dr Snowflake, AZ 85937",AZ,85937,928-536-7233,https://www.arizonagolfer.com/golfcourses/snowflake-municipal-golf-course
Southern Ridge Golf Club,"5740 W Baseline Rd Laveen, AZ 85339",AZ,85339,602-237-4567,https://www.arizonagolfer.com/golfcourses/southern-ridge-golf-club
Springfield Golf Course,"1200 E Saint Andrews Blvd Chandler, AZ 85249",AZ,85249,480-895-5759,https://www.arizonagolfer.com/golfcourses/springfield-golf-course
Stardust Golf Course,"12702 W Stardust Blvd Sun City West, AZ 85375",AZ,85375,623-584-2916,https://www.arizonagolfer.com/golfcourses/stardust-golf-course
Starfire Golf Club,"11500 N. hayden Rd. Scottsdale, AZ 85260",AZ,85260,480-948-6000,https://www.arizonagolfer.com/golfcourses/starfire-golf-club
Sterling Grove Golf & Country Club,"11440 N Greenwich Blvd Surprise, AZ 85388",AZ,85388,623-213-7000,https://www.arizonagolfer.com/golfcourses/sterling-grove-cc
Stone Canyon Golf Course,"14200 N Hohokam Village Pl Tucson, AZ 85755",AZ,85755,520-219-1500,https://www.arizonagolfer.com/golfcourses/stone-canyon-golf-course
Stone Ridge Golf Course,"1601 N Bluff Top Rd Prescott Valley, AZ 86314",AZ,86314,928-772-6500,https://www.arizonagolfer.com/golfcourses/stone-ridge-golf-course
Stonecreek Golf Club,"4435 E Paradise Village Pkwy Paradise Valley, AZ 85032",AZ,85032,602-953-9110,https://www.arizonagolfer.com/golfcourses/stonecreek-gc
Sun City Country Club,"9433 N 107th Ave Sun City, AZ 85351",AZ,85351,623-933-1353,https://www.arizonagolfer.com/golfcourses/sun-city-country-club
Sun Village Golf Course,"14300 W Bell Rd Surprise, AZ 85374",AZ,85374,623-584-5774,https://www.arizonagolfer.com/golfcourses/sun-village-golf-course
SunRidge Canyon Golf Club,"13100 N SunRidge Drive Fountain Hills, AZ 85268",AZ,85268,480-837-5100,https://www.arizonagolfer.com/golfcourses/sunridge-canyon-golf-club
Sunbird Golf Resort,"6250 S Sunbird Blvd Chandler, AZ 85249",AZ,85249,480-883-0820,https://www.arizonagolfer.com/golfcourses/sunbird-golf-resort
Sundance Golf Club,"900 S. Sundance Parkway Buckeye, AZ 85326",AZ,85326,623-328-0400,https://www.arizonagolfer.com/golfcourses/sundance-golf-club
Sunland Village Golf Course,"725 South Rochester Mesa, AZ 85206",AZ,85206,480-832-3691,https://www.arizonagolfer.com/golfcourses/sunland-village-golf-course
Superstition Mountain Golf & Country Club,"8000 E Club Village Dr. Superstition Mountain, AZ 85218",AZ,85218,480-983-3300,https://www.arizonagolfer.com/golfcourses/superstition-mountain-golf-country-club
Superstition Springs Golf Club,"6542 E Baseline Rd Mesa, AZ 85206",AZ,85206,480-985-5622,https://www.arizonagolfer.com/golfcourses/superstition-springs-golf-club
TPC Scottsdale,"17020 N Hayden Rd Scottsdale, AZ 85255",AZ,85255,480-585-4334,https://www.arizonagolfer.com/golfcourses/tpc-cottsdale
Talking Rock,"14503 N. Talking Rock Ranch Road Prescott, AZ 86305",AZ,86305,877-922-4440,https://www.arizonagolfer.com/golfcourses/talking-rock
Talking Stick Golf Club - O'odham Course,"9998 E Indian Bend Rd Scottsdale, AZ 85256",AZ,85256,480-860-2221,https://www.arizonagolfer.com/golfcourses/oodham-talking-stick-golf-club
Talking Stick Golf Club - Piipaash Course,"9998 E Indian Bend Rd Scottsdale, AZ 85256",AZ,85256,480-860-2221,https://www.arizonagolfer.com/golfcourses/piipaash-talking-stick-golf-club
Tatum Ranch Golf Club,"29888 N Tatum Ranch Dr Cave Creek, AZ 85331",AZ,85331,480-585-2399,https://www.arizonagolfer.com/golfcourses/tatum-ranch-golf-club
Terravita Golf Club,"34034 N 69th Way Scottsdale, AZ 85262",AZ,85262,480-488-7962,https://www.arizonagolfer.com/golfcourses/terravita-golf-club
The Duke at Rancho El Dorado,"42660 W Rancho El Dorado Pkwy Maricopa, AZ 85239",AZ,85239,480-844-1100,https://www.arizonagolfer.com/golfcourses/the-duke-at-rancho-el-dorado
The Estancia Club,"9801 E Dynamite Rd Scottsdale, AZ 85262",AZ,85262,480-473-4400,https://www.arizonagolfer.com/golfcourses/the-estancia-club
The Gallery Golf Club,"14000 N Dove Mountain Blvd Marana, AZ 85653",AZ,85653,520-744-2555,https://www.arizonagolfer.com/golfcourses/the-gallery-golf-club
The Golf Club at Chaparral Pines,"2101 E. Rim Club Drive Payson, AZ 85541",AZ,85541,928-472-1430,https://www.arizonagolfer.com/golfcourses/the-golf-club-at-chaparral-pines
The Golf Club at Johnson Ranch,"433 W Bella Vista Rd Queen Creek, AZ 85242",AZ,85242,480-987-9800,https://www.arizonagolfer.com/golfcourses/the-golf-club-at-johnson-ranch
The Links at Queen Creek,"445 E. Ocotillo Road Queen Creek, AZ 85242",AZ,85242,480-987-1910,https://www.arizonagolfer.com/golfcourses/the-links-at-queen-creek
The Lodge at Ventana Canyon,"6200 N Clubhouse Ln Tucson, AZ 85750",AZ,85750,520-577-1400,https://www.arizonagolfer.com/golfcourses/ventana-canyon
The Phoenician Golf Club,"6000 East Camelback Road Scottsdale, AZ 85251",AZ,85251,480-423-2449,https://www.arizonagolfer.com/golfcourses/the-phoenician-golf-club
The Pine Canyon Club,"1201 E. John Wesley Powell Blvd. Flagstaff, AZ 86001",AZ,86001,866-779-5700,https://www.arizonagolfer.com/golfcourses/the-pine-canyon-club
The Refuge Golf & Country Club,"3103 London Bridge Road Lake Havasu City, AZ 86404",AZ,86404,928-764-1404,https://www.arizonagolfer.com/golfcourses/the-refuge-golf-country-club
The Rim Golf Club,"300 S. Clubhouse Road Payson, AZ 85541",AZ,85541,928.472.1470,https://www.arizonagolfer.com/golfcourses/the-rim-golf-club
"The Ritz-Carlton Golf Club, Dove Mountain","6501 Boulder Bridge Pass Marana, AZ 85658",AZ,85658,520-572-3000,https://www.arizonagolfer.com/golfcourses/dove-mountain
The Views Golf Club at Oro Valley,"1565 E Rancho Vistoso Blvd Oro Valley, AZ 85755",AZ,85755,520-825-3110,https://www.arizonagolfer.com/golfcourses/the-views-golf-club-at-oro-valley
The Wigwam,"300 E. Wigwam Blvd Litchfield Park, AZ 85340",AZ,85340,623-935-3811,https://www.arizonagolfer.com/golfcourses/wigwam
Tierra Grande Golf Course,"813 W Calle Rosa Casa Grande, AZ 85194",AZ,85194,520-723-9717,https://www.arizonagolfer.com/golfcourses/tierra-grande-golf-course
Toka Sticks Golf Course,"6910 E. Williamsfield Road Mesa, AZ 85212",AZ,85212,480-988-9405,https://www.arizonagolfer.com/golfcourses/toka-sticks-golf-course
Tonto Verde Golf Club,"18402 El Circulo Dr Rio Verde, AZ 85263",AZ,85263,480-471-2710,https://www.arizonagolfer.com/golfcourses/tonto-verde-golf-club
Torreon Golf Club,"3800 W Sugar Way Show Low, AZ 85901",AZ,85901,520-532-4653,https://www.arizonagolfer.com/golfcourses/torreon-golf-club
Torres Blancas Golf Club,"3233 S Abrego Dr. Green Valley, AZ 85614",AZ,85614,520-625-5200,https://www.arizonagolfer.com/golfcourses/torres-blancas-golf-club
Trail Ridge Golf Course at Sun City West,"21021 N 151St Ave Sun City West, AZ 85375",AZ,85375,623-546-0858,https://www.arizonagolfer.com/golfcourses/trail-ridge-golf-course-at-sun-city-west
Trilogy Golf Club at Power Ranch,"4415 E Village Pkwy Gilbert, AZ 85236",AZ,85236,480-988-0004,https://www.arizonagolfer.com/golfcourses/trilogy-golf-club-at-power-ranch
Trilogy Golf Club at Vistancia,"12575 W Golf Club Drive Peoria, AZ 85383",AZ,85383,623-328-5100,https://www.arizonagolfer.com/golfcourses/trilogy-golf-club-vistancia
Troon Country Club,"25000 N Windy Walk Dr Scottsdale, AZ 85255",AZ,85255,480-585-0540,https://www.arizonagolfer.com/golfcourses/troon-country-club
Troon North Golf Club - Monument,"10320 E Dynamite Blvd Scottsdale, AZ 85262",AZ,85262,480-585-5300,https://www.arizonagolfer.com/golfcourses/troon-north-golf-club
Troon North Golf Club - Pinnacle,"10320 E Dynamite Blvd Scottsdale, AZ 85262",AZ,85262,480-585-5300,https://www.arizonagolfer.com/golfcourses/troon-north-golf-club-pinnacle
Tubac Golf Resort,"65 Avenue De Otero Tubac, AZ 85646",AZ,85646,520-398-2211,https://www.arizonagolfer.com/golfcourses/tubac-golf-resort
Tucson Country Club,"2950 N Camino Principal Tucson, AZ 85715",AZ,85715,520-298-2381,https://www.arizonagolfer.com/golfcourses/tucson-country-club
Turquoise Hills Golf & RV,"800 E. Country Club Drive Benson, AZ 85602",AZ,85602,520-586-7535,https://www.arizonagolfer.com/golfcourses/turquoise-hills-golf-rv
Turquoise Valley Golf Course,"1794 West Newell St Naco, AZ 85620",AZ,85620,520-432-3091,https://www.arizonagolfer.com/golfcourses/turquoise-valley-golf-course
Twin Lakes Golf Course,"1000 S Rex Allen Jr Dr Willcox, AZ 85643",AZ,85643,520-384-2720,https://www.arizonagolfer.com/golfcourses/15012
Union Hills Country Club,"9860 W Lindgren Ave Sun City, AZ 85373",AZ,85373,623-977-4281,https://www.arizonagolfer.com/golfcourses/union-hills-country-club
Valle Vista Country Club,"9686 N. Concho Dr Kingman, AZ 86401",AZ,86401,928-757-8744,https://www.arizonagolfer.com/golfcourses/valle-vista-country-club
Verde River Golf & Social Club,"29005 N. Verde River Drive Rio Verde, AZ 85263",AZ,85263,480-471-3232,https://www.arizonagolfer.com/golfcourses/verde-river-golf-social-club
Verde Santa Fe Golf Course,"645 S. Verde Santa Fe Pkwy Cornville, AZ 86325",AZ,86325,928-634-5454,https://www.arizonagolfer.com/golfcourses/verde-santa-fe-golf-course
Viewpoint Golf Resort,"650 N Hawes Rd Mesa, AZ 85207",AZ,85207,480-373-8715,https://www.arizonagolfer.com/golfcourses/viewpoint-golf-resort
Villa de Paz Golf Course,"4220 N 103rd Ave Phoenix, AZ 85037",AZ,85037,623-877-1172,https://www.arizonagolfer.com/golfcourses/villa-de-paz-golf-course
Vistal Golf Club,"701 E Thunderbird Tr. Phoenix, AZ 85040",AZ,85040,602-305-7755,https://www.arizonagolfer.com/golfcourses/vistal-golf-club
We-Ko-Pa Golf Club - Cholla,"18200 E Toh Vee Circle Fort McDowell, AZ 85264",AZ,85264,480,https://www.arizonagolfer.com/golfcourses/we-ko-pa-golf-club-cholla
We-Ko-Pa Golf Club - Saguaro,"18200 E Toh Vee Circle Fort McDowell, AZ 85264",AZ,85264,480,https://www.arizonagolfer.com/golfcourses/we-ko-pa-golf-club-saguaro
Westbrook Village Golf Club,"19260 N Westbrook Pkwy Peoria, AZ 85382",AZ,85382,623-566-4548,https://www.arizonagolfer.com/golfcourses/westbrook-village-golf-club
Western Skies Golf Club,"1245 E Warner Rd Gilbert, AZ 85296",AZ,85296,480-545-8481,https://www.arizonagolfer.com/golfcourses/western-skies-golf-club
Westin Kierland Resort,"15636 Clubgate Dr Scottsdale, AZ 85254",AZ,85254,480-922-9283,https://www.arizonagolfer.com/golfcourses/westin-kierland-resort
Whirlwind Golf Club - Cattail,"5692 West North Loop Rd Chandler, AZ 85226",AZ,85226,480-940-1500,https://www.arizonagolfer.com/golfcourses/whirlwind-golf-club-cattail
Whirlwind Golf Club - Devils Claw,"5692 West North Loop Rd Chandler, AZ 85226",AZ,85226,480-940-1500,https://www.arizonagolfer.com/golfcourses/whirlwind-golf-club-devils-claw
White Mountain Country Club,"Hwy 260 Pinetop, AZ 85935",AZ,85935,928-367-4357,https://www.arizonagolfer.com/golfcourses/white-mountain-country-club
Wickenburg Country Club,"Country Club Dr Wickenburg, AZ 85390",AZ,85390,928-684-2011,https://www.arizonagolfer.com/golfcourses/wickenburg-country-club
Wickenburg Ranch Golf Club,"3312 Maverick Drive Wickenburg, AZ 85390",AZ,85390,928-668-5535,https://www.arizonagolfer.com/golfcourses/wickenburg-ranch-golf-club
Yuma Golf & Country Club,"3150 S Fortuna Ave Yuma, AZ 85365",AZ,85365,928-726-4210,https://www.arizonagolfer.com/golfcourses/yuma-golf-country-club
3 Par at Four Points,"8110 Aero Dr San Diego, CA 92123",CA,92123,858-277-8888,https://www.cagolf.com/golfcourses/3-par-at-four-points
Adam Springs Golf Course,"14347 Snead Court Cobb, CA 95426",CA,95426,707-928-9992,https://www.cagolf.com/golfcourses/adam-springs-golf-course
Admiral Baker Golf Course,"Friars Rd & Admiral Baker Rd San Diego, CA 92120",CA,92120,619-556-5520,https://www.cagolf.com/golfcourses/admiral-baker-golf-course
Adobe Creek Golf Course,"1901 Frates Rd Petaluma, CA 94954",CA,94954,707-765-3000,https://www.cagolf.com/golfcourses/adobe-creek-golf-course
Aetna Springs Golf Course,"1600 Aetna Springs Rd Pope Valley, CA 94567",CA,94567,707-965-2115,https://www.cagolf.com/golfcourses/aetna-springs-golf-course
Airways Golf Course,"5440 E Shields Ave Fresno, CA 93727",CA,93727,559-291-6254,https://www.cagolf.com/golfcourses/airways-golf-course
Alhambra Municipal Golf Course,"630 S Almansor St Alhambra, CA 91801",CA,91801,626-570-5059,https://www.cagolf.com/golfcourses/alhambra-municipal-golf-course
Aliso Creek Golf Course,"31106 S Coast Hwy Laguna Beach, CA 92651",CA,92651,949-499-1919,https://www.cagolf.com/golfcourses/aliso-creek-golf-course
Aliso Viejo Golf Club,"25191 Golf Dr Aliso Viejo, CA 92656",CA,92656,949-598-9200,https://www.cagolf.com/golfcourses/aliso-viejo-golf-club
Allens Golf Course,"2780 Sacramento Dr Redding, CA 96001",CA,96001,530-241-5055,https://www.cagolf.com/golfcourses/allens-golf-course
Almaden Golf & Country Club,"6663 Hampton Dr San Jose, CA 95120",CA,95120,408-268-3959,https://www.cagolf.com/golfcourses/almaden-golf-country-club
Alondra Park Golf Course,"16400 S Prairie Ave Lawndale, CA 90260",CA,90260,310-217-9915,https://www.cagolf.com/golfcourses/alondra-park-golf-course
Alta Sierra Country Club,"11897 Tammy Way Grass Valley, CA 95949",CA,95949,530-273-2010,https://www.cagolf.com/golfcourses/alta-sierra-country-club
Alta Vista Country Club,"777 E Alta Vista St Placentia, CA 92870",CA,92870,714-528-1103,https://www.cagolf.com/golfcourses/alta-vista-country-club
Altadena Golf Course,"1456 E Mendocino St Altadena, CA 91001",CA,91001,626-797-3821,https://www.cagolf.com/golfcourses/altadena-golf-course
Anaheim Hills Golf Course,"6501 E Nohl Ranch Rd Anaheim, CA 92807",CA,92807,714-998-3041,https://www.cagolf.com/golfcourses/anaheim-hills-golf-course
Ancil Hoffman Golf Course,"6700 Tarshes Dr Carmichael, CA 95608",CA,95608,916-482-3284,https://www.cagolf.com/golfcourses/ancil-hoffman-golf-course
Andalusia at Coral Mountain,"58830 Marbella La Quinta, CA 92253",CA,92253,760-777-1000,https://www.cagolf.com/golfcourses/andalusia-at-coral-mountain
Anderson Tucker Oaks Golf Course,"6241 Churn Creek Rd Redding, CA 96002",CA,96002,530-365-3350,https://www.cagolf.com/golfcourses/anderson-tucker-oaks-golf-course
Angeles National Golf Club,"9401 Foothill Blvd Sunland, CA 91040",CA,91040,818-951-8771,https://www.cagolf.com/golfcourses/angeles-national-golf-club
Annandale Golf Course,"1 N San Rafael Ave Pasadena, CA 91105",CA,91105,626-795-8253,https://www.cagolf.com/golfcourses/annandale-golf-course
Antelope Greens Golf Course,"2721 Elverta Rd Antelope, CA 95843",CA,95843,916-334-5764,https://www.cagolf.com/golfcourses/antelope-greens-golf-course
Antelope Valley Country Club,"39800 Country Club Dr Palmdale, CA 93551",CA,93551,661-947-3400,https://www.cagolf.com/golfcourses/antelope-valley-country-club
Apple Mountain Golf Resort,"3430 N Canyon Camino, CA 95709",CA,95709,530-647-7400,https://www.cagolf.com/golfcourses/apple-mountain-golf-resort
Apple Valley Country Club,"15200 Rancherias Rd Apple Valley, CA 92307",CA,92307,760-242-3125,https://www.cagolf.com/golfcourses/apple-valley-cc
Arbuckle Golf Club,"Hillgate Rd Arbuckle, CA 95912",CA,95912,530-476-2470,https://www.cagolf.com/golfcourses/arbuckle-golf-club
Arcadia Golf Course,"620 E Live Oak Ave Arcadia, CA 91006",CA,91006,626-443-9367,https://www.cagolf.com/golfcourses/arcadia-golf-course
Arrowhead Country Club,"3433 N Parkside Dr San Bernardino, CA 92404",CA,92404,909-882-1638,https://www.cagolf.com/golfcourses/879
Arrowhead Golf Course,"1901 N Warner St Alturas, CA 96101",CA,96101,530-233-3404,https://www.cagolf.com/golfcourses/arrowhead-gc
Arroyo Fairways Mobile Home Club & Golf Course,"42751 E Florida Ave Hemet, CA 92544",CA,92544,909-927-1610,https://www.cagolf.com/golfcourses/arroyo-fairways-golf-course
Arroyo Seco Golf Course,"1055 Lohman Ln South Pasadena, CA 91030",CA,91030,323-257-0475,https://www.cagolf.com/golfcourses/arroyo-seco-golf-course
Arroyo Trabuco Golf Club,"26772 Avery Parkway Mission Viejo, CA 92692",CA,92692,949-305-5100,https://www.cagolf.com/golfcourses/arroyo-trabuco-golf-club
Auburn Lake Trails Golf Course,"2277 Westville Trl Cool, CA 95614",CA,95614,530-885-6526,https://www.cagolf.com/golfcourses/auburn-lake-trails-golf-course
Auburn Valley Country Club,"8800 Auburn Valley Rd Auburn, CA 95602",CA,95602,530-269-1837,https://www.cagolf.com/golfcourses/auburn-valley-country-club
Avila Beach Resort,"6464 Ana Bay Drive Avila Beach, CA 93424",CA,93424,805-595-4000,https://www.cagolf.com/golfcourses/avila-beach-resort
Avondale Golf Club,"75-800 Avondale Dr Palm Desert, CA 92211",CA,92211,760-345-3712,https://www.cagolf.com/golfcourses/avondale-golf-club
Azusa Greens Country Club,"919 W Sierra Madre Ave Azusa, CA 91702",CA,91702,626-969-1727,https://www.cagolf.com/golfcourses/azusa-greens-country-club
Back Bay Golf Course,"1107 Jamboree Rd Newport Beach, CA 92660",CA,92660,949-729-1234,https://www.cagolf.com/golfcourses/back-bay-golf-course
Bailey Creek Golf Course,"Durkin Dr Lake Almanor, CA 96317",CA,96317,530-259-4653,https://www.cagolf.com/golfcourses/bailey-creek-golf-course
Bakersfield Country Club,"4200 Country Club Dr Bakersfield, CA 93306",CA,93306,661-871-4121,https://www.cagolf.com/golfcourses/bakersfield-country-club
Balboa Park Municipal Golf Club,"2600 Golf Course Dr San Diego, CA 92102",CA,92102,619-239-1660,https://www.cagolf.com/golfcourses/balboa-park-municipal-golf-club
Barbara Worth Golf Resort,"2050 Country Club Dr Holtville, CA 92250",CA,92250,760-356-5842,https://www.cagolf.com/golfcourses/barbara-worth-golf-resort
Barona Creek Golf Club,"1000 Wildcat Canyon Rd Lakeside, CA 92040",CA,92040,619-387-7018,https://www.cagolf.com/golfcourses/barona-creek-golf-club
Barstow Country Club,"2781 Country Club Dr Barstow, CA 92311",CA,92311,760-253-5201,https://www.cagolf.com/golfcourses/barstow-country-club
Bartley Cavanaugh Golf Course,"8301 Freeport Blvd Sacramento, CA 95832",CA,95832,916-665-2020,https://www.cagolf.com/golfcourses/bartley-cavanaugh-golf-course
Bass Lake Golf Course,"3000 Alexandrite Drive Rescue, CA 95672",CA,95672,530-677-4653,https://www.cagolf.com/golfcourses/bass-lake-gc
Bayonet Black Horse Golf Course,"One McClure Way Seaside, CA 93955",CA,93955,831-899-2351,https://www.cagolf.com/golfcourses/bayonet-black-horse-golf-course
Baywood Golf & Country Club,"3600 Buttermilk Ln Arcata, CA 95521",CA,95521,707-822-3688,https://www.cagolf.com/golfcourses/baywood-golf-country-club
Bear Creek Golf & Country Club,"22640 Bear Creek Dr N Murrieta, CA 92562",CA,92562,909-677-8621,https://www.cagolf.com/golfcourses/bear-creek-golf-country-club
Beau Pre Golf Club,"1770 Norton Rd McKinleyville, CA 95519",CA,95519,707-839-2342,https://www.cagolf.com/golfcourses/beau-pre-golf-club
Bel-Air Country Club,"10768 Bellagio Rd Los Angeles, CA 90077",CA,90077,310-440-2423,https://www.cagolf.com/golfcourses/bel-air-country-club
Belmont Country Club,"8253 E Belmont Ave Fresno, CA 93727",CA,93727,559-251-5076,https://www.cagolf.com/golfcourses/belmont-country-club
Benbow Valley RV Resort & Golf Course,"7000 Benbow Dr Garberville, CA 95542",CA,95542,707-923-2777,https://www.cagolf.com/golfcourses/benbow-valley-rv-resort-golf-course
Bennett Valley Golf Course,"3330 Yulupa Ave Santa Rosa, CA 95405",CA,95405,707-528-3673,https://www.cagolf.com/golfcourses/bennett-valley-golf-course
Bermuda Dunes Country Club,"42360 Adams St Bermuda Dunes, CA 92201",CA,92201,760-360-2481,https://www.cagolf.com/golfcourses/bermuda-dunes-country-club
Bernardo Heights Country Club,"16066 Bernardo Heights Pkwy San Diego, CA 92128",CA,92128,858-487-3440,https://www.cagolf.com/golfcourses/bernardo-heights-country-club
Bidwell Park Golf Course,"3199 Golf Course Rd Chico, CA 95973",CA,95973,530-891-8417,https://www.cagolf.com/golfcourses/bidwell-park-golf-course
Big Bear Mountain Golf Course,"43100 Goldmine Dr Big Bear Lake, CA 92315",CA,92315,909-585-8002,https://www.cagolf.com/golfcourses/big-bear-mountain-golf-course
Big Canyon Country Club,"1 Big Canyon Dr Newport Beach, CA 92660",CA,92660,949-644-5404,https://www.cagolf.com/golfcourses/big-canyon-country-club
Big Rock Golf Club at Indian Springs,"79-940 Westward Ho Drive Indio, CA 92201",CA,92201,760-200-8988,https://www.cagolf.com/golfcourses/big-rock-golf-club
Bigfoot Golf & Country Club,"Patterson Rd Willow Creek, CA 95573",CA,95573,530-629-2977,https://www.cagolf.com/golfcourses/bigfoot-golf-country-club
Bighorn Golf Club,"255 Palowet Dr Palm Desert, CA 92260",CA,92260,760-341-4653,https://www.cagolf.com/golfcourses/bighorn-golf-club
Bijou Municipal Golf Course,"3464 Fairway Dr South Lake Tahoe, CA 96150",CA,96150,530-542-6097,https://www.cagolf.com/golfcourses/bijou-municipal-golf-course
Bing Maloney Golf Course,"6801 Freeport Blvd Sacramento, CA 95822",CA,95822,916-433-2283,https://www.cagolf.com/golfcourses/bing-maloney-golf-course
Birch Hills Golf Course,"2250 E Birch St Brea, CA 92821",CA,92821,714-990-0201,https://www.cagolf.com/golfcourses/birch-hills-golf-course
Birnam Wood Golf Club,"2031 Packing House Rd Santa Barbara, CA 93108",CA,93108,805-969-0919,https://www.cagolf.com/golfcourses/birnam-wood-golf-club
Bishop Country Club,"200 S Hwy 395 Bishop, CA 93514",CA,93514,760-873-5828,https://www.cagolf.com/golfcourses/bishop-country-club
Bixby Village Golf Course,"6180 Bixby Village Dr Long Beach, CA 90803",CA,90803,562-498-7003,https://www.cagolf.com/golfcourses/bixby-village-golf-course
Black Gold Golf Club,"17681 Lakeview Ave Yorba Linda, CA 92886",CA,92886,714-961-0060,https://www.cagolf.com/golfcourses/black-gold-golf-club
Black Mountain Ranch,"8170 Caminito Santaluz E San Diego, CA 98244",CA,98244,858-792-7061,https://www.cagolf.com/golfcourses/black-mountain-ranch
Black Oak Golf Course,"2455 Black Oak Rd Auburn, CA 95602",CA,95602,530-878-1900,https://www.cagolf.com/golfcourses/black-oak-golf-course
Blackberry Farm Golf Course,"22100 Stevens Creek Blvd Cupertino, CA 95014",CA,95014,408-253-9200,https://www.cagolf.com/golfcourses/blackberry-farm-golf-course
Blackhawk Country Club - Falls,"599 Blackhawk Club Dr Danville, CA 94506",CA,94506,925-736-6550,https://www.cagolf.com/golfcourses/blackhawk-country-club-falls
Blackhawk Country Club - Lakeside,"599 Blackhawk Club Dr Danville, CA 94506",CA,94506,925-736-6550,https://www.cagolf.com/golfcourses/blackhawk-country-club-lakeside
Blacklake Golf Course,"1490 Golf Course Ln Nipomo, CA 93444",CA,93444,805-343-1214,https://www.cagolf.com/golfcourses/blacklake-golf-course
Blue Rock Springs Golf Course,"Columbus Pkwy Vallejo, CA 94591",CA,94591,707-643-8476,https://www.cagolf.com/golfcourses/blue-rock-springs-golf-course
Blue Skies Country Club,"55100 Martinez Trl Yucca Valley, CA 92284",CA,92284,760-365-0111,https://www.cagolf.com/golfcourses/blue-skies-country-club
Blythe Golf Course,"4708 Wells Rd Blythe, CA 92225",CA,92225,760-922-4572,https://www.cagolf.com/golfcourses/blythe-golf-course
Bodega Harbour Golf Links,"21301 Heron Dr Bodega Bay, CA 94923",CA,94923,707-875-3538,https://www.cagolf.com/golfcourses/bodega-harbour-golf-links
Bolado Park Golf Club,"7777 Airline Hwy Tres Pinos, CA 95075",CA,95075,831-628-9995,https://www.cagolf.com/golfcourses/bolado-park-golf-club
Bonita Golf Club,"5540 Sweetwater Rd Bonita, CA 91902",CA,91902,619-267-1103,https://www.cagolf.com/golfcourses/bonita-golf-club
Borrego Springs Resort,"1112 Titling T Dr Borrego Springs, CA 92004",CA,92004,760-767-3330,https://www.cagolf.com/golfcourses/borrego-springs-resort
Borrego Springs Resort - The Palms/Desert Willow,"1112 Titling T Dr Borrego Springs, CA 92004",CA,92004,760-767-3330,https://www.cagolf.com/golfcourses/borrego-springs-palmsdesert-willow
Boundary Oak Golf Course,"3800 Valley Vista Rd Walnut Creek, CA 94598",CA,94598,925-934-6211,https://www.cagolf.com/golfcourses/boundary-oak-golf-course
Bradshaw Ranch Golf Course,"7350 Bradshaw Rd Sacramento, CA 95829",CA,95829,916-363-6549,https://www.cagolf.com/golfcourses/bradshaw-ranch-golf-course
Braemar Country Club - East,"4001 Resada Blvd Tarzana, CA 91356",CA,91356,818-345-6520,https://www.cagolf.com/golfcourses/braemar-country-club-east
Brea Creak Golf Course,"501 W Fir St Brea, CA 92821",CA,92821,714-529-3003,https://www.cagolf.com/golfcourses/brea-creak-golf-course
Brentwood Country Club,"590 S Burlingame Ave Los Angeles, CA 90049",CA,90049,310-451-8011,https://www.cagolf.com/golfcourses/brentwood-country-club
Brighton Crest Country Club,"21722 Fairway Oaks Ln Friant, CA 93626",CA,93626,559-299-8586,https://www.cagolf.com/golfcourses/brighton-crest-country-club
Broken Spoke Country Club,"225 Wake Ave El Centro, CA 92243",CA,92243,760-353-4653,https://www.cagolf.com/golfcourses/broken-spoke-country-club
Brookside Country Club,"3603 Saint Andrews Dr Stockton, CA 95219",CA,95219,209-956-6200,https://www.cagolf.com/golfcourses/brookside-country-club
Brookside Golf Club,"1133 N Rosemont Ave Pasadena, CA 91103",CA,91103,626-796-8151,https://www.cagolf.com/golfcourses/2121
Brooktrails Golf Course,"24860 Birch St Willits, CA 95490",CA,95490,707-459-6761,https://www.cagolf.com/golfcourses/brooktrails-golf-course
Buchanan Fields Golf Course,"1091 Concord Ave Concord, CA 94520",CA,94520,925-682-1846,https://www.cagolf.com/golfcourses/buchanan-fields-golf-course
Buckingham Golf & Country Club,"2855 Eastlake Dr Kelseyville, CA 95451",CA,95451,707-279-4863,https://www.cagolf.com/golfcourses/buckingham-golf-country-club
Buena Vista Golf Course,"10256 Golf Course Rd Taft, CA 93268",CA,93268,661-763-5124,https://www.cagolf.com/golfcourses/buena-vista-golf-course
Buenaventura Golf Course,"5882 Olivas Park Dr Ventura, CA 93003",CA,93003,805-642-2231,https://www.cagolf.com/golfcourses/buenaventura-golf-course
Burlingame Country Club,"80 New Pl Rd Hillsborough, CA 94010",CA,94010,650-342-0750,https://www.cagolf.com/golfcourses/burlingame-country-club
Butte Creek Country Club,"175 Estates Dr Chico, CA 95928",CA,95928,530-343-7979,https://www.cagolf.com/golfcourses/butte-creek-country-club
Calabasas Golf & Country Club,"4515 Park Entrada Calabasas, CA 91302",CA,91302,818-222-3222,https://www.cagolf.com/golfcourses/calabasas-golf-country-club
California Country Club,"1509 S Workman Mill Rd Whittier, CA 90601",CA,90601,626-333-4571,https://www.cagolf.com/golfcourses/california-country-club
California Golf Club of San Francisco,"844 W Orange Ave South San Francisco, CA 94080",CA,94080,650-589-0144,https://www.cagolf.com/golfcourses/california-golf-club-of-san-francisco
Calimesa Country Club,"1300 S 3rd St Calimesa, CA 92320",CA,92320,909-795-2488,https://www.cagolf.com/golfcourses/calimesa-country-club
Camarillo Springs Golf Course,"791 Camarillo Springs Rd Camarillo, CA 93012",CA,93012,805-484-1075,https://www.cagolf.com/golfcourses/camarillo-springs-golf-course
Camelot Golf Course,"3430 Camelot Blvd Mojave, CA 93501",CA,93501,661-824-4107,https://www.cagolf.com/golfcourses/camelot-golf-course
Cameron Park Country Club,"3201 Royal Dr Cameron Park, CA 95682",CA,95682,530-672-9840,https://www.cagolf.com/golfcourses/cameron-park-country-club
Camino Heights Golf Course,"3020 Vista Tierra Rd Camino, CA 95709",CA,95709,530-644-0190,https://www.cagolf.com/golfcourses/camino-heights-golf-course
Campers Inn Golf Course,"Rd 88 Dunnigan, CA 95937",CA,95937,530-724-3350,https://www.cagolf.com/golfcourses/campers-inn-golf-course
Campus Commons Golf Course,"2 Cadillac Dr Sacramento, CA 95825",CA,95825,916-922-5861,https://www.cagolf.com/golfcourses/campus-commons-golf-course
Candlewood Country Club,"14000 E Telegraph Rd Whittier, CA 90604",CA,90604,562-941-5310,https://www.cagolf.com/golfcourses/candlewood-country-club
Canyon Crest Country Club,"975 Country Club Dr Riverside, CA 92506",CA,92506,909-274-7900,https://www.cagolf.com/golfcourses/canyon-crest-country-club
Canyon Lake Country Club,"32001 Railroad Canyon Rd Canyon Lake, CA 92587",CA,92587,909-246-1782,https://www.cagolf.com/golfcourses/canyon-lake-country-club
Canyon Lakes Country Club,"640 Bollinger Canyon Way San Ramon, CA 94583",CA,94583,925-735-6511,https://www.cagolf.com/golfcourses/canyon-lakes-country-club
Canyon Oaks Country Club,"999 Yosemite Dr Chico, CA 95928",CA,95928,530-343-2582,https://www.cagolf.com/golfcourses/canyon-oaks-country-club
Carlton Oaks Country Club,"9200 Inwood Dr Santee, CA 92071",CA,92071,619-448-8500,https://www.cagolf.com/golfcourses/carlton-oaks-country-club
Carmel Mountain Ranch Country Club,"14050 Carmel Ridge Rd San Diego, CA 92128",CA,92128,858-487-9224,https://www.cagolf.com/golfcourses/carmel-mountain-ranch-country-club
Carmel Valley Ranch Resort,"One Old Ranch Rd Carmel, CA 93923",CA,93923,831-626-2510,https://www.cagolf.com/golfcourses/carmel-valley-ranch-resort
Casserly Par-3 Golf Course,"626 Casserly Rd Watsonville, CA 95076",CA,95076,831-724-1654,https://www.cagolf.com/golfcourses/casserly-par-3-golf-course
Casta del Sol Golf Course,"27601 Casta del Sol Rd Mission Viejo, CA 92692",CA,92692,949-581-0940,https://www.cagolf.com/golfcourses/casta-del-sol-golf-course
Castle Creek Country Club,"8797 Circle R Dr Escondido, CA 92026",CA,92026,760-749-2422,https://www.cagolf.com/golfcourses/castle-creek-country-club
Castle Oaks Golf Club,"1000 Castle Oaks Dr Ione, CA 95640",CA,95640,209-274-0167,https://www.cagolf.com/golfcourses/castle-oaks-golf-club
Castlewood Country Club,"707 Country Club Cir Pleasanton, CA 94566",CA,94566,925-846-5151,https://www.cagolf.com/golfcourses/castlewood-country-club
Castlewood Country Club - Hill,"707 Country Club Cir Pleasanton, CA 94566",CA,94566,925-846-5151,https://www.cagolf.com/golfcourses/castlewood-country-club-hill
Catalina Island Golf Club,"1 Country Club Rd Avalon, CA 90704",CA,90704,310-510-0530,https://www.cagolf.com/golfcourses/catalina-island-golf-club
Cathedral Canyon Country Club,"34567 Cathedral Canyon Dr Cathedral City, CA 92234",CA,92234,760-328-6571,https://www.cagolf.com/golfcourses/cathedral-canyon-country-club
Catta Verdera Golf Club,"12 Bridges Dr Lincoln, CA 95648",CA,95648,916-645-7200,https://www.cagolf.com/golfcourses/catta-verdera-golf-club
Cerritos Iron-Wood Nine Golf Course,"16449 Piuma Ave Cerritos, CA 90703",CA,90703,562-916-8400,https://www.cagolf.com/golfcourses/cerritos-iron-wood-nine-golf-course
Chalk Mountain Golf Course,"10000 El Bordo Rd Atascadero, CA 93422",CA,93422,805-466-8848,https://www.cagolf.com/golfcourses/chalk-mountain-golf-course
Champions Golf Links,"8915 Gerber Rd Sacramento, CA 95829",CA,95829,916-688-9120,https://www.cagolf.com/golfcourses/champions-golf-links
Chaparral Country Club,"1 Chaparral Dr Palm Desert, CA 92260",CA,92260,760-340-1501,https://www.cagolf.com/golfcourses/2786
Chardonnay Golf Club,"2555 Jameson Canyon Rd Hwy 12 Napa, CA 94558",CA,94558,707-257-8950,https://www.cagolf.com/golfcourses/chardonnay-golf-club
Chardonnay Golf Club - The Vineyards,"2555 Jameson Canyon Road American Canyon, CA 94503",CA,94503,707-257-1900,https://www.cagolf.com/golfcourses/chardonnay-golf-club-the-vineyards
Cherry Hills Golf Course,"26583 Cherry Hills Blvd Sun City, CA 92586",CA,92586,909-679-1182,https://www.cagolf.com/golfcourses/cherry-hills-golf-course
Cherry Island Golf Course,"2360 Elverta Rd Elverta, CA 95626",CA,95626,916-991-7293,https://www.cagolf.com/golfcourses/cherry-island-golf-course
Chester Washington Golf Course,"1930 W 120th St Los Angeles, CA 90047",CA,90047,323-756-6975,https://www.cagolf.com/golfcourses/chester-washington-golf-course
Chevy Chase Country Club,"3067 E Chevy Chase Dr Glendale, CA 91206",CA,91206,818-244-8461,https://www.cagolf.com/golfcourses/chevy-chase-country-club
China Lake Golf Course,"411 Midway Dr Ridgecrest, CA 93555",CA,93555,760-939-2990,https://www.cagolf.com/golfcourses/china-lake-golf-course
Chula Vista Golf Course,"4475 Bonita Rd Bonita, CA 91902",CA,91902,619-479-4141,https://www.cagolf.com/golfcourses/chula-vista-golf-course
Churn Creek Golf Course,"7335 Churn Creek Rd Redding, CA 96002",CA,96002,530-222-6353,https://www.cagolf.com/golfcourses/churn-creek-golf-course
Cimarron Golf Club,"67-603 30th Ave Cathedral City, CA 92234",CA,92234,760-770-6060,https://www.cagolf.com/golfcourses/cimarron-golf-club
Cinnabar Hills Golf Club - Canyon/Mountain,"23600 McKean Rd San Jose, CA 95141",CA,95141,408-323-5200,https://www.cagolf.com/golfcourses/cinnabar-hills-golf-club-canyonmountain
Cinnabar Hills Golf Club - Mountain/Lake,"23600 McKean Rd San Jose, CA 95141",CA,95141,408-323-5200,https://www.cagolf.com/golfcourses/cinnabar-hills-golf-club-mountainlake
Claratina Golf & Country Grill,"4242 Coffee Rd Modesto, CA 95357",CA,95357,209-579-1460,https://www.cagolf.com/golfcourses/claratina-golf-country-grill
Claremont Country Club,"5295 Broadway Terrace Oakland, CA 94618",CA,94618,510-653-6789,https://www.cagolf.com/golfcourses/claremont-country-club
Claremont Golf Course,"1550 N Indian Hill Blvd Claremont, CA 91711",CA,91711,909-624-2748,https://www.cagolf.com/golfcourses/claremont-golf-course
Classic Cub,"75200 Classic Club Blvd Palm Desert, CA 92211",CA,92211,760-601-3600,https://www.cagolf.com/golfcourses/classic-club
Clear Lake Riviera Yacht & Golf Club - Executive,"10200 Fairway Dr Kelseyville, CA 95451",CA,95451,707-277-9126,https://www.cagolf.com/golfcourses/clear-lake-riviera-yacht-golf-club-executive
Clear Lake Riviera Yacht & Golf Club - Nine Hole,"10200 Fairway Dr Kelseyville, CA 95451",CA,95451,707-277-9126,https://www.cagolf.com/golfcourses/clear-lake-riviera-yacht-golf-club-nine-hole
Club Circle Golf Course,"Club Circle Borrego Springs, CA 92004",CA,92004,858-454-2873,https://www.cagolf.com/golfcourses/club-circle-golf-course
Cold Springs Golf & Country Club,"6500 Clubhouse Dr Placerville, CA 95667",CA,95667,530-622-4567,https://www.cagolf.com/golfcourses/cold-springs-golf-country-club
Colina Park Golf Course,"4085 52nd St San Diego, CA 92105",CA,92105,619-255-4425,https://www.cagolf.com/golfcourses/colina-park-golf-course
Colonial Country Club,"601 N Kirby St Hemet, CA 92545",CA,92545,909-925-2664,https://www.cagolf.com/golfcourses/colonial-country-club
Colton Golf Club,"1901 Valley Blvd Colton, CA 92324",CA,92324,909-877-1712,https://www.cagolf.com/golfcourses/colton-golf-club
Colusa Golf and Country Club,"2224 Highway 20 Colusa, CA 95932",CA,95932,530-458-557,https://www.cagolf.com/golfcourses/colusa-golf-and-country-club
Compton Par 3 Golf Course,"6400 E Compton Blvd Compton, CA 90221",CA,90221,562-633-6721,https://www.cagolf.com/golfcourses/compton-par-3-golf-course
Contra Costa Country Club,"801 Golf Club Rd Pleasant Hill, CA 94523",CA,94523,925-685-8288,https://www.cagolf.com/golfcourses/contra-costa-country-club
Copper River Country Club,"11500 N Friant Rd Fresno, CA 93720",CA,93720,559-434-5200,https://www.cagolf.com/golfcourses/copper-river-country-club
CordeValle Golf Club,"1005 Highland Ave San Martin, CA 95046",CA,95046,408-683-7200,https://www.cagolf.com/golfcourses/cordevalle-golf-club
Cordova Golf Course,"9425 Jackson Rd Sacramento, CA 95826",CA,95826,916-362-1196,https://www.cagolf.com/golfcourses/cordova-golf-course
Corica Park - North,"1 Clubhouse Memorial Dr Alameda, CA 94502",CA,94502,510-522-4321,https://www.cagolf.com/golfcourses/corica-park-north-course
Corica Park - South,"1 Clubhouse Memorial Dr Alameda, CA 94502",CA,94502,510-522-4321,https://www.cagolf.com/golfcourses/corica-park-south
Coronado Golf Course,"2000 Visalia Row Coronado, CA 92118",CA,92118,619-435-3121,https://www.cagolf.com/golfcourses/coronado-golfcourse
Corral de Tierra Country Club,"81 Corral de Tierra Rd Salinas, CA 93908",CA,93908,831-484-1325,https://www.cagolf.com/golfcourses/corral-de-tierra-country-club
Costa Mesa Golf & Country Club,"1701 Golf Course Dr Costa Mesa, CA 92626",CA,92626,714-540-7500,https://www.cagolf.com/golfcourses/costa-mesa-golf-country-club
Coto de Caza Golf & Racquet Club,"25291 Vista del Verde Coto de Caza, CA 92679",CA,92679,949-858-2770,https://www.cagolf.com/golfcourses/coto-de-caza-golf-racquet-club
Cottonwood Golf Center,"13671 Frederick St Moreno Valley, CA 92553",CA,92553,909-413-3290,https://www.cagolf.com/golfcourses/cottonwood-golf-center
Cottonwood at Rancho San Diego - Ivanhoe,"3121 Willow Glen Dr El Cajon, CA 92019",CA,92019,619-442-9891,https://www.cagolf.com/golfcourses/cottonwood-at-rancho-san-diego-ivanhoe
Cottonwood at Rancho San Diego - Monte Vista,"3121 Willow Glen Dr El Cajon, CA 92019",CA,92019,619-442-9891,https://www.cagolf.com/golfcourses/cottonwood-at-rancho-san-diego-monte-vista
Coyote Creek,"Hwy 101 Coyote, CA 95013",CA,95013,408-463-1400,https://www.cagolf.com/golfcourses/coyote-creek
Coyote Hills Golf Course,"1440 E Bastanchury Fullerton, CA 92835",CA,92835,714-672-6800,https://www.cagolf.com/golfcourses/coyote-hills-golf-course
Coyote Moon Golf Club,"10685 Northwoods Blvd Truckee, CA 96161",CA,96161,530-587-0886,https://www.cagolf.com/golfcourses/coyote-moon-golf-club
Creekside Golf Course,"3151 E Riverside Dr Ontario, CA 91761",CA,91761,909-947-1981,https://www.cagolf.com/golfcourses/creekside-golf-course
Cresta Verde Golf Club,"1295 Cresta Rd Corona, CA 92879",CA,92879,909-737-2255,https://www.cagolf.com/golfcourses/cresta-verde-golf-club
CrossCreek Golf Club,"43860 Glen Meadows Road Temecula, CA 92590",CA,92590,951-506-3402,https://www.cagolf.com/golfcourses/crosscreek-golf-club
Crow Canyon Country Club,"711 Silver Lake Dr Danville, CA 94526",CA,94526,925-735-8300,https://www.cagolf.com/golfcourses/crow-canyon-country-club
Crystal Springs Golf Course,"6650 Golf Course Dr Burlingame, CA 94010",CA,94010,650-342-0603,https://www.cagolf.com/golfcourses/3801
Crystalaire Country Club,"15701 Boca Raton Ave Llano, CA 93544",CA,93544,661-944-2111,https://www.cagolf.com/golfcourses/crystalaire-country-club
Cypress Golf Course,"2001 Hillside Blvd Colma, CA 94014",CA,94014,650-992-5155,https://www.cagolf.com/golfcourses/cypress-golf-course
Cypress Lakes Golf Course,"5601 Meridian Rd Vacaville, CA 95687",CA,95687,707-448-7186,https://www.cagolf.com/golfcourses/cypress-lakes-golf-course
Cypress Point Club,"3150 17 Mile Drive Pebble Beach, CA 93953",CA,93953,831-624-6444,https://www.cagolf.com/golfcourses/cypress-point-club
Cypress Ridge,"780 Cypress Ridge Pkwy Arroyo Grande, CA 93420",CA,93420,805-474-7979,https://www.cagolf.com/golfcourses/cypress-ridge
Dad Miller Golf Course,"430 N Gilbert St Anaheim, CA 92801",CA,92801,714-765-3481,https://www.cagolf.com/golfcourses/dad-miller-golf-course
Dairy Creek Golf Course,"2990 Dairy Creek Rd San Luis Obispo, CA 93405",CA,93405,805-782-8060,https://www.cagolf.com/golfcourses/dairy-creek-golf-course
DarkHorse Golf Club,"13450 Combie Rd Auburn, CA 95602",CA,95602,530-269-7900,https://www.cagolf.com/golfcourses/darkhorse-golf-club
Date Palm Springs Country Club,"36200 Date Palm Dr Cathedral City, CA 92234",CA,92234,760-324-7575,https://www.cagolf.com/golfcourses/date-palm-springs-country-club
David L. Baker Memorial Golf,"10410 E Edinger Ave Fountain Valley, CA 92708",CA,92708,714-418-2152,https://www.cagolf.com/golfcourses/david-l-baker-memorial-golf
Davis Golf Course,"24439 Fairway Dr Davis, CA 95616",CA,95616,530-756-4010,https://www.cagolf.com/golfcourses/davis-golf-course
De Anza Desert Country Club,"509 Catarina Dr Borrego Springs, CA 92004",CA,92004,760-767-5577,https://www.cagolf.com/golfcourses/de-anza-desert-country-club
De Bell Municipal Golf Course - Par 3,"1500 Walnut Ave Burbank, CA 91501",CA,91501,818-845-0022,https://www.cagolf.com/golfcourses/de-bell-municipal-golf-course-par-3
De Bell Municipal Golf Course - Regulation,"1500 Walnut Ave Burbank, CA 91501",CA,91501,818-845-0022,https://www.cagolf.com/golfcourses/de-bell-municipal-golf-course-regulation
De Laveaga Golf Course,"401 Upper Park Rd Santa Cruz, CA 95065",CA,95065,831-423-7212,https://www.cagolf.com/golfcourses/de-laveaga-golf-course
Deep Cliff Golf Course,"10700 Club House Ln Cupertino, CA 95014",CA,95014,408-253-5357,https://www.cagolf.com/golfcourses/deep-cliff-golf-course
Deer Ridge Country Club,"801 Foothill Drive Brentwood, CA 94513",CA,94513,925-516-6769,https://www.cagolf.com/golfcourses/deer-ridge-country-club
Del Mar Country Club,"6001 Clubhouse Dr Rancho Santa Fe, CA 92067",CA,92067,858-759-5500,https://www.cagolf.com/golfcourses/del-mar-country-club
Del Monte Golf Course,"1300 Sylvan Rd Monterey, CA 93940",CA,93940,831-373-2700,https://www.cagolf.com/golfcourses/del-monte-golf-course
Del Norte Golf Club,"130 Club Dr Crescent City, CA 95531",CA,95531,707-458-3214,https://www.cagolf.com/golfcourses/del-norte-golf-club
Del Paso Country Club,"3333 Marconi Ave Sacramento, CA 95821",CA,95821,916-483-0401,https://www.cagolf.com/golfcourses/del-paso-country-club
Del Rio Country Club,"102 E Del Rio Rd Brawley, CA 92227",CA,92227,760-344-0085,https://www.cagolf.com/golfcourses/del-rio-country-club
Del Rio Country Club - Bluff/River,"801 Stewart Rd Modesto, CA 95356",CA,95356,209-545-0723,https://www.cagolf.com/golfcourses/del-rio-country-club-bluffriver
Del Rio Country Club - Oak/Bluff,"801 Stewart Rd Modesto, CA 95356",CA,95356,209-545-0723,https://www.cagolf.com/golfcourses/del-rio-country-club-oakbluff
Delano Golf Course,"104 S Lexington St Delano, CA 93215",CA,93215,661-725-7527,https://www.cagolf.com/golfcourses/delano-golf-course
Desert Aire Golf Course,"3620 E Ave P Palmdale, CA 93550",CA,93550,661-538-0370,https://www.cagolf.com/golfcourses/desert-aire-golf-course
Desert Crest Country Club,"69400 S Country Club Dr Desert Hot Springs, CA 92241",CA,92241,760-329-8711,https://www.cagolf.com/golfcourses/desert-crest-country-club
Desert Dunes Golf Course,"19300 Palm Dr Desert Hot Springs, CA 92240",CA,92240,760-251-5366,https://www.cagolf.com/golfcourses/desert-dunes-golf-course
Desert Falls Country Club,"1111 Desert Falls Pkwy Palm Desert, CA 92211",CA,92211,760-340-4653,https://www.cagolf.com/golfcourses/desert-falls-country-club
Desert Horizons Country Club,"44900 Desert Horizons Dr Indian Wells, CA 92210",CA,92210,760-340-4646,https://www.cagolf.com/golfcourses/desert-horizons-country-club
Desert Island Golf & Country Club,"71777 Frank Sinatra Dr Rancho Mirage, CA 92270",CA,92270,760-328-2111,https://www.cagolf.com/golfcourses/desert-island-golf-country-club
Desert Princess Country Club - El Cielo/La Vista,"28555 Landau Blvd Cathedral City, CA 92234",CA,92234,760-322-2280,https://www.cagolf.com/golfcourses/desert-princess-country-club-el-cielola-vista
Desert Princess Country Club - Los Lagos/El Cielo,"28555 Landau Blvd Cathedral City, CA 92234",CA,92234,760-322-2280,https://www.cagolf.com/golfcourses/desert-princess-country-club-los-lagosel-cielo
Desert Willow Golf Resort - Firecliff,"38-995 Desert Willow Drive Palm Desert, CA 92260",CA,92260,760-346-7060,https://www.cagolf.com/golfcourses/desert-willow-golf-resort-firecliff
Desert Willow Golf Resort - Mountain View,"38-995 Desert Willow Dr Palm Desert, CA 92260",CA,92260,760-346-7060,https://www.cagolf.com/golfcourses/desert-willow-golf-resort-mountain-view
Desert Winds Golf Course,"MWR Golf Course Bdlg 3812 Twentynine Palms, CA 92278",CA,92278,760-830-6132,https://www.cagolf.com/golfcourses/desert-winds-golf-course
Diablo Country Club,"1 Clubhouse Rd Diablo, CA 94528",CA,94528,925-837-9233,https://www.cagolf.com/golfcourses/diablo-country-club
Diablo Creek Golf Course,"4050 Port Chicago Hwy Concord, CA 94520",CA,94520,925-686-6262,https://www.cagolf.com/golfcourses/diablo-creek-golf-course
Diablo Grande - Legends West,"10001 Oak Flat Rd Patterson, CA 95363",CA,95363,209-892-4653,https://www.cagolf.com/golfcourses/diablo-grande-legends-west
Diablo Grande - The Ranch,"10001 Oak Flat Rd Patterson, CA 95363",CA,95363,209-892-4653,https://www.cagolf.com/golfcourses/diablo-grande-the-ranch
Diablo Hills Golf Course,"1551 Marchbanks Dr Walnut Creek, CA 94598",CA,94598,925-939-7372,https://www.cagolf.com/golfcourses/diablo-hills-golf-course
Diamond Bar Golf Course,"22751 E Golden Springs Dr Diamond Bar, CA 91765",CA,91765,909-861-8282,https://www.cagolf.com/golfcourses/diamond-bar-golf-course
Diamond Mountain Golf Course,"470-835 Wingfield Rd Susanville, CA 96130",CA,96130,530-257-6303,https://www.cagolf.com/golfcourses/diamond-mountain-golf-course
Diamond Oaks Municipal Golf Course,"349 Diamond Oaks Rd Roseville, CA 95678",CA,95678,916-783-4947,https://www.cagolf.com/golfcourses/diamond-oaks-municipal-golf-course
Diamond Valley Golf Club,"31220 Sage Rd Hemet, CA 92543",CA,92543,909-767-0828,https://www.cagolf.com/golfcourses/diamond-valley-golf-club
Discovery Bay Country Club,"1475 Clubhouse Dr Byron, CA 94514",CA,94514,925-634-0704,https://www.cagolf.com/golfcourses/discovery-bay-country-club
Dominguez Golf & Practice Center,"19800 S Main St Carson, CA 90745",CA,90745,310-719-1942,https://www.cagolf.com/golfcourses/dominguez-golf-practice-center
DoubleTree Carmel Highland Resort,"14455 Penasquitos Dr San Diego, CA 92129",CA,92129,858-672-9100,https://www.cagolf.com/golfcourses/doubletree-carmel-highland-resort
Dove Canyon Country Club,"22682 Golf Club Dr Dove Canyon, CA 92679",CA,92679,949-858-2888,https://www.cagolf.com/golfcourses/dove-canyon-country-club
Dry Creek Ranch Golf Course,"809 Crystal Way Galt, CA 95632",CA,95632,209-745-2330,https://www.cagolf.com/golfcourses/dry-creek-ranch-golf-course
Dublin Ranch Golf Club,"5900 Signal Hill Dr Dublin, CA 94568",CA,94568,925-556-7040,https://www.cagolf.com/golfcourses/dublin-ranch-golf-club
Eagle Creek Golf Course,"13000 Atascadero Rd Atascadero, CA 93422",CA,93422,805-461-7500,https://www.cagolf.com/golfcourses/eagle-creek-golf-course
Eagle Crest Golf Club,"2492 Old Ranch Rd San Diego, CA 92027",CA,92027,760-737-9762,https://www.cagolf.com/golfcourses/eagle-crest-golf-club
Eagle Falls Golf Course,"84245 Indio Springs Drive Indio, CA 92203",CA,92203,760-238-5633,https://www.cagolf.com/golfcourses/eagle-falls-golf-course
Eagle Glen Golf Club,"1800 Eagle Glen Pkwy Corona, CA 92883",CA,92883,951-272-4653,https://www.cagolf.com/golfcourses/eagle-glen-golf-club
Eagle Ridge Golf Club,"2951 Club Dr Gilroy, CA 95020",CA,95020,408-846-4531,https://www.cagolf.com/golfcourses/eagle-ridge-golf-club
Eagle Vines Golf Club,"580 S. Kelly Road Napa, CA 94558",CA,94558,707-257-447,https://www.cagolf.com/golfcourses/eagle-vines-golf-club
Eagles Nest Golf Course,"22112 Walker Rd Klamath River, CA 96050",CA,96050,530-465-2424,https://www.cagolf.com/golfcourses/4454
Eastlake Country Club,"2375 Clubhouse Dr Chula Vista, CA 91915",CA,91915,619-482-5757,https://www.cagolf.com/golfcourses/eastlake-country-club
Eaton Canyon Golf Course,"1150 N Sierra Madre Villa Ave Pasadena, CA 91107",CA,91107,626-794-6773,https://www.cagolf.com/golfcourses/eaton-canyon-golf-course
Echo Hills Golf Club,"545 E Thornton Ave Hemet, CA 92543",CA,92543,909-652-2203,https://www.cagolf.com/golfcourses/echo-hills-golf-club
El Caballero Country Club,"18300 Tarzana Dr Tarzana, CA 91356",CA,91356,818-345-2221,https://www.cagolf.com/golfcourses/el-caballero-country-club
El Camino Country Club,"3202 Vista Way Oceanside, CA 92056",CA,92056,760-757-2100,https://www.cagolf.com/golfcourses/el-camino-country-club
El Cariso Golf Course,"13100 Eldridge Ave Sylmar, CA 91342",CA,91342,818-367-6157,https://www.cagolf.com/golfcourses/el-cariso-golf-course
El Dorado Hills Golf Course,"3775 El Dorado Hills Blvd El Dorado Hills, CA 95762",CA,95762,916-933-6552,https://www.cagolf.com/golfcourses/el-dorado-hills-golf-course
El Dorado Park Golf Club,"2400 N Studebaker Rd Long Beach, CA 90815",CA,90815,562-430-5411,https://www.cagolf.com/golfcourses/el-dorado-park-golf-club
El Macero Country Club,"44571 Clubhouse Dr El Macero, CA 95618",CA,95618,530-753-5621,https://www.cagolf.com/golfcourses/el-macero-country-club
El Niguel Country Club,"23700 Clubhouse Dr Laguna Niguel, CA 92677",CA,92677,949-496-2023,https://www.cagolf.com/golfcourses/el-niguel-country-club
El Prado Golf Courses - Butterfield Stage,"6555 Pine Ave Chino, CA 91710",CA,91710,909-597-1753,https://www.cagolf.com/golfcourses/el-prado-golf-courses-butterfield-stage
El Prado Golf Courses - Chino Creek,"6555 Pine Ave Chino, CA 91710",CA,91710,909-597-1753,https://www.cagolf.com/golfcourses/el-prado-golf-courses-chino-creek
El Rancho Verde Country Club,"355 E Country Club Dr Rialto, CA 92377",CA,92377,909-875-5346,https://www.cagolf.com/golfcourses/el-rancho-verde-country-club
El Rivino Country Club,"5530 El Rivino Rd Riverside, CA 92509",CA,92509,909-684-8905,https://www.cagolf.com/golfcourses/el-rivino-country-club
El Toro Golf Course,"7000 Trabuco Rd Irvine, CA 92619",CA,92619,949-726-2577,https://www.cagolf.com/golfcourses/el-toro-golf-course
Eldorado Country Club,"46000 Fairway Dr Indian Wells, CA 92210",CA,92210,760-346-8081,https://www.cagolf.com/golfcourses/eldorado-country-club
Elkhorn Country Club,"1050 Elkhorn Dr Stockton, CA 95209",CA,95209,209-477-0252,https://www.cagolf.com/golfcourses/elkhorn-country-club
Elkins Ranch Golf Course,"1386 Chambersburg Rd Fillmore, CA 93015",CA,93015,805-524-1440,https://www.cagolf.com/golfcourses/elkins-ranch-golf-course
Emerald Desert Country Club,"76-000 Frank Sinatra Dr Palm Desert, CA 92211",CA,92211,760-345-4770,https://www.cagolf.com/golfcourses/emerald-desert-country-club
Emerald Hills Golf Course,"938 Wilmington Way Redwood City, CA 94062",CA,94062,650-368-7820,https://www.cagolf.com/golfcourses/4729
Emerald Isle Golf Course,"660 S El Camino Real Oceanside, CA 92057",CA,92057,760-721-4700,https://www.cagolf.com/golfcourses/emerald-isle-golf-course
Emerald Lakes Golf Center,"10651 E Stockton Blvd Elk Grove, CA 95624",CA,95624,916-685-4653,https://www.cagolf.com/golfcourses/emerald-lakes-golf-center
Empire Lakes Golf Course,"11015 6th St Rancho Cucamonga, CA 91730",CA,91730,909-481-6663,https://www.cagolf.com/golfcourses/empire-lakes-golf-course
Empire Ranch Golf Club,"1620 E Natomas St Folsom, CA 95630",CA,95630,916-817-8100,https://www.cagolf.com/golfcourses/empire-ranch-golf-club
Encina Royale Golf Course,"250 Moreton Bay Ln Goleta, CA 93117",CA,93117,805-964-4797,https://www.cagolf.com/golfcourses/encina-royale-golf-course
Encinitas Ranch Golf Course,"1275 Quail Gardens Dr Encinitas, CA 92024",CA,92024,760-944-1936,https://www.cagolf.com/golfcourses/encinitas-ranch-golf-course
Escalon Golf Course,"17051 S Escalon Bellota Rd Escalon, CA 95320",CA,95320,209-838-1277,https://www.cagolf.com/golfcourses/escalon-golf-course
Escena Golf Club,"1100 Clubhouse View Drive Palm Springs, CA 92262",CA,92262,760-778-2737,https://www.cagolf.com/golfcourses/escena-golf-club
Escondido Country Club,"1800 W Country Club Ln Escondido, CA 92026",CA,92026,760-746-4212,https://www.cagolf.com/golfcourses/escondido-country-club
Eureka Municipal Golf Course,"4750 Fairway Dr Eureka, CA 95503",CA,95503,707-443-4808,https://www.cagolf.com/golfcourses/eureka-municipal-golf-course
Exeter Public Golf Course,"510 W Visalia Rd Exeter, CA 93221",CA,93221,559-592-4783,https://www.cagolf.com/golfcourses/exeter-public-golf-course
Fairbanks Ranch Country Club,"15150 San Dieguito Rd Rancho Santa Fe, CA 92067",CA,92067,858-259-8819,https://www.cagolf.com/golfcourses/fairbanks-ranch-country-club
Fairgrounds Golf Center,"1350 Bennett Valley Rd Santa Rosa, CA 95404",CA,95404,707-577-0755,https://www.cagolf.com/golfcourses/fairgrounds-golf-center
Fairmont - The Grand Golf Club,"5300 Grand Del Mar Way San Diego, CA 92130",CA,92130,858-792-6200,https://www.cagolf.com/golfcourses/the-grand-golf-club
Fairmont Park Golf Course & Country Club,"2681 Dexter Dr Riverside, CA 92501",CA,92501,909-682-2202,https://www.cagolf.com/golfcourses/fairmont-park-golf-course-country-club
Fall River Valley Golf & Country Club,"Hwy 299 E Fall River Mills, CA 96018",CA,96018,530-336-5555,https://www.cagolf.com/golfcourses/fall-river-valley-golf-country-club
Fallbrook Golf Club,"2757 Gird Rd Fallbrook, CA 92028",CA,92028,760-728-8334,https://www.cagolf.com/golfcourses/fallbrook-golf-club
Feather River Inn Golf Club & Resort,"Hwy 70 at Feather River Inn Rd Blairsden, CA 96103",CA,96103,530-836-2722,https://www.cagolf.com/golfcourses/feather-river-inn-golf-club-resort
Feather River Park Resort,"8339 Hwy 89 Blairsden, CA 96103",CA,96103,530-836-2328,https://www.cagolf.com/golfcourses/feather-river-park-resort
Fig Garden Golf Course,"7700 N Van Ness Blvd Fresno, CA 93711",CA,93711,559-439-2928,https://www.cagolf.com/golfcourses/fig-garden-golf-course
Foothill Golf Center,"7000 Verner Ave Sacramento, CA 95841",CA,95841,916-725-3355,https://www.cagolf.com/golfcourses/foothill-golf-center
Ford Park Golf Course,"8000 Park Ln Bell Gardens, CA 90201",CA,90201,562-927-8811,https://www.cagolf.com/golfcourses/ford-park-golf-course
Forebay Golf Course,"29500 Bayview Rd Santa Nella, CA 95322",CA,95322,209-826-3637,https://www.cagolf.com/golfcourses/forebay-golf-course
Forest Lake Golf Course,"2450 E Woodson Rd Acampo, CA 95220",CA,95220,209-369-5451,https://www.cagolf.com/golfcourses/forest-lake-golf-course
Forest Meadows Golf Course,"633 Forest Meadows Dr Murphys, CA 95247",CA,95247,209-728-3439,https://www.cagolf.com/golfcourses/forest-meadows-golf-course
Fort Washington Golf & Country Club,"10272 N Millbrook Ave Fresno, CA 93720",CA,93720,559-434-9120,https://www.cagolf.com/golfcourses/fort-washington-golf-country-club
Fountaingrove Resort & Country Club,"1525 Fountaingrove Pkwy Santa Rosa, CA 95403",CA,95403,707-579-4653,https://www.cagolf.com/golfcourses/fountaingrove-resort-country-club
Foxtail Golf Club - North,"100 Golf Course Dr Rohnert Park, CA 94928",CA,94928,707-584-7766,https://www.cagolf.com/golfcourses/foxtail-golf-club-north
Foxtail Golf Club - South,"100 Golf Course Dr Rohnert Park, CA 94928",CA,94928,707-584-7766,https://www.cagolf.com/golfcourses/foxtail-golf-club-south
Franklin Canyon Golf Course,"Hwy 4 Hercules, CA 94572",CA,94572,510-799-6191,https://www.cagolf.com/golfcourses/franklin-canyon-golf-course
French Camp Golf Course,"3919 French Camp Rd Manteca, CA 95336",CA,95336,209-234-3030,https://www.cagolf.com/golfcourses/french-camp-golf-course
Fresno West Golf Course,"23986 W Whitesbridge Rd Kerman, CA 93630",CA,93630,559-846-8655,https://www.cagolf.com/golfcourses/fresno-west-golf-course
Friendly Hills Country Club,"8500 S. Villaverde Dr Whittier, CA 90605",CA,90605,562-698-0331,https://www.cagolf.com/golfcourses/friendly-hills-country-club
Friendly Valley Golf Course,"19345 Ave of the Oaks Newhall, CA 91321",CA,91321,661-252-9859,https://www.cagolf.com/golfcourses/friendly-valley-golf-course
Fullerton Golf Course,"2700 N Harbor Blvd Fullerton, CA 92835",CA,92835,714-871-5141,https://www.cagolf.com/golfcourses/fullerton-golf-course
Gavilan College Golf Course,"5055 Santa Teresa Blvd Gilroy, CA 95020",CA,95020,408-848-1363,https://www.cagolf.com/golfcourses/gavilan-college-golf-course
General Old Golf Course,"6104 Village W Dr Riverside, CA 92518",CA,92518,909-697-6690,https://www.cagolf.com/golfcourses/general-old-golf-course
Gilroy Golf Course,"2695 Hecker Pass Hwy Gilroy, CA 95020",CA,95020,408-848-0490,https://www.cagolf.com/golfcourses/gilroy-golf-course
Glen Annie Golf Club,"405 Glen Annie Rd Santa Barbara, CA 93117",CA,93117,805-968-6400,https://www.cagolf.com/golfcourses/glen-annie-golf-club
Glen Oaks Golf & Racquet Club,"200 W Dawson Ave Glendora, CA 91740",CA,91740,626-335-7565,https://www.cagolf.com/golfcourses/glen-oaks-golf-racquet-club
Glendora Country Club,"310 S Amelia Ave Glendora, CA 91741",CA,91741,626-335-3713,https://www.cagolf.com/golfcourses/glendora-country-club
Gleneagles Golf Club,"2100 Sunnydale Ave San Francisco, CA 94134",CA,94134,415-587-2425,https://www.cagolf.com/golfcourses/gleneagles-golf-club
Glenn Golf & Country Club,"6226 County Rd 39 Willows, CA 95988",CA,95988,530-934-9918,https://www.cagolf.com/golfcourses/glenn-golf-country-club
Gold Hills Country Club,"1950 Gold Hills Dr Redding, CA 96003",CA,96003,530-246-7867,https://www.cagolf.com/golfcourses/gold-hills-country-club
Golden Era Golf Course,"19871 Hwy 79 Gilman Hot Springs, CA 92583",CA,92583,909-654-0130,https://www.cagolf.com/golfcourses/golden-era-golf-course
Golden Gate Park Golf Course,"47th Ave San Francisco, CA 94121",CA,94121,415-751-8987,https://www.cagolf.com/golfcourses/golf-gate-park-golf
Goose Creek Golf Club,"11418 68th St Mira Loma, CA 91752",CA,91752,909-735-3982,https://www.cagolf.com/golfcourses/goose-creek-golf-club
Graeagle Meadows Golf Course,"Hwy 89 Graeagle, CA 96103",CA,96103,530-836-2323,https://www.cagolf.com/golfcourses/graeagle-meadows-golf-course
Granite Bay Golf Club,"9600 Golf Club Dr Granite Bay, CA 95746",CA,95746,916-791-5379,https://www.cagolf.com/golfcourses/granite-bay-golf-club
Grays Crossing,"11406 Henness Road Truckee, CA 96160",CA,96160,530-550-5800,https://www.cagolf.com/golfcourses/grays-crossing
Green Hills Country Club,"End of Ludeman Ln Millbrae, CA 94030",CA,94030,650-583-0882,https://www.cagolf.com/golfcourses/green-hills-country-club
Green River Golf Club - Orange,"5215 Green River Rd Corona, CA 92880",CA,92880,714-970-8411,https://www.cagolf.com/golfcourses/green-river-golf-club-orange
Green River Golf Club - Riverside,"5215 Green River Rd Corona, CA 92880",CA,92880,714-970-8411,https://www.cagolf.com/golfcourses/green-river-golf-club-riverside
Green Tree Golf Club - Eighteen Hole,"999 Leisure Town Rd Vacaville, CA 95687",CA,95687,707-448-1420,https://www.cagolf.com/golfcourses/green-tree-golf-club-eighteen-hole
Green Tree Golf Club - Executive,"999 Leisure Town Rd Vacaville, CA 95687",CA,95687,707-448-1420,https://www.cagolf.com/golfcourses/green-tree-golf-club-executive
Green Tree Golf Course,"14144 Green Tree Blvd Victorville, CA 92392",CA,92392,760-245-4860,https://www.cagolf.com/golfcourses/green-tree-golf-course
Green Valley Golf Course,"35 Country Club Dr Suisun City, CA 94585",CA,94585,707-864-0473,https://www.cagolf.com/golfcourses/green-valley-golf-course
Greenhorn Creek Resort Golf Course,"676 McCauley Ranch Rd Angels Camp, CA 95222",CA,95222,209-736-8111,https://www.cagolf.com/golfcourses/greenhorn-creek-resort-golf-course
Griffith Park Golf Courses - Harding,"4730 CryStal Springs Dr Los Angeles, CA 90027",CA,90027,323-664-2255,https://www.cagolf.com/golfcourses/griffith-park-golf-courses-harding
Griffith Park Golf Courses - Wilson,"4730 CryStal Springs Dr Los Angeles, CA 90027",CA,90027,323-664-2255,https://www.cagolf.com/golfcourses/griffith-park-golf-courses-wilson
Grizzly Ranch,"250 Clubhouse Drive Portola, CA 96122",CA,96122,530-832-4200,https://www.cagolf.com/golfcourses/grizzly-ranch
Hacienda Golf Club,"718 E Rd La Habra Heights, CA 90631",CA,90631,562-697-3610,https://www.cagolf.com/golfcourses/hacienda-golf-club
Haggin Oaks Golf Course - Alister Mackenzie,"3645 Fulton Ave Sacramento, CA 95821",CA,95821,916-575-2525,https://www.cagolf.com/golfcourses/haggin-oaks-golf-course-alister-mackenzie
JW Marriott Desert Springs Resort Spa - Palm,"74-855 Country Club Drive Palm Desert, CA 92260",CA,92260,760-341-1756,https://www.cagolf.com/golfcourses/desert-springs-resort-palm
JW Marriott Desert Springs Resort Spa - Valley,"74-855 Country Club Drive Palm Desert, CA 92260",CA,92260,760-341-1756,https://www.cagolf.com/golfcourses/desert-springs-resort-valley
The Furnace Creek Golf Course at Death Valley,"Highway 190 Death Valley, CA 92328",CA,92328,760-786-3373,https://www.cagolf.com/golfcourses/furnace-creek-golf-course
